{
"type": "FeatureCollection",
"name": "geo_14_各種学校",
"crs": { "type": "name", "properties": { "name": "urn:ogc:def:crs:EPSG::6668" } },
"features": [
{ "type": "Feature", "properties": { "P29_001": "14101", "P29_002": "H214310000017", "P29_003": "16015", "P29_004": "鶴見朝鮮初級学校", "P29_005": "神奈川県横浜市鶴見区小野町10", "P29_006": "4", "P29_007": "0", "P29_008": "00", "P29_009": null }, "geometry": { "type": "Point", "coordinates": [ 139.680061082265695, 35.496745087668053 ] } },
{ "type": "Feature", "properties": { "P29_001": "14102", "P29_002": "H214310000026", "P29_003": "16015", "P29_004": "ホライゾンジャパンインターナショナルスクール", "P29_005": "神奈川県横浜市神奈川区大野町1-24", "P29_006": "4", "P29_007": "0", "P29_008": "00", "P29_009": null }, "geometry": { "type": "Point", "coordinates": [ 139.629906422912455, 35.467434686789176 ] } },
{ "type": "Feature", "properties": { "P29_001": "14102", "P29_002": "H214310000035", "P29_003": "16015", "P29_004": "神奈川朝鮮中高級学校", "P29_005": "神奈川県横浜市神奈川区沢渡21", "P29_006": "4", "P29_007": "0", "P29_008": "00", "P29_009": null }, "geometry": { "type": "Point", "coordinates": [ 139.615541750688891, 35.471817875226911 ] } },
{ "type": "Feature", "properties": { "P29_001": "14102", "P29_002": "H214310000044", "P29_003": "16015", "P29_004": "横浜朝鮮初級学校", "P29_005": "神奈川県横浜市神奈川区沢渡21", "P29_006": "4", "P29_007": "0", "P29_008": "00", "P29_009": null }, "geometry": { "type": "Point", "coordinates": [ 139.616195419414481, 35.471937381902457 ] } },
{ "type": "Feature", "properties": { "P29_001": "14104", "P29_002": "H214310000053", "P29_003": "16015", "P29_004": "サンモールインターナショナルスクール", "P29_005": "神奈川県横浜市中区山手町83", "P29_006": "4", "P29_007": "0", "P29_008": "00", "P29_009": null }, "geometry": { "type": "Point", "coordinates": [ 139.652325440906537, 35.435239931603775 ] } },
{ "type": "Feature", "properties": { "P29_001": "14104", "P29_002": "H214310000062", "P29_003": "16015", "P29_004": "横浜インターナショナルスクール", "P29_005": "神奈川県横浜市中区小港町2-100-1", "P29_006": "4", "P29_007": "0", "P29_008": "00", "P29_009": null }, "geometry": { "type": "Point", "coordinates": [ 139.665655641118065, 35.429778466805203 ] } },
{ "type": "Feature", "properties": { "P29_001": "14104", "P29_002": "H214310000071", "P29_003": "16015", "P29_004": "横濱中華學院", "P29_005": "神奈川県横浜市中区山下町142", "P29_006": "4", "P29_007": "0", "P29_008": "00", "P29_009": null }, "geometry": { "type": "Point", "coordinates": [ 139.644575077632481, 35.442558325269786 ] } },
{ "type": "Feature", "properties": { "P29_001": "14104", "P29_002": "H214310000080", "P29_003": "16015", "P29_004": "横浜山手中華学校", "P29_005": "神奈川県横浜市中区吉浜町2-66", "P29_006": "4", "P29_007": "0", "P29_008": "00", "P29_009": null }, "geometry": { "type": "Point", "coordinates": [ 139.642316668309007, 35.439194922171453 ] } },
{ "type": "Feature", "properties": { "P29_001": "14105", "P29_002": "H214310000099", "P29_003": "16015", "P29_004": "杉野洋裁研究所", "P29_005": "神奈川県横浜市南区中島町2-34", "P29_006": "4", "P29_007": "0", "P29_008": "00", "P29_009": null }, "geometry": { "type": "Point", "coordinates": [ 139.603918830987851, 35.42723680985452 ] } },
{ "type": "Feature", "properties": { "P29_001": "14118", "P29_002": "H214310000106", "P29_003": "16015", "P29_004": "東京横浜独逸学園", "P29_005": "神奈川県横浜市都筑区茅ヶ崎南2-4-1", "P29_006": "4", "P29_007": "0", "P29_008": "00", "P29_009": null }, "geometry": { "type": "Point", "coordinates": [ 139.581531018429502, 35.5383337317556 ] } },
{ "type": "Feature", "properties": { "P29_001": "14131", "P29_002": "H214313000011", "P29_003": "16015", "P29_004": "川崎朝鮮初中級学校", "P29_005": "神奈川県川崎市川崎区桜本2-43-1", "P29_006": "4", "P29_007": "0", "P29_008": "00", "P29_009": null }, "geometry": { "type": "Point", "coordinates": [ 139.728450768043217, 35.52229380959551 ] } },
{ "type": "Feature", "properties": { "P29_001": "14134", "P29_002": "H214313000020", "P29_003": "16015", "P29_004": "南武朝鮮初級学校", "P29_005": "神奈川県川崎市高津区末長3-1-15", "P29_006": "4", "P29_007": "0", "P29_008": "00", "P29_009": null }, "geometry": { "type": "Point", "coordinates": [ 139.616472279862876, 35.591483119644558 ] } }
]
}
