{
"type": "FeatureCollection",
"name": "geo_14_認知症対応型通所介護",
"crs": { "type": "name", "properties": { "name": "urn:ogc:def:crs:OGC:1.3:CRS84" } },
"features": [
{ "type": "Feature", "properties": { "内容": "横浜市鶴見中央地域ケアプラザ【認知症対応型通所介護】神奈川県横浜市鶴見区鶴見中央１－２３－２６", "url2": "https://www.kaigokensaku.mhlw.go.jp/14/index.php?action_kouhyou_detail_004_kani=true&JigyosyoCd=1490100052-00&ServiceCd=720&Type=search" }, "geometry": { "type": "Point", "coordinates": [ 139.679676, 35.5091425 ] } },
{ "type": "Feature", "properties": { "内容": "銀河の詩デイサービスセンター【認知症対応型通所介護】神奈川県横浜市鶴見区鶴見中央3-10-40", "url2": "https://www.kaigokensaku.mhlw.go.jp/14/index.php?action_kouhyou_detail_004_kani=true&JigyosyoCd=1490100060-00&ServiceCd=720&Type=search" }, "geometry": { "type": "Point", "coordinates": [ 139.686000400000012, 35.5111949 ] } },
{ "type": "Feature", "properties": { "内容": "横浜市矢向地域ケアプラザ【認知症対応型通所介護】神奈川県横浜市鶴見区矢向４－３２－１１", "url2": "https://www.kaigokensaku.mhlw.go.jp/14/index.php?action_kouhyou_detail_004_kani=true&JigyosyoCd=1490100151-00&ServiceCd=720&Type=search" }, "geometry": { "type": "Point", "coordinates": [ 139.6825083, 35.5363024 ] } },
{ "type": "Feature", "properties": { "内容": "デイサービスセンターハピネスあすか【認知症対応型通所介護】神奈川県横浜市鶴見区下末吉4-26-41F", "url2": "https://www.kaigokensaku.mhlw.go.jp/14/index.php?action_kouhyou_detail_004_kani=true&JigyosyoCd=1490100573-00&ServiceCd=720&Type=search" }, "geometry": { "type": "Point", "coordinates": [ 139.670363400000014, 35.5234886 ] } },
{ "type": "Feature", "properties": { "内容": "デイサービスニノン【認知症対応型通所介護】神奈川県横浜市鶴見区馬場4-24-13", "url2": "https://www.kaigokensaku.mhlw.go.jp/14/index.php?action_kouhyou_detail_004_kani=true&JigyosyoCd=1490100599-00&ServiceCd=720&Type=search" }, "geometry": { "type": "Point", "coordinates": [ 139.658626936227932, 35.51066417543381 ] } },
{ "type": "Feature", "properties": { "内容": "横浜市東寺尾地域ケアプラザ【認知症対応型通所介護】神奈川県横浜市鶴見区東寺尾１－１２－３", "url2": "https://www.kaigokensaku.mhlw.go.jp/14/index.php?action_kouhyou_detail_004_kani=true&JigyosyoCd=1490100029-00&ServiceCd=720&Type=search" }, "geometry": { "type": "Point", "coordinates": [ 139.647145799999947, 35.5024848 ] } },
{ "type": "Feature", "properties": { "内容": "デイサービスふるさと下末吉【認知症対応型通所介護】神奈川県横浜市鶴見区下末吉2-18-5ＹＭＤマンション101", "url2": "https://www.kaigokensaku.mhlw.go.jp/14/index.php?action_kouhyou_detail_004_kani=true&JigyosyoCd=1490100334-00&ServiceCd=720&Type=search" }, "geometry": { "type": "Point", "coordinates": [ 139.672345800000016, 35.5215631 ] } },
{ "type": "Feature", "properties": { "内容": "社会福祉法人いきいき福祉会　ラポール西寺尾【認知症対応型通所介護】神奈川県横浜市神奈川区西寺尾３－２２－５", "url2": "https://www.kaigokensaku.mhlw.go.jp/14/index.php?action_kouhyou_detail_004_kani=true&JigyosyoCd=1490200050-00&ServiceCd=720&Type=search" }, "geometry": { "type": "Point", "coordinates": [ 139.651751, 35.4971132 ] } },
{ "type": "Feature", "properties": { "内容": "横浜市菅田地域ケアプラザ【認知症対応型通所介護】神奈川県横浜市神奈川区菅田町1718-1", "url2": "https://www.kaigokensaku.mhlw.go.jp/14/index.php?action_kouhyou_detail_004_kani=true&JigyosyoCd=1490200159-00&ServiceCd=720&Type=search" }, "geometry": { "type": "Point", "coordinates": [ 139.58518794532165, 35.501619623376776 ] } },
{ "type": "Feature", "properties": { "内容": "認知症対応型デイサービス　ライフエール神大寺【認知症対応型通所介護】神奈川県横浜市神奈川区六角橋4-6-61", "url2": "https://www.kaigokensaku.mhlw.go.jp/14/index.php?action_kouhyou_detail_004_kani=true&JigyosyoCd=1490200233-00&ServiceCd=720&Type=search" }, "geometry": { "type": "Point", "coordinates": [ 139.618864626983651, 35.486307556039563 ] } },
{ "type": "Feature", "properties": { "内容": "ひだまり【認知症対応型通所介護】神奈川県横浜市神奈川区六角橋2－30－2", "url2": "https://www.kaigokensaku.mhlw.go.jp/14/index.php?action_kouhyou_detail_004_kani=true&JigyosyoCd=1490200571-00&ServiceCd=720&Type=search" }, "geometry": { "type": "Point", "coordinates": [ 139.621919899999966, 35.4890421 ] } },
{ "type": "Feature", "properties": { "内容": "いつも、ひだまり【認知症対応型通所介護】神奈川県横浜市神奈川区六角橋2-29-32", "url2": "https://www.kaigokensaku.mhlw.go.jp/14/index.php?action_kouhyou_detail_004_kani=true&JigyosyoCd=1490200662-00&ServiceCd=720&Type=search" }, "geometry": { "type": "Point", "coordinates": [ 139.622002401727286, 35.489179417294899 ] } },
{ "type": "Feature", "properties": { "内容": "認知症対応型デイサービス　ライフエール白楽【認知症対応型通所介護】神奈川県横浜市神奈川区斎藤分町3-23フロンティアコンフォート白楽101", "url2": "https://www.kaigokensaku.mhlw.go.jp/14/index.php?action_kouhyou_detail_004_kani=true&JigyosyoCd=1490200860-00&ServiceCd=720&Type=search" }, "geometry": { "type": "Point", "coordinates": [ 139.6237922, 35.4863841 ] } },
{ "type": "Feature", "properties": { "内容": "横浜市沢渡三ツ沢地域ケアプラザ【認知症対応型通所介護】神奈川県横浜市神奈川区沢渡56-1", "url2": "https://www.kaigokensaku.mhlw.go.jp/14/index.php?action_kouhyou_detail_004_kani=true&JigyosyoCd=1490200043-00&ServiceCd=720&Type=search" }, "geometry": { "type": "Point", "coordinates": [ 139.613582400000041, 35.4726377 ] } },
{ "type": "Feature", "properties": { "内容": "デイサービスふるさと反町【認知症対応型通所介護】神奈川県横浜市神奈川区松本町4-28-9", "url2": "https://www.kaigokensaku.mhlw.go.jp/14/index.php?action_kouhyou_detail_004_kani=true&JigyosyoCd=1490200365-00&ServiceCd=720&Type=search" }, "geometry": { "type": "Point", "coordinates": [ 139.620421833935097, 35.476779551009415 ] } },
{ "type": "Feature", "properties": { "内容": "デイサービスふるさと新子安【認知症対応型通所介護】神奈川県横浜市神奈川区新子安2-4-19", "url2": "https://www.kaigokensaku.mhlw.go.jp/14/index.php?action_kouhyou_detail_004_kani=true&JigyosyoCd=1490200373-00&ServiceCd=720&Type=search" }, "geometry": { "type": "Point", "coordinates": [ 139.655122900000038, 35.4922388 ] } },
{ "type": "Feature", "properties": { "内容": "デイサービスふるさと東神奈川【認知症対応型通所介護】神奈川県横浜市神奈川区立町14-3", "url2": "https://www.kaigokensaku.mhlw.go.jp/14/index.php?action_kouhyou_detail_004_kani=true&JigyosyoCd=1490200472-00&ServiceCd=720&Type=search" }, "geometry": { "type": "Point", "coordinates": [ 139.635544100000061, 35.4818978 ] } },
{ "type": "Feature", "properties": { "内容": "横浜市新子安地域ケアプラザ【認知症対応型通所介護】神奈川県横浜市神奈川区新子安１－２－４オルトヨコハマビジネスセンター１F", "url2": "https://www.kaigokensaku.mhlw.go.jp/14/index.php?action_kouhyou_detail_004_kani=true&JigyosyoCd=1490200167-00&ServiceCd=720&Type=search" }, "geometry": { "type": "Point", "coordinates": [ 139.653656299999966, 35.487167 ] } },
{ "type": "Feature", "properties": { "内容": "横浜市藤棚地域ケアプラザ【認知症対応型通所介護】神奈川県横浜市西区藤棚町２－１９８", "url2": "https://www.kaigokensaku.mhlw.go.jp/14/index.php?action_kouhyou_detail_004_kani=true&JigyosyoCd=1490300199-00&ServiceCd=720&Type=search" }, "geometry": { "type": "Point", "coordinates": [ 139.61340569999993, 35.4488163 ] } },
{ "type": "Feature", "properties": { "内容": "横浜市戸部本町地域ケアプラザ【認知症対応型通所介護】神奈川県横浜市西区戸部本町50-33", "url2": "https://www.kaigokensaku.mhlw.go.jp/14/index.php?action_kouhyou_detail_004_kani=true&JigyosyoCd=1490300066-00&ServiceCd=720&Type=search" }, "geometry": { "type": "Point", "coordinates": [ 139.618135, 35.4573451 ] } },
{ "type": "Feature", "properties": { "内容": "デイサービスふるさと戸部【認知症対応型通所介護】神奈川県横浜市西区中央2-1-13明光中央ビル　１階", "url2": "https://www.kaigokensaku.mhlw.go.jp/14/index.php?action_kouhyou_detail_004_kani=true&JigyosyoCd=1490300140-00&ServiceCd=720&Type=search" }, "geometry": { "type": "Point", "coordinates": [ 139.616290899999967, 35.4522901 ] } },
{ "type": "Feature", "properties": { "内容": "バナナ園　横浜山手【認知症対応型通所介護】神奈川県横浜市中区鷺山８８", "url2": "https://www.kaigokensaku.mhlw.go.jp/14/index.php?action_kouhyou_detail_004_kani=true&JigyosyoCd=1490400205-00&ServiceCd=720&Type=search" }, "geometry": { "type": "Point", "coordinates": [ 139.645881700000018, 35.4312482 ] } },
{ "type": "Feature", "properties": { "内容": "横浜市本牧原地域ケアプラザ【認知症対応型通所介護】神奈川県横浜市中区本牧原６－１", "url2": "https://www.kaigokensaku.mhlw.go.jp/14/index.php?action_kouhyou_detail_004_kani=true&JigyosyoCd=1490400148-00&ServiceCd=720&Type=search" }, "geometry": { "type": "Point", "coordinates": [ 139.668234799999937, 35.425749 ] } },
{ "type": "Feature", "properties": { "内容": "デイサービスふるさと本牧【認知症対応型通所介護】神奈川県横浜市中区本牧町2-307", "url2": "https://www.kaigokensaku.mhlw.go.jp/14/index.php?action_kouhyou_detail_004_kani=true&JigyosyoCd=1490400213-00&ServiceCd=720&Type=search" }, "geometry": { "type": "Point", "coordinates": [ 139.66245749999996, 35.4302401 ] } },
{ "type": "Feature", "properties": { "内容": "デイサービスふるさと初音町【認知症対応型通所介護】神奈川県横浜市中区初音町3-47サンフラットあけぼの", "url2": "https://www.kaigokensaku.mhlw.go.jp/14/index.php?action_kouhyou_detail_004_kani=true&JigyosyoCd=1490400221-00&ServiceCd=720&Type=search" }, "geometry": { "type": "Point", "coordinates": [ 139.623390500000028, 35.4409415 ] } },
{ "type": "Feature", "properties": { "内容": "桜樹の森デイサービスセンター【認知症対応型通所介護】神奈川県横浜市南区永田南1-2-37", "url2": "https://www.kaigokensaku.mhlw.go.jp/14/index.php?action_kouhyou_detail_004_kani=true&JigyosyoCd=1490500053-00&ServiceCd=720&Type=search" }, "geometry": { "type": "Point", "coordinates": [ 139.597095420237764, 35.428898691406282 ] } },
{ "type": "Feature", "properties": { "内容": "横浜市浦舟地域ケアプラザ【認知症対応型通所介護】神奈川県横浜市南区浦舟町3-46浦舟複合福祉施設１階", "url2": "https://www.kaigokensaku.mhlw.go.jp/14/index.php?action_kouhyou_detail_004_kani=true&JigyosyoCd=1490500210-00&ServiceCd=720&Type=search" }, "geometry": { "type": "Point", "coordinates": [ 139.6258838, 35.4340555 ] } },
{ "type": "Feature", "properties": { "内容": "横浜市清水ケ丘地域ケアプラザ【認知症対応型通所介護】神奈川県横浜市南区清水ケ丘49番地", "url2": "https://www.kaigokensaku.mhlw.go.jp/14/index.php?action_kouhyou_detail_004_kani=true&JigyosyoCd=1490500418-00&ServiceCd=720&Type=search" }, "geometry": { "type": "Point", "coordinates": [ 139.60943229999998, 35.4392631 ] } },
{ "type": "Feature", "properties": { "内容": "デイサービス陽だまり【認知症対応型通所介護】神奈川県横浜市南区堀ノ内町2－132", "url2": "https://www.kaigokensaku.mhlw.go.jp/14/index.php?action_kouhyou_detail_004_kani=true&JigyosyoCd=1490700190-00&ServiceCd=720&Type=search" }, "geometry": { "type": "Point", "coordinates": [ 139.615277458097268, 35.428516693759761 ] } },
{ "type": "Feature", "properties": { "内容": "横浜市中村地域ケアプラザ【認知症対応型通所介護】神奈川県横浜市南区中村町2-120-3横浜市中村地域ケアプラザ", "url2": "https://www.kaigokensaku.mhlw.go.jp/14/index.php?action_kouhyou_detail_004_kani=true&JigyosyoCd=1490500129-00&ServiceCd=720&Type=search" }, "geometry": { "type": "Point", "coordinates": [ 139.632412400000021, 35.4345756 ] } },
{ "type": "Feature", "properties": { "内容": "デイサービスふるさと弘明寺【認知症対応型通所介護】神奈川県横浜市南区中里3-1-22", "url2": "https://www.kaigokensaku.mhlw.go.jp/14/index.php?action_kouhyou_detail_004_kani=true&JigyosyoCd=1490500343-00&ServiceCd=720&Type=search" }, "geometry": { "type": "Point", "coordinates": [ 139.596755200524967, 35.420622042488006 ] } },
{ "type": "Feature", "properties": { "内容": "横浜市今井地域ケアプラザ【認知症対応型通所介護】神奈川県横浜市保土ケ谷区今井町412-8", "url2": "https://www.kaigokensaku.mhlw.go.jp/14/index.php?action_kouhyou_detail_004_kani=true&JigyosyoCd=1490600713-00&ServiceCd=720&Type=search" }, "geometry": { "type": "Point", "coordinates": [ 139.559747, 35.452167 ] } },
{ "type": "Feature", "properties": { "内容": "横浜市星川地域ケアプラザ【認知症対応型通所介護】神奈川県横浜市保土ケ谷区川辺町5-11", "url2": "https://www.kaigokensaku.mhlw.go.jp/14/index.php?action_kouhyou_detail_004_kani=true&JigyosyoCd=1490600069-00&ServiceCd=720&Type=search" }, "geometry": { "type": "Point", "coordinates": [ 139.595346, 35.459408700000019 ] } },
{ "type": "Feature", "properties": { "内容": "高齢者グループホームかわしまの園【認知症対応型通所介護】神奈川県横浜市保土ヶ谷区東川島町14番地２", "url2": "https://www.kaigokensaku.mhlw.go.jp/14/index.php?action_kouhyou_detail_004_kani=true&JigyosyoCd=1470600717-00&ServiceCd=720&Type=search" }, "geometry": { "type": "Point", "coordinates": [ 139.571416041104499, 35.473565892173148 ] } },
{ "type": "Feature", "properties": { "内容": "横浜市仏向地域ケアプラザ【認知症対応型通所介護】神奈川県横浜市保土ヶ谷区仏向町1262-3", "url2": "https://www.kaigokensaku.mhlw.go.jp/14/index.php?action_kouhyou_detail_004_kani=true&JigyosyoCd=1490600242-00&ServiceCd=720&Type=search" }, "geometry": { "type": "Point", "coordinates": [ 139.5753535, 35.4559643 ] } },
{ "type": "Feature", "properties": { "内容": "デイサービスふるさと保土ヶ谷【認知症対応型通所介護】神奈川県横浜市保土ヶ谷区法泉1-8-13米山ビル１F", "url2": "https://www.kaigokensaku.mhlw.go.jp/14/index.php?action_kouhyou_detail_004_kani=true&JigyosyoCd=1490600291-00&ServiceCd=720&Type=search" }, "geometry": { "type": "Point", "coordinates": [ 139.571831699999962, 35.4448266 ] } },
{ "type": "Feature", "properties": { "内容": "デイサービスふるさと上星川【認知症対応型通所介護】神奈川県横浜市保土ヶ谷区仏向西18-8斉藤ビル1F", "url2": "https://www.kaigokensaku.mhlw.go.jp/14/index.php?action_kouhyou_detail_004_kani=true&JigyosyoCd=1490600309-00&ServiceCd=720&Type=search" }, "geometry": { "type": "Point", "coordinates": [ 139.56944, 35.4632493 ] } },
{ "type": "Feature", "properties": { "内容": "デイサービスふるさと和田町【認知症対応型通所介護】神奈川県横浜市保土ヶ谷区和田1-1-23", "url2": "https://www.kaigokensaku.mhlw.go.jp/14/index.php?action_kouhyou_detail_004_kani=true&JigyosyoCd=1490600317-00&ServiceCd=720&Type=search" }, "geometry": { "type": "Point", "coordinates": [ 139.593598899999961, 35.4625305 ] } },
{ "type": "Feature", "properties": { "内容": "デイサロンすまいる【認知症対応型通所介護】神奈川県横浜市磯子区下町11-18", "url2": "https://www.kaigokensaku.mhlw.go.jp/14/index.php?action_kouhyou_detail_004_kani=true&JigyosyoCd=1490700208-00&ServiceCd=720&Type=search" }, "geometry": { "type": "Point", "coordinates": [ 139.631164258335843, 35.418950511536785 ] } },
{ "type": "Feature", "properties": { "内容": "ケアパートナーアスウェル磯子杉田【認知症対応型通所介護】神奈川県横浜市磯子区中原2丁目24番15号参道口ビル4Ｆ", "url2": "https://www.kaigokensaku.mhlw.go.jp/14/index.php?action_kouhyou_detail_004_kani=true&JigyosyoCd=1490700323-00&ServiceCd=720&Type=search" }, "geometry": { "type": "Point", "coordinates": [ 139.615148, 35.3852782 ] } },
{ "type": "Feature", "properties": { "内容": "認知症対応型通所介護　bird洋光台【認知症対応型通所介護】神奈川県横浜市磯子区洋光台6-12-19トップ洋光台B1", "url2": "https://www.kaigokensaku.mhlw.go.jp/14/index.php?action_kouhyou_detail_004_kani=true&JigyosyoCd=1490700224-00&ServiceCd=720&Type=search" }, "geometry": { "type": "Point", "coordinates": [ 139.595899599999939, 35.3700141 ] } },
{ "type": "Feature", "properties": { "内容": "横浜市磯子地域ケアプラザ【認知症対応型通所介護】神奈川県横浜市磯子区磯子3-1-22", "url2": "https://www.kaigokensaku.mhlw.go.jp/14/index.php?action_kouhyou_detail_004_kani=true&JigyosyoCd=1490700133-00&ServiceCd=720&Type=search" }, "geometry": { "type": "Point", "coordinates": [ 139.620727, 35.4052217 ] } },
{ "type": "Feature", "properties": { "内容": "デイサービスふるさと磯子【認知症対応型通所介護】神奈川県横浜市磯子区森3-8-5", "url2": "https://www.kaigokensaku.mhlw.go.jp/14/index.php?action_kouhyou_detail_004_kani=true&JigyosyoCd=1490700257-00&ServiceCd=720&Type=search" }, "geometry": { "type": "Point", "coordinates": [ 139.614239099999963, 35.3922897 ] } },
{ "type": "Feature", "properties": { "内容": "横浜市泥亀地域ケアプラザ【認知症対応型通所介護】神奈川県横浜市金沢区泥亀１－２１－５いきいきセンター金沢内", "url2": "https://www.kaigokensaku.mhlw.go.jp/14/index.php?action_kouhyou_detail_004_kani=true&JigyosyoCd=1490800156-00&ServiceCd=720&Type=search" }, "geometry": { "type": "Point", "coordinates": [ 139.621777899999984, 35.3392056 ] } },
{ "type": "Feature", "properties": { "内容": "デイサービスこのはな金沢文庫【認知症対応型通所介護】神奈川県横浜市金沢区釜利谷東2-7-5大門ビル1階", "url2": "https://www.kaigokensaku.mhlw.go.jp/14/index.php?action_kouhyou_detail_004_kani=true&JigyosyoCd=1490800339-00&ServiceCd=720&Type=search" }, "geometry": { "type": "Point", "coordinates": [ 139.614270199999964, 35.3445044 ] } },
{ "type": "Feature", "properties": { "内容": "横浜市柳町地域ケアプラザ【認知症対応型通所介護】神奈川県横浜市金沢区柳町１－４", "url2": "https://www.kaigokensaku.mhlw.go.jp/14/index.php?action_kouhyou_detail_004_kani=true&JigyosyoCd=1490800057-00&ServiceCd=720&Type=search" }, "geometry": { "type": "Point", "coordinates": [ 139.621136299999989, 35.3262291 ] } },
{ "type": "Feature", "properties": { "内容": "デイサービスふるさと金沢八景【認知症対応型通所介護】神奈川県横浜市金沢区六浦3-9-3ライオンズマンション金沢八景D棟2", "url2": "https://www.kaigokensaku.mhlw.go.jp/14/index.php?action_kouhyou_detail_004_kani=true&JigyosyoCd=1490800412-00&ServiceCd=720&Type=search" }, "geometry": { "type": "Point", "coordinates": [ 139.611306600000034, 35.330406 ] } },
{ "type": "Feature", "properties": { "内容": "デイサービスふるさと六浦【認知症対応型通所介護】神奈川県横浜市金沢区六浦南2-15-12大黒ビル", "url2": "https://www.kaigokensaku.mhlw.go.jp/14/index.php?action_kouhyou_detail_004_kani=true&JigyosyoCd=1490800289-00&ServiceCd=720&Type=search" }, "geometry": { "type": "Point", "coordinates": [ 139.613275899999962, 35.323320700000025 ] } },
{ "type": "Feature", "properties": { "内容": "横浜市城郷小机地域ケアプラザ【認知症対応型通所介護】神奈川県横浜市港北区小机町2484-4横浜市城郷小机地域ケアプラザ", "url2": "https://www.kaigokensaku.mhlw.go.jp/14/index.php?action_kouhyou_detail_004_kani=true&JigyosyoCd=1490900105-00&ServiceCd=720&Type=search" }, "geometry": { "type": "Point", "coordinates": [ 139.599014500000067, 35.5086917 ] } },
{ "type": "Feature", "properties": { "内容": "横浜市日吉本町地域ケアプラザ【認知症対応型通所介護】神奈川県横浜市港北区日吉本町４－１０－A", "url2": "https://www.kaigokensaku.mhlw.go.jp/14/index.php?action_kouhyou_detail_004_kani=true&JigyosyoCd=1490900139-00&ServiceCd=720&Type=search" }, "geometry": { "type": "Point", "coordinates": [ 139.636718368678288, 35.545759351065833 ] } },
{ "type": "Feature", "properties": { "内容": "オクセン【認知症対応型通所介護】神奈川県横浜市港北区樽町2－10－26", "url2": "https://www.kaigokensaku.mhlw.go.jp/14/index.php?action_kouhyou_detail_004_kani=true&JigyosyoCd=1490900345-00&ServiceCd=720&Type=search" }, "geometry": { "type": "Point", "coordinates": [ 139.634493300000031, 35.5314537 ] } },
{ "type": "Feature", "properties": { "内容": "認知症対応型　デイサービスライフエール　小机堀崎【認知症対応型通所介護】神奈川県横浜市港北区小机町1521-4リーベエビス", "url2": "https://www.kaigokensaku.mhlw.go.jp/14/index.php?action_kouhyou_detail_004_kani=true&JigyosyoCd=1490900683-00&ServiceCd=720&Type=search" }, "geometry": { "type": "Point", "coordinates": [ 139.596469500000012, 35.508308900000038 ] } },
{ "type": "Feature", "properties": { "内容": "横浜市大豆戸地域ケアプラザ【認知症対応型通所介護】神奈川県横浜市港北区大豆戸町316-1", "url2": "https://www.kaigokensaku.mhlw.go.jp/14/index.php?action_kouhyou_detail_004_kani=true&JigyosyoCd=1490900220-00&ServiceCd=720&Type=search" }, "geometry": { "type": "Point", "coordinates": [ 139.62784439999993, 35.5147442 ] } },
{ "type": "Feature", "properties": { "内容": "デイサービスふるさと高田【認知症対応型通所介護】神奈川県横浜市港北区高田東4-1-19", "url2": "https://www.kaigokensaku.mhlw.go.jp/14/index.php?action_kouhyou_detail_004_kani=true&JigyosyoCd=1490900410-00&ServiceCd=720&Type=search" }, "geometry": { "type": "Point", "coordinates": [ 139.618694399999981, 35.5454876 ] } },
{ "type": "Feature", "properties": { "内容": "デイサービスふるさと菊名【認知症対応型通所介護】神奈川県横浜市港北区菊名7-7-21", "url2": "https://www.kaigokensaku.mhlw.go.jp/14/index.php?action_kouhyou_detail_004_kani=true&JigyosyoCd=1490900436-00&ServiceCd=720&Type=search" }, "geometry": { "type": "Point", "coordinates": [ 139.628141599999907, 35.5159691 ] } },
{ "type": "Feature", "properties": { "内容": "アクティブライフ　リフライズプラス【認知症対応型通所介護】神奈川県横浜市港北区新吉田東8丁目23-1-1F", "url2": "https://www.kaigokensaku.mhlw.go.jp/14/index.php?action_kouhyou_detail_004_kani=true&JigyosyoCd=1490900378-00&ServiceCd=720&Type=search" }, "geometry": { "type": "Point", "coordinates": [ 139.612610884655737, 35.536029593689769 ] } },
{ "type": "Feature", "properties": { "内容": "汲沢地域ケアプラザ【認知症対応型通所介護】神奈川県横浜市戸塚区汲沢町986番地", "url2": "https://www.kaigokensaku.mhlw.go.jp/14/index.php?action_kouhyou_detail_004_kani=true&JigyosyoCd=1471000024-00&ServiceCd=720&Type=search" }, "geometry": { "type": "Point", "coordinates": [ 139.515803099999971, 35.3919328 ] } },
{ "type": "Feature", "properties": { "内容": "デイサービスあい【認知症対応型通所介護】神奈川県横浜市戸塚区汲沢5-10-40", "url2": "https://www.kaigokensaku.mhlw.go.jp/14/index.php?action_kouhyou_detail_004_kani=true&JigyosyoCd=1491000350-00&ServiceCd=720&Type=search" }, "geometry": { "type": "Point", "coordinates": [ 139.513106099999959, 35.398704 ] } },
{ "type": "Feature", "properties": { "内容": "横浜市舞岡柏尾地域ケアプラザ【認知症対応型通所介護】神奈川県横浜市戸塚区舞岡町３７０５－１０", "url2": "https://www.kaigokensaku.mhlw.go.jp/14/index.php?action_kouhyou_detail_004_kani=true&JigyosyoCd=1491000293-00&ServiceCd=720&Type=search" }, "geometry": { "type": "Point", "coordinates": [ 139.546937, 35.4113585 ] } },
{ "type": "Feature", "properties": { "内容": "グループホーム　みかみ【認知症対応型通所介護】神奈川県横浜市戸塚区深谷町１２３４－１", "url2": "https://www.kaigokensaku.mhlw.go.jp/14/index.php?action_kouhyou_detail_004_kani=true&JigyosyoCd=1491000327-00&ServiceCd=720&Type=search" }, "geometry": { "type": "Point", "coordinates": [ 139.498085800000041, 35.383629700000022 ] } },
{ "type": "Feature", "properties": { "内容": "デイサービスふるさと下倉田【認知症対応型通所介護】神奈川県横浜市戸塚区下倉田町73-3エクセルピア戸塚1F", "url2": "https://www.kaigokensaku.mhlw.go.jp/14/index.php?action_kouhyou_detail_004_kani=true&JigyosyoCd=1491000533-00&ServiceCd=720&Type=search" }, "geometry": { "type": "Point", "coordinates": [ 139.535998899999981, 35.3845813 ] } },
{ "type": "Feature", "properties": { "内容": "デイサービスふるさと東戸塚【認知症対応型通所介護】神奈川県横浜市戸塚区上柏尾町188-1昭英店舗１F", "url2": "https://www.kaigokensaku.mhlw.go.jp/14/index.php?action_kouhyou_detail_004_kani=true&JigyosyoCd=1491000558-00&ServiceCd=720&Type=search" }, "geometry": { "type": "Point", "coordinates": [ 139.550158799999963, 35.419624 ] } },
{ "type": "Feature", "properties": { "内容": "横浜市港南中央地域ケアプラザ【認知症対応型通所介護】神奈川県横浜市港南区港南４－２－７", "url2": "https://www.kaigokensaku.mhlw.go.jp/14/index.php?action_kouhyou_detail_004_kani=true&JigyosyoCd=1493100133-00&ServiceCd=720&Type=search" }, "geometry": { "type": "Point", "coordinates": [ 139.593483099999958, 35.4010992 ] } },
{ "type": "Feature", "properties": { "内容": "認知症対応型通所介護bird港南中央【認知症対応型通所介護】神奈川県横浜市港南区港南中央通9-6朝日プラザ港南中央101号", "url2": "https://www.kaigokensaku.mhlw.go.jp/14/index.php?action_kouhyou_detail_004_kani=true&JigyosyoCd=1493100273-00&ServiceCd=720&Type=search" }, "geometry": { "type": "Point", "coordinates": [ 139.590783399999964, 35.4002659 ] } },
{ "type": "Feature", "properties": { "内容": "瑞穂の大地デイサービスセンター【認知症対応型通所介護】神奈川県横浜市港南区日野5-4-18貴奈美マンション1F", "url2": "https://www.kaigokensaku.mhlw.go.jp/14/index.php?action_kouhyou_detail_004_kani=true&JigyosyoCd=1493100414-00&ServiceCd=720&Type=search" }, "geometry": { "type": "Point", "coordinates": [ 139.585683426901852, 35.396605348956818 ] } },
{ "type": "Feature", "properties": { "内容": "グループホーム港南【認知症対応型通所介護】神奈川県横浜市港南区下永谷4-2-31", "url2": "https://www.kaigokensaku.mhlw.go.jp/14/index.php?action_kouhyou_detail_004_kani=true&JigyosyoCd=1493100083-00&ServiceCd=720&Type=search" }, "geometry": { "type": "Point", "coordinates": [ 139.559781713491816, 35.407672428625666 ] } },
{ "type": "Feature", "properties": { "内容": "デイサービスふるさと港南台【認知症対応型通所介護】神奈川県横浜市港南区港南台7-48-3サンライト港南台", "url2": "https://www.kaigokensaku.mhlw.go.jp/14/index.php?action_kouhyou_detail_004_kani=true&JigyosyoCd=1493100323-00&ServiceCd=720&Type=search" }, "geometry": { "type": "Point", "coordinates": [ 139.59368870000003, 35.3714444 ] } },
{ "type": "Feature", "properties": { "内容": "デイサービスふるさと東永谷【認知症対応型通所介護】神奈川県横浜市港南区東永谷1-1-10", "url2": "https://www.kaigokensaku.mhlw.go.jp/14/index.php?action_kouhyou_detail_004_kani=true&JigyosyoCd=1493100315-00&ServiceCd=720&Type=search" }, "geometry": { "type": "Point", "coordinates": [ 139.582564700000034, 35.4059568 ] } },
{ "type": "Feature", "properties": { "内容": "グループホーム華寿園【認知症対応型通所介護】神奈川県横浜市旭区市沢町571₋1", "url2": "https://www.kaigokensaku.mhlw.go.jp/14/index.php?action_kouhyou_detail_004_kani=true&JigyosyoCd=1473201091-00&ServiceCd=720&Type=search" }, "geometry": { "type": "Point", "coordinates": [ 139.562638600000014, 35.4556078 ] } },
{ "type": "Feature", "properties": { "内容": "横浜市川井地域ケアプラザ【認知症対応型通所介護】神奈川県横浜市旭区川井本町57-8", "url2": "https://www.kaigokensaku.mhlw.go.jp/14/index.php?action_kouhyou_detail_004_kani=true&JigyosyoCd=1493200065-00&ServiceCd=720&Type=search" }, "geometry": { "type": "Point", "coordinates": [ 139.5104414, 35.4938751 ] } },
{ "type": "Feature", "properties": { "内容": "高齢者グループホーム　三幸の園【認知症対応型通所介護】神奈川県横浜市旭区西川島町１２７－１三幸の園", "url2": "https://www.kaigokensaku.mhlw.go.jp/14/index.php?action_kouhyou_detail_004_kani=true&JigyosyoCd=1473200325-00&ServiceCd=720&Type=search" }, "geometry": { "type": "Point", "coordinates": [ 139.558023253967349, 35.473318179721105 ] } },
{ "type": "Feature", "properties": { "内容": "横浜市今宿西地域ケアプラザ【認知症対応型通所介護】神奈川県横浜市旭区今宿西町410-1", "url2": "https://www.kaigokensaku.mhlw.go.jp/14/index.php?action_kouhyou_detail_004_kani=true&JigyosyoCd=1493200255-00&ServiceCd=720&Type=search" }, "geometry": { "type": "Point", "coordinates": [ 139.5278793, 35.4843103 ] } },
{ "type": "Feature", "properties": { "内容": "高齢者グループホームかわしまの里【認知症対応型通所介護】神奈川県横浜市旭区川島町1882-1", "url2": "https://www.kaigokensaku.mhlw.go.jp/14/index.php?action_kouhyou_detail_004_kani=true&JigyosyoCd=1493200107-00&ServiceCd=720&Type=search" }, "geometry": { "type": "Point", "coordinates": [ 139.553763600000025, 35.4688538 ] } },
{ "type": "Feature", "properties": { "内容": "GRASPasahi横浜中西部【認知症対応型通所介護】神奈川県横浜市旭区白根5-16-20齋藤ビル1号室", "url2": "https://www.kaigokensaku.mhlw.go.jp/14/index.php?action_kouhyou_detail_004_kani=true&JigyosyoCd=1493200743-00&ServiceCd=720&Type=search" }, "geometry": { "type": "Point", "coordinates": [ 139.542185700000033, 35.487260200000037 ] } },
{ "type": "Feature", "properties": { "内容": "デイサービスセンター　三幸の園【認知症対応型通所介護】神奈川県横浜市旭区西川島町１２７－１", "url2": "https://www.kaigokensaku.mhlw.go.jp/14/index.php?action_kouhyou_detail_004_kani=true&JigyosyoCd=1473200317-00&ServiceCd=720&Type=search" }, "geometry": { "type": "Point", "coordinates": [ 139.558152, 35.4731478 ] } },
{ "type": "Feature", "properties": { "内容": "横浜市鶴ケ峰地域ケアプラザ【認知症対応型通所介護】神奈川県横浜市旭区鶴ケ峰１－３８－３", "url2": "https://www.kaigokensaku.mhlw.go.jp/14/index.php?action_kouhyou_detail_004_kani=true&JigyosyoCd=1493200248-00&ServiceCd=720&Type=search" }, "geometry": { "type": "Point", "coordinates": [ 139.550649900000053, 35.4723645 ] } },
{ "type": "Feature", "properties": { "内容": "デイサービスセンターシャローム横浜【認知症対応型通所介護】神奈川県横浜市旭区上川井町１９８８", "url2": "https://www.kaigokensaku.mhlw.go.jp/14/index.php?action_kouhyou_detail_004_kani=true&JigyosyoCd=1473200622-00&ServiceCd=720&Type=search" }, "geometry": { "type": "Point", "coordinates": [ 139.491975799999977, 35.4950375 ] } },
{ "type": "Feature", "properties": { "内容": "デイサービスセンター　真珠の詩【認知症対応型通所介護】神奈川県横浜市旭区下川井町360番地", "url2": "https://www.kaigokensaku.mhlw.go.jp/14/index.php?action_kouhyou_detail_004_kani=true&JigyosyoCd=1473200705-00&ServiceCd=720&Type=search" }, "geometry": { "type": "Point", "coordinates": [ 139.516710800000027, 35.4831935 ] } },
{ "type": "Feature", "properties": { "内容": "横浜市南希望が丘地域ケアプラザ【認知症対応型通所介護】神奈川県横浜市旭区南希望が丘７２－３", "url2": "https://www.kaigokensaku.mhlw.go.jp/14/index.php?action_kouhyou_detail_004_kani=true&JigyosyoCd=1493200214-00&ServiceCd=720&Type=search" }, "geometry": { "type": "Point", "coordinates": [ 139.515050299999984, 35.452578 ] } },
{ "type": "Feature", "properties": { "内容": "ほほえみ倶楽部【認知症対応型通所介護】神奈川県横浜市旭区今宿西町373－6", "url2": "https://www.kaigokensaku.mhlw.go.jp/14/index.php?action_kouhyou_detail_004_kani=true&JigyosyoCd=1493200180-00&ServiceCd=720&Type=search" }, "geometry": { "type": "Point", "coordinates": [ 139.526359630688489, 35.488126961795004 ] } },
{ "type": "Feature", "properties": { "内容": "ふれあいの里　たちばな【認知症対応型通所介護】神奈川県横浜市旭区上白根１－３４－８", "url2": "https://www.kaigokensaku.mhlw.go.jp/14/index.php?action_kouhyou_detail_004_kani=true&JigyosyoCd=1493200784-00&ServiceCd=720&Type=search" }, "geometry": { "type": "Point", "coordinates": [ 139.5370255, 35.4869087 ] } },
{ "type": "Feature", "properties": { "内容": "愛の郷グループホーム【認知症対応型通所介護】神奈川県横浜市旭区川島町1599-13", "url2": "https://www.kaigokensaku.mhlw.go.jp/14/index.php?action_kouhyou_detail_004_kani=true&JigyosyoCd=1473201224-00&ServiceCd=720&Type=search" }, "geometry": { "type": "Point", "coordinates": [ 139.555807800000025, 35.469226 ] } },
{ "type": "Feature", "properties": { "内容": "デイサービスふるさと希望ヶ丘【認知症対応型通所介護】神奈川県横浜市旭区東希望が丘14-25", "url2": "https://www.kaigokensaku.mhlw.go.jp/14/index.php?action_kouhyou_detail_004_kani=true&JigyosyoCd=1493200370-00&ServiceCd=720&Type=search" }, "geometry": { "type": "Point", "coordinates": [ 139.520661, 35.4615102 ] } },
{ "type": "Feature", "properties": { "内容": "グループホーム　結の家【認知症対応型通所介護】神奈川県横浜市緑区新治町1476-4", "url2": "https://www.kaigokensaku.mhlw.go.jp/14/index.php?action_kouhyou_detail_004_kani=true&JigyosyoCd=1473300885-00&ServiceCd=720&Type=search" }, "geometry": { "type": "Point", "coordinates": [ 139.520204400000011, 35.5159591 ] } },
{ "type": "Feature", "properties": { "内容": "横浜市中山地域ケアプラザ【認知症対応型通所介護】神奈川県横浜市緑区中山2丁目１番１号ハーモニーみどり", "url2": "https://www.kaigokensaku.mhlw.go.jp/14/index.php?action_kouhyou_detail_004_kani=true&JigyosyoCd=1493300113-00&ServiceCd=720&Type=search" }, "geometry": { "type": "Point", "coordinates": [ 139.543660700000032, 35.516462 ] } },
{ "type": "Feature", "properties": { "内容": "横浜市鴨居地域ケアプラザ【認知症対応型通所介護】神奈川県横浜市緑区鴨居5-29-8", "url2": "https://www.kaigokensaku.mhlw.go.jp/14/index.php?action_kouhyou_detail_004_kani=true&JigyosyoCd=1493300287-00&ServiceCd=720&Type=search" }, "geometry": { "type": "Point", "coordinates": [ 139.563408500000037, 35.504307 ] } },
{ "type": "Feature", "properties": { "内容": "ささゆり　デイサービス　長津田事業所【認知症対応型通所介護】神奈川県横浜市緑区長津田6-11-22", "url2": "https://www.kaigokensaku.mhlw.go.jp/14/index.php?action_kouhyou_detail_004_kani=true&JigyosyoCd=1493300212-00&ServiceCd=720&Type=search" }, "geometry": { "type": "Point", "coordinates": [ 139.5020412, 35.5247612 ] } },
{ "type": "Feature", "properties": { "内容": "福祉クラブ生協Dayみどり【認知症対応型通所介護】神奈川県横浜市緑区十日市場町840-3るるる＊みどり館", "url2": "https://www.kaigokensaku.mhlw.go.jp/14/index.php?action_kouhyou_detail_004_kani=true&JigyosyoCd=1493300188-00&ServiceCd=720&Type=search" }, "geometry": { "type": "Point", "coordinates": [ 139.514590699999985, 35.5235463 ] } },
{ "type": "Feature", "properties": { "内容": "デイサービスふるさと鴨居【認知症対応型通所介護】神奈川県横浜市緑区鴨居3-40-7ヴィラプレザンス101", "url2": "https://www.kaigokensaku.mhlw.go.jp/14/index.php?action_kouhyou_detail_004_kani=true&JigyosyoCd=1493300295-00&ServiceCd=720&Type=search" }, "geometry": { "type": "Point", "coordinates": [ 139.572127660713249, 35.503539356428789 ] } },
{ "type": "Feature", "properties": { "内容": "デイサービスふるさと十日市場【認知症対応型通所介護】神奈川県横浜市緑区十日市場町902-5金子ビル1F", "url2": "https://www.kaigokensaku.mhlw.go.jp/14/index.php?action_kouhyou_detail_004_kani=true&JigyosyoCd=1493300303-00&ServiceCd=720&Type=search" }, "geometry": { "type": "Point", "coordinates": [ 139.524681800000053, 35.5219585 ] } },
{ "type": "Feature", "properties": { "内容": "横浜市中屋敷地域ケアプラザ【認知症対応型通所介護】神奈川県横浜市瀬谷区中屋敷2-18-6", "url2": "https://www.kaigokensaku.mhlw.go.jp/14/index.php?action_kouhyou_detail_004_kani=true&JigyosyoCd=1493400012-00&ServiceCd=720&Type=search" }, "geometry": { "type": "Point", "coordinates": [ 139.47658249999995, 35.4838336 ] } },
{ "type": "Feature", "properties": { "内容": "デイサービスふるさと瀬谷【認知症対応型通所介護】神奈川県横浜市瀬谷区瀬谷2-51-13坂口ビル1F", "url2": "https://www.kaigokensaku.mhlw.go.jp/14/index.php?action_kouhyou_detail_004_kani=true&JigyosyoCd=1493400335-00&ServiceCd=720&Type=search" }, "geometry": { "type": "Point", "coordinates": [ 139.488399100000038, 35.4664902 ] } },
{ "type": "Feature", "properties": { "内容": "福祉クラブ生協Dayいのやま【認知症対応型通所介護】神奈川県横浜市栄区犬山町５３－１８", "url2": "https://www.kaigokensaku.mhlw.go.jp/14/index.php?action_kouhyou_detail_004_kani=true&JigyosyoCd=1493500084-00&ServiceCd=720&Type=search" }, "geometry": { "type": "Point", "coordinates": [ 139.571057399999972, 35.3531548 ] } },
{ "type": "Feature", "properties": { "内容": "横浜市小菅ケ谷地域ケアプラザ【認知症対応型通所介護】神奈川県横浜市栄区小菅ケ谷3-32-12", "url2": "https://www.kaigokensaku.mhlw.go.jp/14/index.php?action_kouhyou_detail_004_kani=true&JigyosyoCd=1493500183-00&ServiceCd=720&Type=search" }, "geometry": { "type": "Point", "coordinates": [ 139.5539867, 35.369308400000016 ] } },
{ "type": "Feature", "properties": { "内容": "デイサービスふるさと小山台【認知症対応型通所介護】神奈川県横浜市栄区小山台1-9-1", "url2": "https://www.kaigokensaku.mhlw.go.jp/14/index.php?action_kouhyou_detail_004_kani=true&JigyosyoCd=1493500290-00&ServiceCd=720&Type=search" }, "geometry": { "type": "Point", "coordinates": [ 139.559316800000033, 35.3781101 ] } },
{ "type": "Feature", "properties": { "内容": "デイサービスふるさと上郷【認知症対応型通所介護】神奈川県横浜市栄区上郷町1183-2クリーンパレス中島　１階", "url2": "https://www.kaigokensaku.mhlw.go.jp/14/index.php?action_kouhyou_detail_004_kani=true&JigyosyoCd=1493500308-00&ServiceCd=720&Type=search" }, "geometry": { "type": "Point", "coordinates": [ 139.5797483, 35.3543407 ] } },
{ "type": "Feature", "properties": { "内容": "横浜市いずみ中央地域ケアプラザ【認知症対応型通所介護】神奈川県横浜市泉区和泉中央北五丁目14番１号", "url2": "https://www.kaigokensaku.mhlw.go.jp/14/index.php?action_kouhyou_detail_004_kani=true&JigyosyoCd=1493600231-00&ServiceCd=720&Type=search" }, "geometry": { "type": "Point", "coordinates": [ 139.485839, 35.417396 ] } },
{ "type": "Feature", "properties": { "内容": "デイサービスふるさと萩丸【認知症対応型通所介護】神奈川県横浜市泉区和泉中央南1-38-16", "url2": "https://www.kaigokensaku.mhlw.go.jp/14/index.php?action_kouhyou_detail_004_kani=true&JigyosyoCd=1493600306-00&ServiceCd=720&Type=search" }, "geometry": { "type": "Point", "coordinates": [ 139.500715500000069, 35.4068918 ] } },
{ "type": "Feature", "properties": { "内容": "グループホーム　ふぁいと青葉【認知症対応型通所介護】神奈川県横浜市青葉区奈良町2467-5", "url2": "https://www.kaigokensaku.mhlw.go.jp/14/index.php?action_kouhyou_detail_004_kani=true&JigyosyoCd=1493700676-00&ServiceCd=720&Type=search" }, "geometry": { "type": "Point", "coordinates": [ 139.4770436, 35.568892100000021 ] } },
{ "type": "Feature", "properties": { "内容": "花織いちがお東【認知症対応型通所介護】神奈川県横浜市青葉区荏田西3-1-19", "url2": "https://www.kaigokensaku.mhlw.go.jp/14/index.php?action_kouhyou_detail_004_kani=true&JigyosyoCd=1493700767-00&ServiceCd=720&Type=search" }, "geometry": { "type": "Point", "coordinates": [ 139.547316199999983, 35.5501787 ] } },
{ "type": "Feature", "properties": { "内容": "横浜市大場地域ケアプラザ【認知症対応型通所介護】神奈川県横浜市青葉区大場町383番地の3", "url2": "https://www.kaigokensaku.mhlw.go.jp/14/index.php?action_kouhyou_detail_004_kani=true&JigyosyoCd=1493700254-00&ServiceCd=720&Type=search" }, "geometry": { "type": "Point", "coordinates": [ 139.538135, 35.5629726 ] } },
{ "type": "Feature", "properties": { "内容": "デイサービスセンター　万寿の森【認知症対応型通所介護】神奈川県横浜市青葉区元石川町4323-1", "url2": "https://www.kaigokensaku.mhlw.go.jp/14/index.php?action_kouhyou_detail_004_kani=true&JigyosyoCd=1493700320-00&ServiceCd=720&Type=search" }, "geometry": { "type": "Point", "coordinates": [ 139.5377929, 35.5736045 ] } },
{ "type": "Feature", "properties": { "内容": "ささゆりデイサービス　若草台事業所【認知症対応型通所介護】神奈川県横浜市青葉区若草台３－１１", "url2": "https://www.kaigokensaku.mhlw.go.jp/14/index.php?action_kouhyou_detail_004_kani=true&JigyosyoCd=1493700155-00&ServiceCd=720&Type=search" }, "geometry": { "type": "Point", "coordinates": [ 139.508862200000067, 35.5514389 ] } },
{ "type": "Feature", "properties": { "内容": "GRASPaoba横浜北部【認知症対応型通所介護】神奈川県横浜市青葉区鉄町15-5リバーサイドミエ101号室", "url2": "https://www.kaigokensaku.mhlw.go.jp/14/index.php?action_kouhyou_detail_004_kani=true&JigyosyoCd=1493700551-00&ServiceCd=720&Type=search" }, "geometry": { "type": "Point", "coordinates": [ 139.51386860449918, 35.564629980419475 ] } },
{ "type": "Feature", "properties": { "内容": "デイサービスふるさと青葉台【認知症対応型通所介護】神奈川県横浜市青葉区青葉台1‐1‐8", "url2": "https://www.kaigokensaku.mhlw.go.jp/14/index.php?action_kouhyou_detail_004_kani=true&JigyosyoCd=1493700411-00&ServiceCd=720&Type=search" }, "geometry": { "type": "Point", "coordinates": [ 139.520195699999931, 35.5426306 ] } },
{ "type": "Feature", "properties": { "内容": "グループホーム朝日のあたる家通所介護【認知症対応型通所介護】神奈川県横浜市都筑区北山田2-8-14", "url2": "https://www.kaigokensaku.mhlw.go.jp/14/index.php?action_kouhyou_detail_004_kani=true&JigyosyoCd=1493800609-00&ServiceCd=720&Type=search" }, "geometry": { "type": "Point", "coordinates": [ 139.592634749073795, 35.559409035467034 ] } },
{ "type": "Feature", "properties": { "内容": "横浜市新栄地域ケアプラザ【認知症対応型通所介護】神奈川県横浜市都筑区新栄町19-19", "url2": "https://www.kaigokensaku.mhlw.go.jp/14/index.php?action_kouhyou_detail_004_kani=true&JigyosyoCd=1493800195-00&ServiceCd=720&Type=search" }, "geometry": { "type": "Point", "coordinates": [ 139.595480700000053, 35.5403185 ] } },
{ "type": "Feature", "properties": { "内容": "デイサービスふるさと荏田南【認知症対応型通所介護】神奈川県横浜市都筑区荏田南2-18-4シルバーストーンB1", "url2": "https://www.kaigokensaku.mhlw.go.jp/14/index.php?action_kouhyou_detail_004_kani=true&JigyosyoCd=1493800344-00&ServiceCd=720&Type=search" }, "geometry": { "type": "Point", "coordinates": [ 139.554515, 35.5445364 ] } },
{ "type": "Feature", "properties": { "内容": "デイサービスふるさと東方町【認知症対応型通所介護】神奈川県横浜市都筑区東方町342-1イーストピーク１F", "url2": "https://www.kaigokensaku.mhlw.go.jp/14/index.php?action_kouhyou_detail_004_kani=true&JigyosyoCd=1493800492-00&ServiceCd=720&Type=search" }, "geometry": { "type": "Point", "coordinates": [ 139.585546718385302, 35.519821998535079 ] } },
{ "type": "Feature", "properties": { "内容": "デイサービスセンター友の里川崎田島【認知症対応型通所介護】神奈川県川崎市川崎区田島町２３番１号", "url2": "https://www.kaigokensaku.mhlw.go.jp/14/index.php?action_kouhyou_detail_004_kani=true&JigyosyoCd=1495000158-00&ServiceCd=720&Type=search" }, "geometry": { "type": "Point", "coordinates": [ 139.710392500000012, 35.5149384 ] } },
{ "type": "Feature", "properties": { "内容": "デイサービスセンターほのぼの【認知症対応型通所介護】神奈川県川崎市川崎区大師駅前1-8-5　1F", "url2": "https://www.kaigokensaku.mhlw.go.jp/14/index.php?action_kouhyou_detail_004_kani=true&JigyosyoCd=1495000190-00&ServiceCd=720&Type=search" }, "geometry": { "type": "Point", "coordinates": [ 139.7268712, 35.5342027 ] } },
{ "type": "Feature", "properties": { "内容": "医療法人啓和会　デイサービス東小田【認知症対応型通所介護】神奈川県川崎市川崎区小田5-19-7", "url2": "https://www.kaigokensaku.mhlw.go.jp/14/index.php?action_kouhyou_detail_004_kani=true&JigyosyoCd=1495000331-00&ServiceCd=720&Type=search" }, "geometry": { "type": "Point", "coordinates": [ 139.706143099999963, 35.5104613 ] } },
{ "type": "Feature", "properties": { "内容": "医療法人啓和会　ひのきの家　啓和【認知症対応型通所介護】神奈川県川崎市川崎区渡田2-10-11ヤマジビル１Ｆ", "url2": "https://www.kaigokensaku.mhlw.go.jp/14/index.php?action_kouhyou_detail_004_kani=true&JigyosyoCd=1495000729-00&ServiceCd=720&Type=search" }, "geometry": { "type": "Point", "coordinates": [ 139.706335200000012, 35.5213823 ] } },
{ "type": "Feature", "properties": { "内容": "青丘社　ほっとラインデイサービス【認知症対応型通所介護】神奈川県川崎市川崎区桜本1－8－22", "url2": "https://www.kaigokensaku.mhlw.go.jp/14/index.php?action_kouhyou_detail_004_kani=true&JigyosyoCd=1495000265-00&ServiceCd=720&Type=search" }, "geometry": { "type": "Point", "coordinates": [ 139.719988699999931, 35.5206541 ] } },
{ "type": "Feature", "properties": { "内容": "医療法人　啓和会　デイサービス小田本通り【認知症対応型通所介護】神奈川県川崎市川崎区小田２－１８－１３", "url2": "https://www.kaigokensaku.mhlw.go.jp/14/index.php?action_kouhyou_detail_004_kani=true&JigyosyoCd=1495000299-00&ServiceCd=720&Type=search" }, "geometry": { "type": "Point", "coordinates": [ 139.7021545, 35.5129277 ] } },
{ "type": "Feature", "properties": { "内容": "デイサービスふるさと渡田【認知症対応型通所介護】神奈川県川崎市川崎区渡田向町19-4ヴェルドミール川崎　1Ｆ", "url2": "https://www.kaigokensaku.mhlw.go.jp/14/index.php?action_kouhyou_detail_004_kani=true&JigyosyoCd=1495000455-00&ServiceCd=720&Type=search" }, "geometry": { "type": "Point", "coordinates": [ 139.70385680000004, 35.5228624 ] } },
{ "type": "Feature", "properties": { "内容": "デイサービスふるさと境町【認知症対応型通所介護】神奈川県川崎市川崎区境町15-21", "url2": "https://www.kaigokensaku.mhlw.go.jp/14/index.php?action_kouhyou_detail_004_kani=true&JigyosyoCd=1495000463-00&ServiceCd=720&Type=search" }, "geometry": { "type": "Point", "coordinates": [ 139.709099, 35.5250639 ] } },
{ "type": "Feature", "properties": { "内容": "デイサービスふるさと殿町【認知症対応型通所介護】神奈川県川崎市川崎区殿町2-4-3ドエル安藤Ⅱ1階", "url2": "https://www.kaigokensaku.mhlw.go.jp/14/index.php?action_kouhyou_detail_004_kani=true&JigyosyoCd=1495000471-00&ServiceCd=720&Type=search" }, "geometry": { "type": "Point", "coordinates": [ 139.746951481614701, 35.538537577422574 ] } },
{ "type": "Feature", "properties": { "内容": "デイサービスふるさと小田【認知症対応型通所介護】神奈川県川崎市川崎区小田4-33-4ウィステリア1階", "url2": "https://www.kaigokensaku.mhlw.go.jp/14/index.php?action_kouhyou_detail_004_kani=true&JigyosyoCd=1495000489-00&ServiceCd=720&Type=search" }, "geometry": { "type": "Point", "coordinates": [ 139.701868575415574, 35.509495923112837 ] } },
{ "type": "Feature", "properties": { "内容": "デイサービスふるさと浜町【認知症対応型通所介護】神奈川県川崎市川崎区浜町2-5-3", "url2": "https://www.kaigokensaku.mhlw.go.jp/14/index.php?action_kouhyou_detail_004_kani=true&JigyosyoCd=1495000497-00&ServiceCd=720&Type=search" }, "geometry": { "type": "Point", "coordinates": [ 139.718858400000045, 35.515091 ] } },
{ "type": "Feature", "properties": { "内容": "ニチイケアセンター川崎小倉【認知症対応型通所介護】神奈川県川崎市幸区小倉5-30-46", "url2": "https://www.kaigokensaku.mhlw.go.jp/14/index.php?action_kouhyou_detail_004_kani=true&JigyosyoCd=1495100131-00&ServiceCd=720&Type=search" }, "geometry": { "type": "Point", "coordinates": [ 139.664148800000021, 35.5362641 ] } },
{ "type": "Feature", "properties": { "内容": "デイサービス・笑【認知症対応型通所介護】神奈川県川崎市幸区小向仲野町1-22", "url2": "https://www.kaigokensaku.mhlw.go.jp/14/index.php?action_kouhyou_detail_004_kani=true&JigyosyoCd=1495100248-00&ServiceCd=720&Type=search" }, "geometry": { "type": "Point", "coordinates": [ 139.6946984, 35.550464 ] } },
{ "type": "Feature", "properties": { "内容": "デイサービスふるさと小向【認知症対応型通所介護】神奈川県川崎市幸区小向西町4-65", "url2": "https://www.kaigokensaku.mhlw.go.jp/14/index.php?action_kouhyou_detail_004_kani=true&JigyosyoCd=1495100339-00&ServiceCd=720&Type=search" }, "geometry": { "type": "Point", "coordinates": [ 139.688229971827667, 35.545377010053777 ] } },
{ "type": "Feature", "properties": { "内容": "デイサービスふるさと南幸町【認知症対応型通所介護】神奈川県川崎市幸区南幸町2-56LAX", "url2": "https://www.kaigokensaku.mhlw.go.jp/14/index.php?action_kouhyou_detail_004_kani=true&JigyosyoCd=1495100321-00&ServiceCd=720&Type=search" }, "geometry": { "type": "Point", "coordinates": [ 139.690255909786998, 35.532467934510606 ] } },
{ "type": "Feature", "properties": { "内容": "ニチイケアセンター川崎宮内【認知症対応型通所介護】神奈川県川崎市中原区宮内1-7-12", "url2": "https://www.kaigokensaku.mhlw.go.jp/14/index.php?action_kouhyou_detail_004_kani=true&JigyosyoCd=1495200071-00&ServiceCd=720&Type=search" }, "geometry": { "type": "Point", "coordinates": [ 139.6431867, 35.5942681 ] } },
{ "type": "Feature", "properties": { "内容": "バナナ園　武蔵小杉【認知症対応型通所介護】神奈川県川崎市中原区苅宿8-54", "url2": "https://www.kaigokensaku.mhlw.go.jp/14/index.php?action_kouhyou_detail_004_kani=true&JigyosyoCd=1495200220-00&ServiceCd=720&Type=search" }, "geometry": { "type": "Point", "coordinates": [ 139.666286799999966, 35.5624651 ] } },
{ "type": "Feature", "properties": { "内容": "オレンジデイ　ゆうらく【認知症対応型通所介護】神奈川県川崎市中原区北谷町91番地", "url2": "https://www.kaigokensaku.mhlw.go.jp/14/index.php?action_kouhyou_detail_004_kani=true&JigyosyoCd=1495200287-00&ServiceCd=720&Type=search" }, "geometry": { "type": "Point", "coordinates": [ 139.6719779, 35.5634927 ] } },
{ "type": "Feature", "properties": { "内容": "のんびりーす等々力【認知症対応型通所介護】神奈川県川崎市中原区上小田中２-１０-１", "url2": "https://www.kaigokensaku.mhlw.go.jp/14/index.php?action_kouhyou_detail_004_kani=true&JigyosyoCd=1495200246-00&ServiceCd=720&Type=search" }, "geometry": { "type": "Point", "coordinates": [ 139.635947, 35.5905322 ] } },
{ "type": "Feature", "properties": { "内容": "デイサービス　ソラスト武蔵小杉【認知症対応型通所介護】神奈川県川崎市中原区小杉町2－227ＩＴＯビルⅡ", "url2": "https://www.kaigokensaku.mhlw.go.jp/14/index.php?action_kouhyou_detail_004_kani=true&JigyosyoCd=1475200893-00&ServiceCd=720&Type=search" }, "geometry": { "type": "Point", "coordinates": [ 139.655195099999986, 35.5782874 ] } },
{ "type": "Feature", "properties": { "内容": "のぞみの家　宮内【認知症対応型通所介護】神奈川県川崎市中原区宮内3-10-3", "url2": "https://www.kaigokensaku.mhlw.go.jp/14/index.php?action_kouhyou_detail_004_kani=true&JigyosyoCd=1475201107-00&ServiceCd=720&Type=search" }, "geometry": { "type": "Point", "coordinates": [ 139.6425908, 35.5898471 ] } },
{ "type": "Feature", "properties": { "内容": "のぞみの家ｉ（あい）【認知症対応型通所介護】神奈川県川崎市中原区宮内3-10-4", "url2": "https://www.kaigokensaku.mhlw.go.jp/14/index.php?action_kouhyou_detail_004_kani=true&JigyosyoCd=1495200089-00&ServiceCd=720&Type=search" }, "geometry": { "type": "Point", "coordinates": [ 139.642570400000068, 35.5896411 ] } },
{ "type": "Feature", "properties": { "内容": "グループホームゆう和【認知症対応型通所介護】神奈川県川崎市中原区宮内3-2-28", "url2": "https://www.kaigokensaku.mhlw.go.jp/14/index.php?action_kouhyou_detail_004_kani=true&JigyosyoCd=1495200378-00&ServiceCd=720&Type=search" }, "geometry": { "type": "Point", "coordinates": [ 139.645828400000028, 35.5902993 ] } },
{ "type": "Feature", "properties": { "内容": "医療法人社団三喜会　デイサービスセンター中原【認知症対応型通所介護】神奈川県川崎市中原区下小田中3-2-25", "url2": "https://www.kaigokensaku.mhlw.go.jp/14/index.php?action_kouhyou_detail_004_kani=true&JigyosyoCd=1475200307-00&ServiceCd=720&Type=search" }, "geometry": { "type": "Point", "coordinates": [ 139.64296319999994, 35.5750463 ] } },
{ "type": "Feature", "properties": { "内容": "デイサービスふるさと中原【認知症対応型通所介護】神奈川県川崎市中原区下小田中6-12-27", "url2": "https://www.kaigokensaku.mhlw.go.jp/14/index.php?action_kouhyou_detail_004_kani=true&JigyosyoCd=1495200303-00&ServiceCd=720&Type=search" }, "geometry": { "type": "Point", "coordinates": [ 139.636200199999962, 35.5723357 ] } },
{ "type": "Feature", "properties": { "内容": "デイサービスふるさと中丸子【認知症対応型通所介護】神奈川県川崎市中原区田尻町64-1平間シティハイツ1F", "url2": "https://www.kaigokensaku.mhlw.go.jp/14/index.php?action_kouhyou_detail_004_kani=true&JigyosyoCd=1495200311-00&ServiceCd=720&Type=search" }, "geometry": { "type": "Point", "coordinates": [ 139.671728, 35.5597933 ] } },
{ "type": "Feature", "properties": { "内容": "利家庵別邸＂竹の間山荘＂【認知症対応型通所介護】神奈川県川崎市高津区北野川3-18", "url2": "https://www.kaigokensaku.mhlw.go.jp/14/index.php?action_kouhyou_detail_004_kani=true&JigyosyoCd=1495300343-00&ServiceCd=720&Type=search" }, "geometry": { "type": "Point", "coordinates": [ 139.620187, 35.579323 ] } },
{ "type": "Feature", "properties": { "内容": "デイサービス　風の音【認知症対応型通所介護】神奈川県川崎市高津区千年955セントラルハイツ１Ｆ", "url2": "https://www.kaigokensaku.mhlw.go.jp/14/index.php?action_kouhyou_detail_004_kani=true&JigyosyoCd=1495300293-00&ServiceCd=720&Type=search" }, "geometry": { "type": "Point", "coordinates": [ 139.626344900000049, 35.5821759 ] } },
{ "type": "Feature", "properties": { "内容": "デイサービスふるさと溝の口【認知症対応型通所介護】神奈川県川崎市高津区下作延4‐23‐13", "url2": "https://www.kaigokensaku.mhlw.go.jp/14/index.php?action_kouhyou_detail_004_kani=true&JigyosyoCd=1495300368-00&ServiceCd=720&Type=search" }, "geometry": { "type": "Point", "coordinates": [ 139.603392840069063, 35.597560844632604 ] } },
{ "type": "Feature", "properties": { "内容": "デイサービスふるさと北見方【認知症対応型通所介護】神奈川県川崎市高津区北見方3-12-51F", "url2": "https://www.kaigokensaku.mhlw.go.jp/14/index.php?action_kouhyou_detail_004_kani=true&JigyosyoCd=1495300376-00&ServiceCd=720&Type=search" }, "geometry": { "type": "Point", "coordinates": [ 139.63096829999995, 35.5981205 ] } },
{ "type": "Feature", "properties": { "内容": "デイサービスふるさと宮崎台【認知症対応型通所介護】神奈川県川崎市高津区向ヶ丘136-7", "url2": "https://www.kaigokensaku.mhlw.go.jp/14/index.php?action_kouhyou_detail_004_kani=true&JigyosyoCd=1495500330-00&ServiceCd=720&Type=search" }, "geometry": { "type": "Point", "coordinates": [ 139.592382238242408, 35.59419199855278 ] } },
{ "type": "Feature", "properties": { "内容": "「結」ケアセンター　たまがわ【認知症対応型通所介護】神奈川県川崎市多摩区中野島1655-1", "url2": "https://www.kaigokensaku.mhlw.go.jp/14/index.php?action_kouhyou_detail_004_kani=true&JigyosyoCd=1495400119-00&ServiceCd=720&Type=search" }, "geometry": { "type": "Point", "coordinates": [ 139.561765499999979, 35.6279989 ] } },
{ "type": "Feature", "properties": { "内容": "「結」ケアセンタ－いくた【認知症対応型通所介護】神奈川県川崎市多摩区南生田1-31-7", "url2": "https://www.kaigokensaku.mhlw.go.jp/14/index.php?action_kouhyou_detail_004_kani=true&JigyosyoCd=1495400499-00&ServiceCd=720&Type=search" }, "geometry": { "type": "Point", "coordinates": [ 139.527539499999989, 35.6063889 ] } },
{ "type": "Feature", "properties": { "内容": "クリスタルプラザゆうえん　安庵【認知症対応型通所介護】神奈川県川崎市多摩区登戸1705番地ウッドソーレ参番館1階", "url2": "https://www.kaigokensaku.mhlw.go.jp/14/index.php?action_kouhyou_detail_004_kani=true&JigyosyoCd=1495400515-00&ServiceCd=720&Type=search" }, "geometry": { "type": "Point", "coordinates": [ 139.561330099999964, 35.6184895 ] } },
{ "type": "Feature", "properties": { "内容": "デイサービスふるさと上布田【認知症対応型通所介護】神奈川県川崎市多摩区布田29-10", "url2": "https://www.kaigokensaku.mhlw.go.jp/14/index.php?action_kouhyou_detail_004_kani=true&JigyosyoCd=1495400713-00&ServiceCd=720&Type=search" }, "geometry": { "type": "Point", "coordinates": [ 139.545198402516178, 35.632691520215218 ] } },
{ "type": "Feature", "properties": { "内容": "デイサービスふるさと宿河原【認知症対応型通所介護】神奈川県川崎市多摩区長尾3-6-3", "url2": "https://www.kaigokensaku.mhlw.go.jp/14/index.php?action_kouhyou_detail_004_kani=true&JigyosyoCd=1495400390-00&ServiceCd=720&Type=search" }, "geometry": { "type": "Point", "coordinates": [ 139.581453287137265, 35.609497677565685 ] } },
{ "type": "Feature", "properties": { "内容": "デイサービスふるさと東百合丘【認知症対応型通所介護】神奈川県川崎市多摩区南生田4-24-2", "url2": "https://www.kaigokensaku.mhlw.go.jp/14/index.php?action_kouhyou_detail_004_kani=true&JigyosyoCd=1495400408-00&ServiceCd=720&Type=search" }, "geometry": { "type": "Point", "coordinates": [ 139.530984, 35.5986595 ] } },
{ "type": "Feature", "properties": { "内容": "バナナ園　生田の杜【認知症対応型通所介護】神奈川県川崎市宮前区菅生２−２０−３", "url2": "https://www.kaigokensaku.mhlw.go.jp/14/index.php?action_kouhyou_detail_004_kani=true&JigyosyoCd=1495500124-00&ServiceCd=720&Type=search" }, "geometry": { "type": "Point", "coordinates": [ 139.5503182, 35.602234 ] } },
{ "type": "Feature", "properties": { "内容": "デイサービスセンター富士見プラザ　フォンテーヌ鷺沼【認知症対応型通所介護】神奈川県川崎市宮前区土橋3-1-6", "url2": "https://www.kaigokensaku.mhlw.go.jp/14/index.php?action_kouhyou_detail_004_kani=true&JigyosyoCd=1495500090-00&ServiceCd=720&Type=search" }, "geometry": { "type": "Point", "coordinates": [ 139.573798, 35.581115 ] } },
{ "type": "Feature", "properties": { "内容": "利家庵すがおが丘【認知症対応型通所介護】神奈川県川崎市宮前区菅生ヶ丘2-14", "url2": "https://www.kaigokensaku.mhlw.go.jp/14/index.php?action_kouhyou_detail_004_kani=true&JigyosyoCd=1495500660-00&ServiceCd=720&Type=search" }, "geometry": { "type": "Point", "coordinates": [ 139.5483074, 35.5977275 ] } },
{ "type": "Feature", "properties": { "内容": "リ・ケア東有馬　もみの木【認知症対応型通所介護】神奈川県川崎市宮前区東有馬５－２２－３", "url2": "https://www.kaigokensaku.mhlw.go.jp/14/index.php?action_kouhyou_detail_004_kani=true&JigyosyoCd=1495500058-00&ServiceCd=720&Type=search" }, "geometry": { "type": "Point", "coordinates": [ 139.594157699999982, 35.5703638 ] } },
{ "type": "Feature", "properties": { "内容": "野川の里“利家庵”松の間【認知症対応型通所介護】神奈川県川崎市宮前区野川本町1-17-48", "url2": "https://www.kaigokensaku.mhlw.go.jp/14/index.php?action_kouhyou_detail_004_kani=true&JigyosyoCd=1495500108-00&ServiceCd=720&Type=search" }, "geometry": { "type": "Point", "coordinates": [ 139.613027200000033, 35.5775738 ] } },
{ "type": "Feature", "properties": { "内容": "野川の里“利家庵”梅の間【認知症対応型通所介護】神奈川県川崎市宮前区野川本町1-17-48", "url2": "https://www.kaigokensaku.mhlw.go.jp/14/index.php?action_kouhyou_detail_004_kani=true&JigyosyoCd=1495500116-00&ServiceCd=720&Type=search" }, "geometry": { "type": "Point", "coordinates": [ 139.613027200000033, 35.5775738 ] } },
{ "type": "Feature", "properties": { "内容": "利家庵別邸“みかんの丘”【認知症対応型通所介護】神奈川県川崎市宮前区南野川3-2-16", "url2": "https://www.kaigokensaku.mhlw.go.jp/14/index.php?action_kouhyou_detail_004_kani=true&JigyosyoCd=1495500405-00&ServiceCd=720&Type=search" }, "geometry": { "type": "Point", "coordinates": [ 139.608249791401704, 35.569845433585378 ] } },
{ "type": "Feature", "properties": { "内容": "グループホーム百合ヶ丘　デイサービス【認知症対応型通所介護】川崎市麻生区百合ヶ丘３－２７－２", "url2": "https://www.kaigokensaku.mhlw.go.jp/14/index.php?action_kouhyou_detail_004_kani=true&JigyosyoCd=1495600130-00&ServiceCd=720&Type=search" }, "geometry": { "type": "Point", "coordinates": [ 139.517459899999949, 35.6032864 ] } },
{ "type": "Feature", "properties": { "内容": "利家庵　高石の丘【認知症対応型通所介護】神奈川県川崎市麻生区高石5-25-7", "url2": "https://www.kaigokensaku.mhlw.go.jp/14/index.php?action_kouhyou_detail_004_kani=true&JigyosyoCd=1495600676-00&ServiceCd=720&Type=search" }, "geometry": { "type": "Point", "coordinates": [ 139.524121799999989, 35.6056247 ] } },
{ "type": "Feature", "properties": { "内容": "社会福祉法人一廣会　デイサービス　桃の木停　ふるさわ【認知症対応型通所介護】神奈川県川崎市麻生区古沢455-1", "url2": "https://www.kaigokensaku.mhlw.go.jp/14/index.php?action_kouhyou_detail_004_kani=true&JigyosyoCd=1495600098-00&ServiceCd=720&Type=search" }, "geometry": { "type": "Point", "coordinates": [ 139.495136300000013, 35.602799 ] } },
{ "type": "Feature", "properties": { "内容": "社会福祉法人一廣会デイサービス桃の木停かたひら【認知症対応型通所介護】神奈川県川崎市麻生区片平1542-2", "url2": "https://www.kaigokensaku.mhlw.go.jp/14/index.php?action_kouhyou_detail_004_kani=true&JigyosyoCd=1495600114-00&ServiceCd=720&Type=search" }, "geometry": { "type": "Point", "coordinates": [ 139.480861764418023, 35.600072832664814 ] } },
{ "type": "Feature", "properties": { "内容": "プライミーしろあんLaLa【認知症対応型通所介護】神奈川県相模原市緑区原宿南2-6-10", "url2": "https://www.kaigokensaku.mhlw.go.jp/14/index.php?action_kouhyou_detail_004_kani=true&JigyosyoCd=1492602253-00&ServiceCd=720&Type=search" }, "geometry": { "type": "Point", "coordinates": [ 139.313200099999989, 35.5937267 ] } },
{ "type": "Feature", "properties": { "内容": "認知症対応型デイサービス　ぽらいと【認知症対応型通所介護】神奈川県相模原市緑区大島790-4", "url2": "https://www.kaigokensaku.mhlw.go.jp/14/index.php?action_kouhyou_detail_004_kani=true&JigyosyoCd=1492602519-00&ServiceCd=720&Type=search" }, "geometry": { "type": "Point", "coordinates": [ 139.3134794, 35.5804312 ] } },
{ "type": "Feature", "properties": { "内容": "認知症デイサービス秋桜【認知症対応型通所介護】神奈川県相模原市中央区上溝3172-1", "url2": "https://www.kaigokensaku.mhlw.go.jp/14/index.php?action_kouhyou_detail_004_kani=true&JigyosyoCd=1472603222-00&ServiceCd=720&Type=search" }, "geometry": { "type": "Point", "coordinates": [ 139.364325, 35.5565764 ] } },
{ "type": "Feature", "properties": { "内容": "あんじゅの村　おもいで【認知症対応型通所介護】神奈川県相模原市中央区清新5-1-6清新ハイツ101", "url2": "https://www.kaigokensaku.mhlw.go.jp/14/index.php?action_kouhyou_detail_004_kani=true&JigyosyoCd=1492602584-00&ServiceCd=720&Type=search" }, "geometry": { "type": "Point", "coordinates": [ 139.3606859, 35.5783535 ] } },
{ "type": "Feature", "properties": { "内容": "グループホーム相模原【認知症対応型通所介護】神奈川県相模原市南区大野台５－１３－７", "url2": "https://www.kaigokensaku.mhlw.go.jp/14/index.php?action_kouhyou_detail_004_kani=true&JigyosyoCd=1472601333-00&ServiceCd=720&Type=search" }, "geometry": { "type": "Point", "coordinates": [ 139.408854463754324, 35.549813294229835 ] } },
{ "type": "Feature", "properties": { "内容": "シルバータウン大野台ケアセンター【認知症対応型通所介護】神奈川県相模原市南区大野台５－１９－１５", "url2": "https://www.kaigokensaku.mhlw.go.jp/14/index.php?action_kouhyou_detail_004_kani=true&JigyosyoCd=1472600145-00&ServiceCd=720&Type=search" }, "geometry": { "type": "Point", "coordinates": [ 139.408060100000057, 35.550056 ] } },
{ "type": "Feature", "properties": { "内容": "セントケア相模大野デイサービスセンター【認知症対応型通所介護】神奈川県相模原市南区上鶴間本町1-38-41", "url2": "https://www.kaigokensaku.mhlw.go.jp/14/index.php?action_kouhyou_detail_004_kani=true&JigyosyoCd=1492600257-00&ServiceCd=720&Type=search" }, "geometry": { "type": "Point", "coordinates": [ 139.441207599999984, 35.5366071 ] } },
{ "type": "Feature", "properties": { "内容": "認知症対応型デイサービスおとなり【認知症対応型通所介護】神奈川県相模原市南区相武台団地2-3-512号店舗", "url2": "https://www.kaigokensaku.mhlw.go.jp/14/index.php?action_kouhyou_detail_004_kani=true&JigyosyoCd=1492601883-00&ServiceCd=720&Type=search" }, "geometry": { "type": "Point", "coordinates": [ 139.41069250000001, 35.5092463 ] } },
{ "type": "Feature", "properties": { "内容": "ありてい【認知症対応型通所介護】神奈川県相模原市南区大野台5-26-32", "url2": "https://www.kaigokensaku.mhlw.go.jp/14/index.php?action_kouhyou_detail_004_kani=true&JigyosyoCd=1472607819-00&ServiceCd=720&Type=search" }, "geometry": { "type": "Point", "coordinates": [ 139.4055483, 35.5499321 ] } },
{ "type": "Feature", "properties": { "内容": "田浦高齢者デイサービスセンター【認知症対応型通所介護】神奈川県横須賀市田浦町2丁目80番地1", "url2": "https://www.kaigokensaku.mhlw.go.jp/14/index.php?action_kouhyou_detail_004_kani=true&JigyosyoCd=1471900470-00&ServiceCd=720&Type=search" }, "geometry": { "type": "Point", "coordinates": [ 139.633668100000023, 35.2921931 ] } },
{ "type": "Feature", "properties": { "内容": "悠の家【認知症対応型通所介護】神奈川県横須賀市佐原５－２２－５", "url2": "https://www.kaigokensaku.mhlw.go.jp/14/index.php?action_kouhyou_detail_004_kani=true&JigyosyoCd=1491900088-00&ServiceCd=720&Type=search" }, "geometry": { "type": "Point", "coordinates": [ 139.694461463893134, 35.233466322339943 ] } },
{ "type": "Feature", "properties": { "内容": "スマイルデイサービス野比海岸【認知症対応型通所介護】神奈川県横須賀市野比2-5-14", "url2": "https://www.kaigokensaku.mhlw.go.jp/14/index.php?action_kouhyou_detail_004_kani=true&JigyosyoCd=1491900096-00&ServiceCd=720&Type=search" }, "geometry": { "type": "Point", "coordinates": [ 139.683419299999969, 35.2073296 ] } },
{ "type": "Feature", "properties": { "内容": "デイサービスセンター椿【認知症対応型通所介護】神奈川県横須賀市太田和2-10-3", "url2": "https://www.kaigokensaku.mhlw.go.jp/14/index.php?action_kouhyou_detail_004_kani=true&JigyosyoCd=1491900104-00&ServiceCd=720&Type=search" }, "geometry": { "type": "Point", "coordinates": [ 139.632531500000027, 35.2243415 ] } },
{ "type": "Feature", "properties": { "内容": "スマイル鷹取【認知症対応型通所介護】神奈川県横須賀市鷹取2-19-6", "url2": "https://www.kaigokensaku.mhlw.go.jp/14/index.php?action_kouhyou_detail_004_kani=true&JigyosyoCd=1491900120-00&ServiceCd=720&Type=search" }, "geometry": { "type": "Point", "coordinates": [ 139.6175283, 35.312758 ] } },
{ "type": "Feature", "properties": { "内容": "デイサービスセンター　チェリーホーム北久里浜【認知症対応型通所介護】神奈川県横須賀市根岸町4-16-1田中ビル1F", "url2": "https://www.kaigokensaku.mhlw.go.jp/14/index.php?action_kouhyou_detail_004_kani=true&JigyosyoCd=1491900179-00&ServiceCd=720&Type=search" }, "geometry": { "type": "Point", "coordinates": [ 139.68021889203078, 35.255417319764206 ] } },
{ "type": "Feature", "properties": { "内容": "ローズハット【認知症対応型通所介護】神奈川県横須賀市日の出町3-12-8ローズハット", "url2": "https://www.kaigokensaku.mhlw.go.jp/14/index.php?action_kouhyou_detail_004_kani=true&JigyosyoCd=1491900187-00&ServiceCd=720&Type=search" }, "geometry": { "type": "Point", "coordinates": [ 139.677904688885491, 35.275271909415409 ] } },
{ "type": "Feature", "properties": { "内容": "ローズハウス【認知症対応型通所介護】神奈川県横須賀市長沢1-27-27", "url2": "https://www.kaigokensaku.mhlw.go.jp/14/index.php?action_kouhyou_detail_004_kani=true&JigyosyoCd=1491900294-00&ServiceCd=720&Type=search" }, "geometry": { "type": "Point", "coordinates": [ 139.674694899999963, 35.2038717 ] } },
{ "type": "Feature", "properties": { "内容": "デイサービスつばさ【認知症対応型通所介護】神奈川県横須賀市野比1－44－5", "url2": "https://www.kaigokensaku.mhlw.go.jp/14/index.php?action_kouhyou_detail_004_kani=true&JigyosyoCd=1491900302-00&ServiceCd=720&Type=search" }, "geometry": { "type": "Point", "coordinates": [ 139.688115666934209, 35.217710210398884 ] } },
{ "type": "Feature", "properties": { "内容": "デイサービスセンター　興寿苑池上【認知症対応型通所介護】神奈川県横須賀市池上6丁目5番19号", "url2": "https://www.kaigokensaku.mhlw.go.jp/14/index.php?action_kouhyou_detail_004_kani=true&JigyosyoCd=1491900385-00&ServiceCd=720&Type=search" }, "geometry": { "type": "Point", "coordinates": [ 139.638479619049122, 35.264889780130815 ] } },
{ "type": "Feature", "properties": { "内容": "まるなかデイサービス【認知症対応型通所介護】神奈川県横須賀市馬堀町1-19-15", "url2": "https://www.kaigokensaku.mhlw.go.jp/14/index.php?action_kouhyou_detail_004_kani=true&JigyosyoCd=1471902351-00&ServiceCd=720&Type=search" }, "geometry": { "type": "Point", "coordinates": [ 139.700167, 35.2594261 ] } },
{ "type": "Feature", "properties": { "内容": "デイサービス　ひまわりの家【認知症対応型通所介護】神奈川県横須賀市光風台8-13", "url2": "https://www.kaigokensaku.mhlw.go.jp/14/index.php?action_kouhyou_detail_004_kani=true&JigyosyoCd=1471902567-00&ServiceCd=720&Type=search" }, "geometry": { "type": "Point", "coordinates": [ 139.7090412, 35.2381481 ] } },
{ "type": "Feature", "properties": { "内容": "デイサービス　あんず【認知症対応型通所介護】神奈川県横須賀市船越町１－１８－８", "url2": "https://www.kaigokensaku.mhlw.go.jp/14/index.php?action_kouhyou_detail_004_kani=true&JigyosyoCd=1471903029-00&ServiceCd=720&Type=search" }, "geometry": { "type": "Point", "coordinates": [ 139.627449500000012, 35.2990954 ] } },
{ "type": "Feature", "properties": { "内容": "スマイルデイサービス長坂【認知症対応型通所介護】神奈川県横須賀市長坂3-9-7", "url2": "https://www.kaigokensaku.mhlw.go.jp/14/index.php?action_kouhyou_detail_004_kani=true&JigyosyoCd=1471903037-00&ServiceCd=720&Type=search" }, "geometry": { "type": "Point", "coordinates": [ 139.626937499999968, 35.225094099999986 ] } },
{ "type": "Feature", "properties": { "内容": "デイリハセンター　花の里　あさがお【認知症対応型通所介護】神奈川県横須賀市追浜東町３－６５追浜会館ビルA棟", "url2": "https://www.kaigokensaku.mhlw.go.jp/14/index.php?action_kouhyou_detail_004_kani=true&JigyosyoCd=1491900286-00&ServiceCd=720&Type=search" }, "geometry": { "type": "Point", "coordinates": [ 139.632694279237427, 35.317075034897584 ] } },
{ "type": "Feature", "properties": { "内容": "ローズフォーク【認知症対応型通所介護】神奈川県横須賀市衣笠栄町1-60-1", "url2": "https://www.kaigokensaku.mhlw.go.jp/14/index.php?action_kouhyou_detail_004_kani=true&JigyosyoCd=1491901052-00&ServiceCd=720&Type=search" }, "geometry": { "type": "Point", "coordinates": [ 139.665102228172316, 35.258502978613265 ] } },
{ "type": "Feature", "properties": { "内容": "メディカルライフケア【認知症対応型通所介護】神奈川県平塚市南原２－１－１２１階", "url2": "https://www.kaigokensaku.mhlw.go.jp/14/index.php?action_kouhyou_detail_004_kani=true&JigyosyoCd=1472001286-00&ServiceCd=720&Type=search" }, "geometry": { "type": "Point", "coordinates": [ 139.3304501, 35.338371 ] } },
{ "type": "Feature", "properties": { "内容": "いきいき【認知症対応型通所介護】神奈川県平塚市南豊田6-1", "url2": "https://www.kaigokensaku.mhlw.go.jp/14/index.php?action_kouhyou_detail_004_kani=true&JigyosyoCd=1492000011-00&ServiceCd=720&Type=search" }, "geometry": { "type": "Point", "coordinates": [ 139.324217299999987, 35.3571577 ] } },
{ "type": "Feature", "properties": { "内容": "鎌倉ケアハートガーデン湘南笛田【認知症対応型通所介護】神奈川県鎌倉市笛田1-8-54", "url2": "https://www.kaigokensaku.mhlw.go.jp/14/index.php?action_kouhyou_detail_004_kani=true&JigyosyoCd=1492100597-00&ServiceCd=720&Type=search" }, "geometry": { "type": "Point", "coordinates": [ 139.5086018, 35.3317781 ] } },
{ "type": "Feature", "properties": { "内容": "鵠生園デイサービス　さんぽ【認知症対応型通所介護】神奈川県藤沢市片瀬海岸１－７－９", "url2": "https://www.kaigokensaku.mhlw.go.jp/14/index.php?action_kouhyou_detail_004_kani=true&JigyosyoCd=1472201076-00&ServiceCd=720&Type=search" }, "geometry": { "type": "Point", "coordinates": [ 139.487575099999958, 35.3085287 ] } },
{ "type": "Feature", "properties": { "内容": "有限会社　デイハウス夢家【認知症対応型通所介護】神奈川県藤沢市稲荷1-12-8", "url2": "https://www.kaigokensaku.mhlw.go.jp/14/index.php?action_kouhyou_detail_004_kani=true&JigyosyoCd=1472200516-00&ServiceCd=720&Type=search" }, "geometry": { "type": "Point", "coordinates": [ 139.466143699999975, 35.3499717 ] } },
{ "type": "Feature", "properties": { "内容": "デイサービスセンター　育心【認知症対応型通所介護】神奈川県藤沢市下土棚５５６－３３", "url2": "https://www.kaigokensaku.mhlw.go.jp/14/index.php?action_kouhyou_detail_004_kani=true&JigyosyoCd=1472202173-00&ServiceCd=720&Type=search" }, "geometry": { "type": "Point", "coordinates": [ 139.461609899999985, 35.4118965 ] } },
{ "type": "Feature", "properties": { "内容": "愛の家グループホーム小田原久野【認知症対応型通所介護】神奈川県小田原市久野169-2", "url2": "https://www.kaigokensaku.mhlw.go.jp/14/index.php?action_kouhyou_detail_004_kani=true&JigyosyoCd=1492300148-00&ServiceCd=720&Type=search" }, "geometry": { "type": "Point", "coordinates": [ 139.152422600000023, 35.2686138 ] } },
{ "type": "Feature", "properties": { "内容": "愛の家グループホーム　小田原前川【認知症対応型通所介護】神奈川県小田原市前川154-1", "url2": "https://www.kaigokensaku.mhlw.go.jp/14/index.php?action_kouhyou_detail_004_kani=true&JigyosyoCd=1492300106-00&ServiceCd=720&Type=search" }, "geometry": { "type": "Point", "coordinates": [ 139.190812199999982, 35.2804433 ] } },
{ "type": "Feature", "properties": { "内容": "認知症リハビリテーション　ぱーそんらいふ　ほうとく【認知症対応型通所介護】神奈川県小田原市曽比1846", "url2": "https://www.kaigokensaku.mhlw.go.jp/14/index.php?action_kouhyou_detail_004_kani=true&JigyosyoCd=1492300122-00&ServiceCd=720&Type=search" }, "geometry": { "type": "Point", "coordinates": [ 139.139611285030441, 35.31310419845979 ] } },
{ "type": "Feature", "properties": { "内容": "しきさい館・R【認知症対応型通所介護】神奈川県小田原市高田680-2", "url2": "https://www.kaigokensaku.mhlw.go.jp/14/index.php?action_kouhyou_detail_004_kani=true&JigyosyoCd=1492300213-00&ServiceCd=720&Type=search" }, "geometry": { "type": "Point", "coordinates": [ 139.188883352019133, 35.293514487254534 ] } },
{ "type": "Feature", "properties": { "内容": "認知症リハビリテーションぱーそんらいふ久野【認知症対応型通所介護】神奈川県小田原市久野857-1", "url2": "https://www.kaigokensaku.mhlw.go.jp/14/index.php?action_kouhyou_detail_004_kani=true&JigyosyoCd=1492300411-00&ServiceCd=720&Type=search" }, "geometry": { "type": "Point", "coordinates": [ 139.0918169, 35.2571574 ] } },
{ "type": "Feature", "properties": { "内容": "認知症リハビリテーション　ぱーそんらいふ南鴨宮【認知症対応型通所介護】神奈川県小田原市南鴨宮3-23-19", "url2": "https://www.kaigokensaku.mhlw.go.jp/14/index.php?action_kouhyou_detail_004_kani=true&JigyosyoCd=1492300452-00&ServiceCd=720&Type=search" }, "geometry": { "type": "Point", "coordinates": [ 139.181869799999987, 35.269502 ] } },
{ "type": "Feature", "properties": { "内容": "さくらケアセンター【認知症対応型通所介護】神奈川県茅ケ崎市円蔵３２２", "url2": "https://www.kaigokensaku.mhlw.go.jp/14/index.php?action_kouhyou_detail_004_kani=true&JigyosyoCd=1472400959-00&ServiceCd=720&Type=search" }, "geometry": { "type": "Point", "coordinates": [ 139.4023717, 35.3443747 ] } },
{ "type": "Feature", "properties": { "内容": "デイサービス　和【認知症対応型通所介護】神奈川県逗子市新宿4-16-13", "url2": "https://www.kaigokensaku.mhlw.go.jp/14/index.php?action_kouhyou_detail_004_kani=true&JigyosyoCd=1492500085-00&ServiceCd=720&Type=search" }, "geometry": { "type": "Point", "coordinates": [ 139.562876800000026, 35.3000027 ] } },
{ "type": "Feature", "properties": { "内容": "デイサービスセンター小坪【認知症対応型通所介護】神奈川県逗子市小坪３丁目4-18", "url2": "https://www.kaigokensaku.mhlw.go.jp/14/index.php?action_kouhyou_detail_004_kani=true&JigyosyoCd=1472501301-00&ServiceCd=720&Type=search" }, "geometry": { "type": "Point", "coordinates": [ 139.5593074, 35.2992076 ] } },
{ "type": "Feature", "properties": { "内容": "認知症高齢者対応型通所介護事業所　ぶらい庵【認知症対応型通所介護】神奈川県三浦市三崎3-12-6", "url2": "https://www.kaigokensaku.mhlw.go.jp/14/index.php?action_kouhyou_detail_004_kani=true&JigyosyoCd=1492700065-00&ServiceCd=720&Type=search" }, "geometry": { "type": "Point", "coordinates": [ 139.617470700000013, 35.1397516 ] } },
{ "type": "Feature", "properties": { "内容": "花織みうら【認知症対応型通所介護】神奈川県三浦市南下浦町上宮田3444", "url2": "https://www.kaigokensaku.mhlw.go.jp/14/index.php?action_kouhyou_detail_004_kani=true&JigyosyoCd=1492700172-00&ServiceCd=720&Type=search" }, "geometry": { "type": "Point", "coordinates": [ 139.651461, 35.1831918 ] } },
{ "type": "Feature", "properties": { "内容": "医療法人社団三喜会　デイサービスセンター渋沢【認知症対応型通所介護】神奈川県秦野市渋沢上1-13-28", "url2": "https://www.kaigokensaku.mhlw.go.jp/14/index.php?action_kouhyou_detail_004_kani=true&JigyosyoCd=1472800372-00&ServiceCd=720&Type=search" }, "geometry": { "type": "Point", "coordinates": [ 139.178441180198632, 35.370168438547395 ] } },
{ "type": "Feature", "properties": { "内容": "通所介護サービスほっと【認知症対応型通所介護】神奈川県秦野市南矢名９６８番地の１０", "url2": "https://www.kaigokensaku.mhlw.go.jp/14/index.php?action_kouhyou_detail_004_kani=true&JigyosyoCd=1492800030-00&ServiceCd=720&Type=search" }, "geometry": { "type": "Point", "coordinates": [ 139.2588538, 35.3640718 ] } },
{ "type": "Feature", "properties": { "内容": "みみおくらぶつまだ【認知症対応型通所介護】神奈川県厚木市妻田東2-2-3", "url2": "https://www.kaigokensaku.mhlw.go.jp/14/index.php?action_kouhyou_detail_004_kani=true&JigyosyoCd=1492900194-00&ServiceCd=720&Type=search" }, "geometry": { "type": "Point", "coordinates": [ 139.359933599999977, 35.4550275 ] } },
{ "type": "Feature", "properties": { "内容": "シンフーディーファン　たいよう【認知症対応型通所介護】神奈川県厚木市戸室1-41-12F", "url2": "https://www.kaigokensaku.mhlw.go.jp/14/index.php?action_kouhyou_detail_004_kani=true&JigyosyoCd=1492900202-00&ServiceCd=720&Type=search" }, "geometry": { "type": "Point", "coordinates": [ 139.352598475272032, 35.453261516033855 ] } },
{ "type": "Feature", "properties": { "内容": "花織あつぎ北【認知症対応型通所介護】神奈川県厚木市三田122番地2", "url2": "https://www.kaigokensaku.mhlw.go.jp/14/index.php?action_kouhyou_detail_004_kani=true&JigyosyoCd=1492900467-00&ServiceCd=720&Type=search" }, "geometry": { "type": "Point", "coordinates": [ 139.342933737869714, 35.48896159899266 ] } },
{ "type": "Feature", "properties": { "内容": "シンフーディーファン　うみ【認知症対応型通所介護】神奈川県厚木市戸室1-41-1　2F", "url2": "https://www.kaigokensaku.mhlw.go.jp/14/index.php?action_kouhyou_detail_004_kani=true&JigyosyoCd=1492900475-00&ServiceCd=720&Type=search" }, "geometry": { "type": "Point", "coordinates": [ 139.352568233396738, 35.453234811184821 ] } },
{ "type": "Feature", "properties": { "内容": "シンフーディーファン　そら【認知症対応型通所介護】神奈川県厚木市戸室1-41-1　2F", "url2": "https://www.kaigokensaku.mhlw.go.jp/14/index.php?action_kouhyou_detail_004_kani=true&JigyosyoCd=1492900517-00&ServiceCd=720&Type=search" }, "geometry": { "type": "Point", "coordinates": [ 139.352609502688694, 35.453227131918965 ] } },
{ "type": "Feature", "properties": { "内容": "居宅介護支援センターサンホーム鶴間【認知症対応型通所介護】神奈川県大和市西鶴間８－１－２", "url2": "https://www.kaigokensaku.mhlw.go.jp/14/index.php?action_kouhyou_detail_004_kani=true&JigyosyoCd=1473000063-00&ServiceCd=720&Type=search" }, "geometry": { "type": "Point", "coordinates": [ 139.441195599999986, 35.4842547 ] } },
{ "type": "Feature", "properties": { "内容": "社会福祉法人　敬愛会【認知症対応型通所介護】神奈川県大和市福田1551", "url2": "https://www.kaigokensaku.mhlw.go.jp/14/index.php?action_kouhyou_detail_004_kani=true&JigyosyoCd=1473000097-00&ServiceCd=720&Type=search" }, "geometry": { "type": "Point", "coordinates": [ 139.4637126, 35.4238865 ] } },
{ "type": "Feature", "properties": { "内容": "敬愛の園桜ヶ丘通所介護事業所【認知症対応型通所介護】神奈川県大和市上和田1088ｰ１", "url2": "https://www.kaigokensaku.mhlw.go.jp/14/index.php?action_kouhyou_detail_004_kani=true&JigyosyoCd=1473003604-00&ServiceCd=720&Type=search" }, "geometry": { "type": "Point", "coordinates": [ 139.4745686, 35.4470194 ] } },
{ "type": "Feature", "properties": { "内容": "晃風園デイサービス団欒【認知症対応型通所介護】神奈川県大和市深見東3－2ー5", "url2": "https://www.kaigokensaku.mhlw.go.jp/14/index.php?action_kouhyou_detail_004_kani=true&JigyosyoCd=1473000550-00&ServiceCd=720&Type=search" }, "geometry": { "type": "Point", "coordinates": [ 139.4588622, 35.4604234 ] } },
{ "type": "Feature", "properties": { "内容": "ニジノアトリエ【認知症対応型通所介護】神奈川県伊勢原市伊勢原2丁目7-29", "url2": "https://www.kaigokensaku.mhlw.go.jp/14/index.php?action_kouhyou_detail_004_kani=true&JigyosyoCd=1494000167-00&ServiceCd=720&Type=search" }, "geometry": { "type": "Point", "coordinates": [ 139.307715499999972, 35.3974774 ] } },
{ "type": "Feature", "properties": { "内容": "ヒカリノカケラ【認知症対応型通所介護】神奈川県伊勢原市桜台4丁目25-5", "url2": "https://www.kaigokensaku.mhlw.go.jp/14/index.php?action_kouhyou_detail_004_kani=true&JigyosyoCd=1494000258-00&ServiceCd=720&Type=search" }, "geometry": { "type": "Point", "coordinates": [ 139.315523, 35.3882447 ] } },
{ "type": "Feature", "properties": { "内容": "すずらん【認知症対応型通所介護】神奈川県伊勢原市沼目6-1200-1", "url2": "https://www.kaigokensaku.mhlw.go.jp/14/index.php?action_kouhyou_detail_004_kani=true&JigyosyoCd=1474000336-00&ServiceCd=720&Type=search" }, "geometry": { "type": "Point", "coordinates": [ 139.331863, 35.3889484 ] } },
{ "type": "Feature", "properties": { "内容": "中心荘第二老人ホーム【認知症対応型通所介護】神奈川県海老名市上今泉4-7-1", "url2": "https://www.kaigokensaku.mhlw.go.jp/14/index.php?action_kouhyou_detail_004_kani=true&JigyosyoCd=1494200031-00&ServiceCd=720&Type=search" }, "geometry": { "type": "Point", "coordinates": [ 139.40421850000007, 35.4684597 ] } },
{ "type": "Feature", "properties": { "内容": "ほうとく　弐番館【認知症対応型通所介護】神奈川県南足柄市塚原772-1", "url2": "https://www.kaigokensaku.mhlw.go.jp/14/index.php?action_kouhyou_detail_004_kani=true&JigyosyoCd=1494300070-00&ServiceCd=720&Type=search" }, "geometry": { "type": "Point", "coordinates": [ 139.131233699999939, 35.3066377 ] } },
{ "type": "Feature", "properties": { "内容": "葉山オハナ　デイサービスセンター【認知症対応型通所介護】神奈川県三浦郡葉山町堀内2184-30", "url2": "https://www.kaigokensaku.mhlw.go.jp/14/index.php?action_kouhyou_detail_004_kani=true&JigyosyoCd=1491100010-00&ServiceCd=720&Type=search" }, "geometry": { "type": "Point", "coordinates": [ 139.590288099999952, 35.2708776 ] } },
{ "type": "Feature", "properties": { "内容": "デイサービスセンター　丸太の家【認知症対応型通所介護】神奈川県足柄上郡中井町松本1135-1グレースヒル湘南内", "url2": "https://www.kaigokensaku.mhlw.go.jp/14/index.php?action_kouhyou_detail_004_kani=true&JigyosyoCd=1491400105-00&ServiceCd=720&Type=search" }, "geometry": { "type": "Point", "coordinates": [ 139.1953456, 35.3462609 ] } }
]
}
