{
"type": "FeatureCollection",
"name": "geo_14_大学",
"crs": { "type": "name", "properties": { "name": "urn:ogc:def:crs:EPSG::6668" } },
"features": [
{ "type": "Feature", "properties": { "P29_001": "14137", "P29_002": "F113310103867", "P29_003": "16007", "P29_004": "和光大学", "P29_005": "東京都町田市金井ヶ丘5-1-1", "P29_006": "4", "P29_007": "0", "P29_008": "00", "P29_009": null }, "geometry": { "type": "Point", "coordinates": [ 139.473636656184027, 35.574948051957236 ] } },
{ "type": "Feature", "properties": { "P29_001": "14106", "P29_002": "F114110104592", "P29_003": "16007", "P29_004": "横浜国立大学", "P29_005": "神奈川県横浜市保土ケ谷区常盤台79-1", "P29_006": "1", "P29_007": "0", "P29_008": "00", "P29_009": null }, "geometry": { "type": "Point", "coordinates": [ 139.591964718157243, 35.473007143803407 ] } },
{ "type": "Feature", "properties": { "P29_001": "14301", "P29_002": "F114110104609", "P29_003": "16007", "P29_004": "総合研究大学院大学", "P29_005": "神奈川県三浦郡葉山町（湘南国際村）", "P29_006": "1", "P29_007": "0", "P29_008": "01", "P29_009": "葉山キャンパス" }, "geometry": { "type": "Point", "coordinates": [ 139.608542793494053, 35.261139176321592 ] } },
{ "type": "Feature", "properties": { "P29_001": "14108", "P29_002": "F114210104616", "P29_003": "16007", "P29_004": "横浜市立大学", "P29_005": "神奈川県横浜市金沢区瀬戸22-2", "P29_006": "3", "P29_007": "0", "P29_008": "01", "P29_009": "金沢八景キャンパス" }, "geometry": { "type": "Point", "coordinates": [ 139.618385733367035, 35.334476334290436 ] } },
{ "type": "Feature", "properties": { "P29_001": "14201", "P29_002": "F114210104625", "P29_003": "16007", "P29_004": "神奈川県立保健福祉大学", "P29_005": "神奈川県横須賀市平成町1-10-1", "P29_006": "2", "P29_007": "0", "P29_008": "00", "P29_009": null }, "geometry": { "type": "Point", "coordinates": [ 139.681048510407237, 35.273846787248083 ] } },
{ "type": "Feature", "properties": { "P29_001": "14382", "P29_002": "F114310104632", "P29_003": "16007", "P29_004": "星槎大学", "P29_005": "神奈川県足柄下郡箱根町仙石原817-255", "P29_006": "4", "P29_007": "0", "P29_008": "01", "P29_009": "箱根キャンパス" }, "geometry": { "type": "Point", "coordinates": [ 139.007079742068782, 35.268204538806444 ] } },
{ "type": "Feature", "properties": { "P29_001": "14102", "P29_002": "F114310104641", "P29_003": "16007", "P29_004": "神奈川大学", "P29_005": "神奈川県横浜市神奈川区六角橋3-27-1", "P29_006": "4", "P29_007": "0", "P29_008": "01", "P29_009": "横浜キャンパス" }, "geometry": { "type": "Point", "coordinates": [ 139.619968575200687, 35.48468109629399 ] } },
{ "type": "Feature", "properties": { "P29_001": "14108", "P29_002": "F114310104650", "P29_003": "16007", "P29_004": "関東学院大学", "P29_005": "神奈川県横浜市金沢区六浦東1-50-1", "P29_006": "4", "P29_007": "0", "P29_008": "01", "P29_009": "横浜・金沢八景キャンパス" }, "geometry": { "type": "Point", "coordinates": [ 139.625705066500814, 35.323188959945369 ] } },
{ "type": "Feature", "properties": { "P29_001": "14101", "P29_002": "F114310104669", "P29_003": "16007", "P29_004": "鶴見大学", "P29_005": "神奈川県横浜市鶴見区鶴見2-1-3", "P29_006": "4", "P29_007": "0", "P29_008": "00", "P29_009": null }, "geometry": { "type": "Point", "coordinates": [ 139.672914459170983, 35.506138433959869 ] } },
{ "type": "Feature", "properties": { "P29_001": "14116", "P29_002": "F114310104678", "P29_003": "16007", "P29_004": "フェリス女学院大学", "P29_005": "神奈川県横浜市泉区緑園4-5-3", "P29_006": "4", "P29_007": "0", "P29_008": "01", "P29_009": "緑園キャンパス" }, "geometry": { "type": "Point", "coordinates": [ 139.525162200658542, 35.438778819548524 ] } },
{ "type": "Feature", "properties": { "P29_001": "14101", "P29_002": "F114310104687", "P29_003": "16007", "P29_004": "横浜商科大学", "P29_005": "神奈川県横浜市鶴見区東寺尾4-11-1", "P29_006": "4", "P29_007": "0", "P29_008": "00", "P29_009": null }, "geometry": { "type": "Point", "coordinates": [ 139.659547602765656, 35.498538401288542 ] } },
{ "type": "Feature", "properties": { "P29_001": "14103", "P29_002": "F114310104696", "P29_003": "16007", "P29_004": "八洲学園大学", "P29_005": "神奈川県横浜市西区桜木町7-42", "P29_006": "4", "P29_007": "0", "P29_008": "00", "P29_009": null }, "geometry": { "type": "Point", "coordinates": [ 139.622793027622123, 35.459109217940508 ] } },
{ "type": "Feature", "properties": { "P29_001": "14102", "P29_002": "F114310104703", "P29_003": "16007", "P29_004": "情報セキュリティ大学院大学", "P29_005": "神奈川県横浜市神奈川区鶴屋町2-14-1", "P29_006": "4", "P29_007": "0", "P29_008": "00", "P29_009": null }, "geometry": { "type": "Point", "coordinates": [ 139.623315758235634, 35.468025590157893 ] } },
{ "type": "Feature", "properties": { "P29_001": "14110", "P29_002": "F114310104712", "P29_003": "16007", "P29_004": "横浜薬科大学", "P29_005": "神奈川県横浜市戸塚区俣野町字東原601-1", "P29_006": "4", "P29_007": "0", "P29_008": "00", "P29_009": null }, "geometry": { "type": "Point", "coordinates": [ 139.495259185195579, 35.383592453387948 ] } },
{ "type": "Feature", "properties": { "P29_001": "14152", "P29_002": "F114310104721", "P29_003": "16007", "P29_004": "麻布大学", "P29_005": "神奈川県相模原市中央区淵野辺1-17-71", "P29_006": "4", "P29_007": "0", "P29_008": "00", "P29_009": null }, "geometry": { "type": "Point", "coordinates": [ 139.388630773084799, 35.575202329972186 ] } },
{ "type": "Feature", "properties": { "P29_001": "14201", "P29_002": "F114310104730", "P29_003": "16007", "P29_004": "神奈川歯科大学", "P29_005": "神奈川県横須賀市稲岡町82", "P29_006": "4", "P29_007": "0", "P29_008": "00", "P29_009": null }, "geometry": { "type": "Point", "coordinates": [ 139.669970858951473, 35.284383734275934 ] } },
{ "type": "Feature", "properties": { "P29_001": "14204", "P29_002": "F114310104749", "P29_003": "16007", "P29_004": "鎌倉女子大学", "P29_005": "神奈川県鎌倉市大船6-1-3", "P29_006": "4", "P29_007": "0", "P29_008": "00", "P29_009": null }, "geometry": { "type": "Point", "coordinates": [ 139.539369176187932, 35.353225329544607 ] } },
{ "type": "Feature", "properties": { "P29_001": "14205", "P29_002": "F114310104758", "P29_003": "16007", "P29_004": "湘南工科大学", "P29_005": "神奈川県藤沢市辻堂西海岸1-1-25", "P29_006": "4", "P29_007": "0", "P29_008": "00", "P29_009": null }, "geometry": { "type": "Point", "coordinates": [ 139.453182271297237, 35.325354865567029 ] } },
{ "type": "Feature", "properties": { "P29_001": "14153", "P29_002": "F114310104767", "P29_003": "16007", "P29_004": "相模女子大学", "P29_005": "神奈川県相模原市南区文京2-1-1", "P29_006": "4", "P29_007": "0", "P29_008": "00", "P29_009": null }, "geometry": { "type": "Point", "coordinates": [ 139.428079301544614, 35.5337778694729 ] } },
{ "type": "Feature", "properties": { "P29_001": "14134", "P29_002": "F114310104776", "P29_003": "16007", "P29_004": "洗足学園音楽大学", "P29_005": "神奈川県川崎市高津区久本2-3-1", "P29_006": "4", "P29_007": "0", "P29_008": "00", "P29_009": null }, "geometry": { "type": "Point", "coordinates": [ 139.614841198919947, 35.594163588341232 ] } },
{ "type": "Feature", "properties": { "P29_001": "14136", "P29_002": "F114310104785", "P29_003": "16007", "P29_004": "聖マリアンナ医科大学", "P29_005": "神奈川県川崎市宮前区菅生2-16-1", "P29_006": "4", "P29_007": "0", "P29_008": "00", "P29_009": null }, "geometry": { "type": "Point", "coordinates": [ 139.548060458903166, 35.599855954351177 ] } },
{ "type": "Feature", "properties": { "P29_001": "14212", "P29_002": "F114310104794", "P29_003": "16007", "P29_004": "神奈川工科大学", "P29_005": "神奈川県厚木市下荻野1030", "P29_006": "4", "P29_007": "0", "P29_008": "00", "P29_009": null }, "geometry": { "type": "Point", "coordinates": [ 139.341186350021218, 35.486609078271421 ] } },
{ "type": "Feature", "properties": { "P29_001": "14137", "P29_002": "F114310104801", "P29_003": "16007", "P29_004": "昭和音楽大学", "P29_005": "神奈川県川崎市麻生区上麻生1-11-1", "P29_006": "4", "P29_007": "0", "P29_008": "00", "P29_009": null }, "geometry": { "type": "Point", "coordinates": [ 139.507697734162207, 35.601103946480805 ] } },
{ "type": "Feature", "properties": { "P29_001": "14117", "P29_002": "F114310104810", "P29_003": "16007", "P29_004": "桐蔭横浜大学", "P29_005": "神奈川県横浜市青葉区鉄町1614", "P29_006": "4", "P29_007": "0", "P29_008": "00", "P29_009": null }, "geometry": { "type": "Point", "coordinates": [ 139.518311213028767, 35.566359728093374 ] } },
{ "type": "Feature", "properties": { "P29_001": "14113", "P29_002": "F114310104829", "P29_003": "16007", "P29_004": "東洋英和女学院大学", "P29_005": "神奈川県横浜市緑区三保町32", "P29_006": "4", "P29_007": "0", "P29_008": "00", "P29_009": null }, "geometry": { "type": "Point", "coordinates": [ 139.510002775806527, 35.508619302004888 ] } },
{ "type": "Feature", "properties": { "P29_001": "14212", "P29_002": "F114310104838", "P29_003": "16007", "P29_004": "松蔭大学", "P29_005": "神奈川県厚木市森の里若宮9-1", "P29_006": "4", "P29_007": "0", "P29_008": "00", "P29_009": null }, "geometry": { "type": "Point", "coordinates": [ 139.316214526974392, 35.443139891471588 ] } },
{ "type": "Feature", "properties": { "P29_001": "14137", "P29_002": "F114310104847", "P29_003": "16007", "P29_004": "田園調布学園大学", "P29_005": "神奈川県川崎市麻生区東百合丘3-4-1", "P29_006": "4", "P29_007": "0", "P29_008": "00", "P29_009": null }, "geometry": { "type": "Point", "coordinates": [ 139.525446100497021, 35.595310808217448 ] } },
{ "type": "Feature", "properties": { "P29_001": "14117", "P29_002": "F114310104856", "P29_003": "16007", "P29_004": "横浜美術大学", "P29_005": "神奈川県横浜市青葉区鴨志田町1204", "P29_006": "4", "P29_007": "0", "P29_008": "00", "P29_009": null }, "geometry": { "type": "Point", "coordinates": [ 139.497436847695383, 35.55723925524687 ] } },
{ "type": "Feature", "properties": { "P29_001": "14137", "P29_002": "F114310104865", "P29_003": "16007", "P29_004": "日本映画大学", "P29_005": "神奈川県川崎市麻生区万福寺1-16-30", "P29_006": "4", "P29_007": "0", "P29_008": "01", "P29_009": "新百合ヶ丘キャンパス" }, "geometry": { "type": "Point", "coordinates": [ 139.507591702734942, 35.604968035301276 ] } },
{ "type": "Feature", "properties": { "P29_001": "14113", "P29_002": "F114310104874", "P29_003": "16007", "P29_004": "横浜創英大学", "P29_005": "神奈川県横浜市緑区三保町1", "P29_006": "4", "P29_007": "0", "P29_008": "00", "P29_009": null }, "geometry": { "type": "Point", "coordinates": [ 139.51041905153059, 35.51198494883571 ] } },
{ "type": "Feature", "properties": { "P29_001": "14110", "P29_002": "F114310104883", "P29_003": "16007", "P29_004": "湘南医療大学", "P29_005": "神奈川県横浜市戸塚区上品濃16-48", "P29_006": "4", "P29_007": "0", "P29_008": "00", "P29_009": null }, "geometry": { "type": "Point", "coordinates": [ 139.548861191342695, 35.437212339702043 ] } },
{ "type": "Feature", "properties": { "P29_001": "14204", "P29_002": "F114310104892", "P29_003": "16007", "P29_004": "湘南鎌倉医療大学", "P29_005": "神奈川県鎌倉市山崎1195-3", "P29_006": "4", "P29_007": "0", "P29_008": "00", "P29_009": null }, "geometry": { "type": "Point", "coordinates": [ 139.527181171352282, 35.342538647282751 ] } },
{ "type": "Feature", "properties": { "P29_001": "14132", "P29_002": "F114210111993", "P29_003": "16007", "P29_004": "川崎市立看護大学", "P29_005": "神奈川県川崎市幸区小倉4-30-1", "P29_006": "3", "P29_007": "0", "P29_008": "00", "P29_009": null }, "geometry": { "type": "Point", "coordinates": [ 139.669831985903386, 35.535844726059949 ] } },
{ "type": "Feature", "properties": { "P29_001": "14118", "P29_002": "F114310104909", "P29_003": "16007", "P29_004": "ビューティ＆ウェルネス専門職大学", "P29_005": "神奈川県横浜市都筑区牛久保3-9-3", "P29_006": "4", "P29_007": "0", "P29_008": "00", "P29_009": null }, "geometry": { "type": "Point", "coordinates": [ 139.57218094141993, 35.569345994723577 ] } },
{ "type": "Feature", "properties": { "P29_001": "14131", "P29_002": "F114310104918", "P29_003": "16007", "P29_004": "グローバルＢｉｚ専門職大学", "P29_005": "神奈川県川崎市川崎区駅前本町22-1", "P29_006": "4", "P29_007": "0", "P29_008": "00", "P29_009": null }, "geometry": { "type": "Point", "coordinates": [ 139.700824968119719, 35.533942929694319 ] } },
{ "type": "Feature", "properties": { "P29_001": "14206", "P29_002": "F109310101598", "P29_003": "16007", "P29_004": "国際医療福祉大学", "P29_005": "神奈川県小田原市城山1-2-25", "P29_006": "4", "P29_007": "0", "P29_008": "02", "P29_009": "小田原キャンパス" }, "geometry": { "type": "Point", "coordinates": [ 139.153496812547132, 35.254174865389075 ] } },
{ "type": "Feature", "properties": { "P29_001": "14104", "P29_002": "F113110102737", "P29_003": "16007", "P29_004": "東京芸術大学", "P29_005": "神奈川県横浜市中区本町4-44", "P29_006": "1", "P29_007": "0", "P29_008": "03", "P29_009": "横浜キャンパス" }, "geometry": { "type": "Point", "coordinates": [ 139.637229040410858, 35.449331221644414 ] } },
{ "type": "Feature", "properties": { "P29_001": "14113", "P29_002": "F113110102746", "P29_003": "16007", "P29_004": "東京工業大学", "P29_005": "神奈川県横浜市緑区長津田町4259", "P29_006": "1", "P29_007": "0", "P29_008": "02", "P29_009": "すずかけ台キャンパス" }, "geometry": { "type": "Point", "coordinates": [ 139.483210363295797, 35.514208299484082 ] } },
{ "type": "Feature", "properties": { "P29_001": "14207", "P29_002": "F113310102868", "P29_003": "16007", "P29_004": "文教大学", "P29_005": "神奈川県茅ヶ崎市行谷1100", "P29_006": "4", "P29_007": "0", "P29_008": "03", "P29_009": "湘南キャンパス" }, "geometry": { "type": "Point", "coordinates": [ 139.416026824005399, 35.369825502743424 ] } },
{ "type": "Feature", "properties": { "P29_001": "14152", "P29_002": "F113310102920", "P29_003": "16007", "P29_004": "青山学院大学", "P29_005": "神奈川県相模原市中央区淵野辺5-10-1", "P29_006": "4", "P29_007": "0", "P29_008": "02", "P29_009": "相模原キャンパス" }, "geometry": { "type": "Point", "coordinates": [ 139.402899733382355, 35.566520260339026 ] } },
{ "type": "Feature", "properties": { "P29_001": "14153", "P29_002": "F113310102966", "P29_003": "16007", "P29_004": "北里大学", "P29_005": "神奈川県相模原市南区北里1-15-1", "P29_006": "4", "P29_007": "0", "P29_008": "03", "P29_009": "相模原キャンパス" }, "geometry": { "type": "Point", "coordinates": [ 139.393886671461729, 35.539137463598365 ] } },
{ "type": "Feature", "properties": { "P29_001": "14109", "P29_002": "F113310102984", "P29_003": "16007", "P29_004": "慶應義塾大学", "P29_005": "神奈川県横浜市港北区日吉3-14-1", "P29_006": "4", "P29_007": "0", "P29_008": "04", "P29_009": "矢上キャンパス" }, "geometry": { "type": "Point", "coordinates": [ 139.654493469039664, 35.555465326017512 ] } },
{ "type": "Feature", "properties": { "P29_001": "14109", "P29_002": "F113310102984", "P29_003": "16007", "P29_004": "慶應義塾大学", "P29_005": "神奈川県横浜市港北区日吉4-1-1", "P29_006": "4", "P29_007": "0", "P29_008": "05", "P29_009": "日吉キャンパス" }, "geometry": { "type": "Point", "coordinates": [ 139.649201233399396, 35.553395722463371 ] } },
{ "type": "Feature", "properties": { "P29_001": "14205", "P29_002": "F113310102984", "P29_003": "16007", "P29_004": "慶應義塾大学", "P29_005": "神奈川県藤沢市遠藤5322", "P29_006": "4", "P29_007": "0", "P29_008": "06", "P29_009": "湘南藤沢キャンパス" }, "geometry": { "type": "Point", "coordinates": [ 139.42727454153129, 35.388190654409954 ] } },
{ "type": "Feature", "properties": { "P29_001": "14211", "P29_002": "F113310103064", "P29_003": "16007", "P29_004": "上智大学", "P29_005": "神奈川県秦野市上大槻山王台999", "P29_006": "4", "P29_007": "0", "P29_008": "04", "P29_009": "秦野キャンパス" }, "geometry": { "type": "Point", "coordinates": [ 139.237043952430582, 35.363999744410826 ] } },
{ "type": "Feature", "properties": { "P29_001": "14113", "P29_002": "F113310103073", "P29_003": "16007", "P29_004": "昭和大学", "P29_005": "神奈川県横浜市緑区十日市場町1865", "P29_006": "4", "P29_007": "0", "P29_008": "02", "P29_009": "横浜キャンパス" }, "geometry": { "type": "Point", "coordinates": [ 139.505865611012354, 35.522211786503945 ] } },
{ "type": "Feature", "properties": { "P29_001": "14153", "P29_002": "F113310103108", "P29_003": "16007", "P29_004": "女子美術大学", "P29_005": "神奈川県相模原市南区麻溝台1900", "P29_006": "4", "P29_007": "0", "P29_008": "02", "P29_009": "相模原キャンパス" }, "geometry": { "type": "Point", "coordinates": [ 139.389939053624573, 35.528103405781664 ] } },
{ "type": "Feature", "properties": { "P29_001": "14135", "P29_002": "F113310103162", "P29_003": "16007", "P29_004": "専修大学", "P29_005": "神奈川県川崎市多摩区東三田2-1-1", "P29_006": "4", "P29_007": "0", "P29_008": "02", "P29_009": "生田キャンパス" }, "geometry": { "type": "Point", "coordinates": [ 139.555013762084769, 35.607886899926292 ] } },
{ "type": "Feature", "properties": { "P29_001": "14203", "P29_002": "F113310103233", "P29_003": "16007", "P29_004": "東海大学", "P29_005": "神奈川県平塚市北金目4-1-1", "P29_006": "4", "P29_007": "0", "P29_008": "03", "P29_009": "湘南キャンパス" }, "geometry": { "type": "Point", "coordinates": [ 139.272662546081165, 35.360877205634267 ] } },
{ "type": "Feature", "properties": { "P29_001": "14214", "P29_002": "F113310103233", "P29_003": "16007", "P29_004": "東海大学", "P29_005": "神奈川県伊勢原市下糟屋143", "P29_006": "4", "P29_007": "0", "P29_008": "04", "P29_009": "伊勢原キャンパス" }, "geometry": { "type": "Point", "coordinates": [ 139.315383372361509, 35.408087248628284 ] } },
{ "type": "Feature", "properties": { "P29_001": "14212", "P29_002": "F113310103322", "P29_003": "16007", "P29_004": "東京農業大学", "P29_005": "神奈川県厚木市船子1737", "P29_006": "4", "P29_007": "0", "P29_008": "03", "P29_009": "厚木キャンパス" }, "geometry": { "type": "Point", "coordinates": [ 139.346000431203493, 35.432304010072826 ] } },
{ "type": "Feature", "properties": { "P29_001": "14205", "P29_002": "F113310103395", "P29_003": "16007", "P29_004": "日本大学", "P29_005": "神奈川県藤沢市亀井野1866", "P29_006": "4", "P29_007": "0", "P29_008": "16", "P29_009": "生物資源科学部" }, "geometry": { "type": "Point", "coordinates": [ 139.469681506038143, 35.38056575595769 ] } },
{ "type": "Feature", "properties": { "P29_001": "14135", "P29_002": "F113310103439", "P29_003": "16007", "P29_004": "日本女子大学", "P29_005": "神奈川県川崎市多摩区西生田1-1-1", "P29_006": "4", "P29_007": "0", "P29_008": "02", "P29_009": "西生田キャンパス" }, "geometry": { "type": "Point", "coordinates": [ 139.527391802093774, 35.620848378347347 ] } },
{ "type": "Feature", "properties": { "P29_001": "14118", "P29_002": "F113310103518", "P29_003": "16007", "P29_004": "東京都市大学", "P29_005": "神奈川県横浜市都筑区牛久保西3-3-1", "P29_006": "4", "P29_007": "0", "P29_008": "02", "P29_009": "横浜キャンパス" }, "geometry": { "type": "Point", "coordinates": [ 139.575091136721227, 35.561408648186074 ] } },
{ "type": "Feature", "properties": { "P29_001": "14135", "P29_002": "F113310103536", "P29_003": "16007", "P29_004": "明治大学", "P29_005": "神奈川県川崎市多摩区東三田1-1-1", "P29_006": "4", "P29_007": "0", "P29_008": "04", "P29_009": "生田キャンパス" }, "geometry": { "type": "Point", "coordinates": [ 139.548695268122913, 35.612857817050205 ] } },
{ "type": "Feature", "properties": { "P29_001": "14110", "P29_002": "F113310103545", "P29_003": "16007", "P29_004": "明治学院大学", "P29_005": "神奈川県横浜市戸塚区上倉田町1518", "P29_006": "4", "P29_007": "0", "P29_008": "02", "P29_009": "横浜キャンパス" }, "geometry": { "type": "Point", "coordinates": [ 139.546347984143523, 35.387210042994013 ] } },
{ "type": "Feature", "properties": { "P29_001": "14205", "P29_002": "F113310103938", "P29_003": "16007", "P29_004": "多摩大学", "P29_005": "神奈川県藤沢市円行802", "P29_006": "4", "P29_007": "0", "P29_008": "02", "P29_009": "湘南キャンパス" }, "geometry": { "type": "Point", "coordinates": [ 139.462097317599444, 35.387140567234454 ] } },
{ "type": "Feature", "properties": { "P29_001": "14212", "P29_002": "F113310104116", "P29_003": "16007", "P29_004": "東京工芸大学", "P29_005": "神奈川県厚木市飯山南5-45-1", "P29_006": "4", "P29_007": "0", "P29_008": "02", "P29_009": "厚木キャンパス" }, "geometry": { "type": "Point", "coordinates": [ 139.331304731877083, 35.463084017197609 ] } },
{ "type": "Feature", "properties": { "P29_001": "14214", "P29_002": "F113310104125", "P29_003": "16007", "P29_004": "産業能率大学", "P29_005": "神奈川県伊勢原市上粕屋1573", "P29_006": "4", "P29_007": "0", "P29_008": "03", "P29_009": "湘南キャンパス" }, "geometry": { "type": "Point", "coordinates": [ 139.287131722811409, 35.41504847146016 ] } },
{ "type": "Feature", "properties": { "P29_001": "14152", "P29_002": "F114110104609", "P29_003": "16007", "P29_004": "総合研究大学院大学", "P29_005": "神奈川県相模原市中央区由野台3-1-1", "P29_006": "1", "P29_007": "0", "P29_008": "08", "P29_009": "宇宙科学コース" }, "geometry": { "type": "Point", "coordinates": [ 139.395178907102064, 35.558345763082464 ] } },
{ "type": "Feature", "properties": { "P29_001": "14301", "P29_002": "F114110104609", "P29_003": "16007", "P29_004": "総合研究大学院大学", "P29_005": "神奈川県三浦郡葉山町（湘南国際村）", "P29_006": "1", "P29_007": "0", "P29_008": "15", "P29_009": "統合進化科学コース" }, "geometry": { "type": "Point", "coordinates": [ 139.608302065700855, 35.261087248628286 ] } },
{ "type": "Feature", "properties": { "P29_001": "14108", "P29_002": "F114210104616", "P29_003": "16007", "P29_004": "横浜市立大学", "P29_005": "神奈川県横浜市金沢区福浦3-9", "P29_006": "3", "P29_007": "0", "P29_008": "02", "P29_009": "福浦キャンパス" }, "geometry": { "type": "Point", "coordinates": [ 139.651577307396281, 35.343410391696011 ] } },
{ "type": "Feature", "properties": { "P29_001": "14101", "P29_002": "F114210104616", "P29_003": "16007", "P29_004": "横浜市立大学", "P29_005": "神奈川県横浜市鶴見区末広町1-7-29", "P29_006": "3", "P29_007": "0", "P29_008": "03", "P29_009": "鶴見キャンパス" }, "geometry": { "type": "Point", "coordinates": [ 139.683695268122904, 35.48879965129801 ] } },
{ "type": "Feature", "properties": { "P29_001": "14110", "P29_002": "F114210104616", "P29_003": "16007", "P29_004": "横浜市立大学", "P29_005": "神奈川県横浜市戸塚区舞岡町641-12", "P29_006": "3", "P29_007": "0", "P29_008": "04", "P29_009": "舞岡キャンパス" }, "geometry": { "type": "Point", "coordinates": [ 139.550628423711146, 35.404657468348219 ] } },
{ "type": "Feature", "properties": { "P29_001": "14341", "P29_002": "F114310104632", "P29_003": "16007", "P29_004": "星槎大学", "P29_005": "神奈川県中郡大磯町国府本郷1805-2", "P29_006": "4", "P29_007": "0", "P29_008": "02", "P29_009": "湘南大磯キャンパス" }, "geometry": { "type": "Point", "coordinates": [ 139.287494734887673, 35.315967685693231 ] } },
{ "type": "Feature", "properties": { "P29_001": "14203", "P29_002": "F114310104641", "P29_003": "16007", "P29_004": "神奈川大学", "P29_005": "神奈川県平塚市土屋2946", "P29_006": "4", "P29_007": "0", "P29_008": "02", "P29_009": "湘南ひらつかキャンパス" }, "geometry": { "type": "Point", "coordinates": [ 139.260332256046638, 35.345003231430681 ] } },
{ "type": "Feature", "properties": { "P29_001": "14103", "P29_002": "F114310104641", "P29_003": "16007", "P29_004": "神奈川大学", "P29_005": "神奈川県横浜市西区みなとみらい4-5-3", "P29_006": "4", "P29_007": "0", "P29_008": "03", "P29_009": "みなとみらいキャンパス" }, "geometry": { "type": "Point", "coordinates": [ 139.627856481115941, 35.458647774056189 ] } },
{ "type": "Feature", "properties": { "P29_001": "14108", "P29_002": "F114310104650", "P29_003": "16007", "P29_004": "関東学院大学", "P29_005": "神奈川県横浜市金沢区釜利谷南3-22-1", "P29_006": "4", "P29_007": "0", "P29_008": "02", "P29_009": "横浜・金沢文庫キャンパス" }, "geometry": { "type": "Point", "coordinates": [ 139.597585171444734, 35.337226200147406 ] } },
{ "type": "Feature", "properties": { "P29_001": "14104", "P29_002": "F114310104650", "P29_003": "16007", "P29_004": "関東学院大学", "P29_005": "神奈川県横浜市中区万代町1-1-1", "P29_006": "4", "P29_007": "0", "P29_008": "03", "P29_009": "横浜・関内キャンパス" }, "geometry": { "type": "Point", "coordinates": [ 139.636429573646097, 35.443042008598802 ] } },
{ "type": "Feature", "properties": { "P29_001": "14104", "P29_002": "F114310104678", "P29_003": "16007", "P29_004": "フェリス女学院大学", "P29_005": "神奈川県横浜市中区山手町37", "P29_006": "4", "P29_007": "0", "P29_008": "02", "P29_009": "山手キャンパス" }, "geometry": { "type": "Point", "coordinates": [ 139.647667743953349, 35.435970917123903 ] } },
{ "type": "Feature", "properties": { "P29_001": "14137", "P29_002": "F114310104865", "P29_003": "16007", "P29_004": "日本映画大学", "P29_005": "神奈川県川崎市麻生区白山2-1-1", "P29_006": "4", "P29_007": "0", "P29_008": "02", "P29_009": "白山キャンパス" }, "geometry": { "type": "Point", "coordinates": [ 139.512236904459286, 35.591491049668342 ] } }
]
}
