{
"type": "FeatureCollection",
"name": "geo_14_夜間対応型訪問介護",
"crs": { "type": "name", "properties": { "name": "urn:ogc:def:crs:OGC:1.3:CRS84" } },
"features": [
{ "type": "Feature", "properties": { "内容": "横浜市福祉サービス協会　訪問介護看護つるみ【夜間対応型訪問介護】神奈川県横浜市鶴見区鶴見中央1丁目28番2号ニッコービル1階", "url2": "https://www.kaigokensaku.mhlw.go.jp/14/index.php?action_kouhyou_detail_004_kani=true&JigyosyoCd=1490100227-00&ServiceCd=710&Type=search" }, "geometry": { "type": "Point", "coordinates": [ 139.67876780000006, 35.508612 ] } },
{ "type": "Feature", "properties": { "内容": "銀河の詩ヘルパーステーション【夜間対応型訪問介護】神奈川県横浜市鶴見区鶴見中央4-32-1ＵＮＥＸビル801", "url2": "https://www.kaigokensaku.mhlw.go.jp/14/index.php?action_kouhyou_detail_004_kani=true&JigyosyoCd=1490100276-00&ServiceCd=710&Type=search" }, "geometry": { "type": "Point", "coordinates": [ 139.680409700000041, 35.5080981 ] } },
{ "type": "Feature", "properties": { "内容": "福祉協会つるみ24【夜間対応型訪問介護】神奈川県横浜市鶴見区豊岡町7-10ﾊﾟｰﾗｲﾄﾋﾞﾙ8F", "url2": "https://www.kaigokensaku.mhlw.go.jp/14/index.php?action_kouhyou_detail_004_kani=true&JigyosyoCd=1490100383-00&ServiceCd=710&Type=search" }, "geometry": { "type": "Point", "coordinates": [ 139.674486158080214, 35.507887351710217 ] } },
{ "type": "Feature", "properties": { "内容": "訪問介護　輝【夜間対応型訪問介護】神奈川県横浜市平安町2-28-1ヨコハマアイランドガーデン", "url2": "https://www.kaigokensaku.mhlw.go.jp/14/index.php?action_kouhyou_detail_004_kani=true&JigyosyoCd=1490100565-00&ServiceCd=710&Type=search" }, "geometry": { "type": "Point", "coordinates": [ 139.694059900000013, 35.5078124 ] } },
{ "type": "Feature", "properties": { "内容": "わかたけナイトケアステーション【夜間対応型訪問介護】神奈川県横浜市神奈川区平川町2-4ヤマザキビル", "url2": "https://www.kaigokensaku.mhlw.go.jp/14/index.php?action_kouhyou_detail_004_kani=true&JigyosyoCd=1490200092-00&ServiceCd=710&Type=search" }, "geometry": { "type": "Point", "coordinates": [ 139.628755800000022, 35.4794425 ] } },
{ "type": "Feature", "properties": { "内容": "横浜市福祉サービス協会訪問介護看護かながわ【夜間対応型訪問介護】神奈川県横浜市神奈川区反町1-7-1US-1ビル7階", "url2": "https://www.kaigokensaku.mhlw.go.jp/14/index.php?action_kouhyou_detail_004_kani=true&JigyosyoCd=1490200738-00&ServiceCd=710&Type=search" }, "geometry": { "type": "Point", "coordinates": [ 139.628438895974938, 35.474312268059194 ] } },
{ "type": "Feature", "properties": { "内容": "椚の大樹ヘルパーステーション【夜間対応型訪問介護】神奈川県横浜市神奈川区西神奈川1-9-2グレース竹和壱番館２階", "url2": "https://www.kaigokensaku.mhlw.go.jp/14/index.php?action_kouhyou_detail_004_kani=true&JigyosyoCd=1490200290-00&ServiceCd=710&Type=search" }, "geometry": { "type": "Point", "coordinates": [ 139.630869500000017, 35.4790148 ] } },
{ "type": "Feature", "properties": { "内容": "横浜市福祉サービス協会　訪問介護看護にし【夜間対応型訪問介護】神奈川県横浜市西区桜木町六丁目３１番地５階", "url2": "https://www.kaigokensaku.mhlw.go.jp/14/index.php?action_kouhyou_detail_004_kani=true&JigyosyoCd=1490300090-00&ServiceCd=710&Type=search" }, "geometry": { "type": "Point", "coordinates": [ 139.619193099999961, 35.461627900000011 ] } },
{ "type": "Feature", "properties": { "内容": "銀鈴の詩ヘルパーステーション【夜間対応型訪問介護】神奈川県横浜市西区平沼1-1-15ルピナス平沼2階", "url2": "https://www.kaigokensaku.mhlw.go.jp/14/index.php?action_kouhyou_detail_004_kani=true&JigyosyoCd=1490300124-00&ServiceCd=710&Type=search" }, "geometry": { "type": "Point", "coordinates": [ 139.621662300000025, 35.4608419 ] } },
{ "type": "Feature", "properties": { "内容": "横浜市福祉サービス協会　訪問介護看護なか【夜間対応型訪問介護】神奈川県横浜市中区扇町2-5-15リラックスビル3階", "url2": "https://www.kaigokensaku.mhlw.go.jp/14/index.php?action_kouhyou_detail_004_kani=true&JigyosyoCd=1490400411-00&ServiceCd=710&Type=search" }, "geometry": { "type": "Point", "coordinates": [ 139.638339800000011, 35.4406009 ] } },
{ "type": "Feature", "properties": { "内容": "銀杏の大樹ヘルパーステーション【夜間対応型訪問介護】神奈川県横浜市中区山下町252グランベル横浜ビル3階ＥＦ", "url2": "https://www.kaigokensaku.mhlw.go.jp/14/index.php?action_kouhyou_detail_004_kani=true&JigyosyoCd=1490400189-00&ServiceCd=710&Type=search" }, "geometry": { "type": "Point", "coordinates": [ 139.641075399999977, 35.4423913 ] } },
{ "type": "Feature", "properties": { "内容": "定期巡回ケアコールセンターはぴねす横浜永田【夜間対応型訪問介護】神奈川県横浜市南区永田北1丁目31番19号", "url2": "https://www.kaigokensaku.mhlw.go.jp/14/index.php?action_kouhyou_detail_004_kani=true&JigyosyoCd=1490500657-00&ServiceCd=710&Type=search" }, "geometry": { "type": "Point", "coordinates": [ 139.589295835581964, 35.441878063317752 ] } },
{ "type": "Feature", "properties": { "内容": "フルライフ横浜【夜間対応型訪問介護】神奈川県横浜市南区山王町3-24-8港横浜ビル4階", "url2": "https://www.kaigokensaku.mhlw.go.jp/14/index.php?action_kouhyou_detail_004_kani=true&JigyosyoCd=1490500111-00&ServiceCd=710&Type=search" }, "geometry": { "type": "Point", "coordinates": [ 139.619266111001906, 35.436210862738648 ] } },
{ "type": "Feature", "properties": { "内容": "桜樹の森ヘルパーステーション【夜間対応型訪問介護】神奈川県横浜市南区通町4-94神奈中弘明寺ビル2階", "url2": "https://www.kaigokensaku.mhlw.go.jp/14/index.php?action_kouhyou_detail_004_kani=true&JigyosyoCd=1490500236-00&ServiceCd=710&Type=search" }, "geometry": { "type": "Point", "coordinates": [ 139.602209799999969, 35.4242436 ] } },
{ "type": "Feature", "properties": { "内容": "フルライフ保土ヶ谷【夜間対応型訪問介護】神奈川県横浜市保土ケ谷区岩井町1-7保土ヶ谷駅ビル6階", "url2": "https://www.kaigokensaku.mhlw.go.jp/14/index.php?action_kouhyou_detail_004_kani=true&JigyosyoCd=1490600234-00&ServiceCd=710&Type=search" }, "geometry": { "type": "Point", "coordinates": [ 139.599455400000011, 35.44687620000002 ] } },
{ "type": "Feature", "properties": { "内容": "豊穣の大地ヘルパーステーション【夜間対応型訪問介護】神奈川県横浜市保土ヶ谷区和田1-13-1朋和ビル201", "url2": "https://www.kaigokensaku.mhlw.go.jp/14/index.php?action_kouhyou_detail_004_kani=true&JigyosyoCd=1490600150-00&ServiceCd=710&Type=search" }, "geometry": { "type": "Point", "coordinates": [ 139.58878, 35.4646608 ] } },
{ "type": "Feature", "properties": { "内容": "横浜市福祉サービス協会　訪問介護看護ほどがや【夜間対応型訪問介護】神奈川県横浜市保土ケ谷区宮田町1-5-10高梨医療ビル４階", "url2": "https://www.kaigokensaku.mhlw.go.jp/14/index.php?action_kouhyou_detail_004_kani=true&JigyosyoCd=1490600770-00&ServiceCd=710&Type=search" }, "geometry": { "type": "Point", "coordinates": [ 139.604432800000012, 35.4581468 ] } },
{ "type": "Feature", "properties": { "内容": "ハートケア　磯子【夜間対応型訪問介護】広地町7-12", "url2": "https://www.kaigokensaku.mhlw.go.jp/14/index.php?action_kouhyou_detail_004_kani=true&JigyosyoCd=1490700232-00&ServiceCd=710&Type=search" }, "geometry": { "type": "Point", "coordinates": [ 139.6231851, 35.4169394 ] } },
{ "type": "Feature", "properties": { "内容": "磯風の謡ヘルパーステーション【夜間対応型訪問介護】神奈川県横浜市磯子区磯子3-8-20サムティレジデンス横濱磯子1階", "url2": "https://www.kaigokensaku.mhlw.go.jp/14/index.php?action_kouhyou_detail_004_kani=true&JigyosyoCd=1490700166-00&ServiceCd=710&Type=search" }, "geometry": { "type": "Point", "coordinates": [ 139.61942160000001, 35.4047884 ] } },
{ "type": "Feature", "properties": { "内容": "横浜市福祉サービス協会　訪問介護看護いそご【夜間対応型訪問介護】神奈川県横浜市磯子区磯子三丁目３番21号磯子江戸徳ビル", "url2": "https://www.kaigokensaku.mhlw.go.jp/14/index.php?action_kouhyou_detail_004_kani=true&JigyosyoCd=1490700414-00&ServiceCd=710&Type=search" }, "geometry": { "type": "Point", "coordinates": [ 139.635467908135951, 35.416804510820761 ] } },
{ "type": "Feature", "properties": { "内容": "陽光の大地ヘルパーステーション【夜間対応型訪問介護】神奈川県横浜市金沢区釜利谷東2－3－10いしかたビル4Ｆ", "url2": "https://www.kaigokensaku.mhlw.go.jp/14/index.php?action_kouhyou_detail_004_kani=true&JigyosyoCd=1490800263-00&ServiceCd=710&Type=search" }, "geometry": { "type": "Point", "coordinates": [ 139.618317100000013, 35.3427688 ] } },
{ "type": "Feature", "properties": { "内容": "横浜市福祉サービス協会　訪問介護看護かなざわ【夜間対応型訪問介護】神奈川県横浜市金沢区泥亀１－１７－１５大西第３ビル２階", "url2": "https://www.kaigokensaku.mhlw.go.jp/14/index.php?action_kouhyou_detail_004_kani=true&JigyosyoCd=1490800198-00&ServiceCd=710&Type=search" }, "geometry": { "type": "Point", "coordinates": [ 139.62360549999994, 35.3402388 ] } },
{ "type": "Feature", "properties": { "内容": "横浜市福祉サービス協会　訪問介護看護こうほく【夜間対応型訪問介護】神奈川県横浜市港北区新横浜2-5-9新横浜フジカビル8階", "url2": "https://www.kaigokensaku.mhlw.go.jp/14/index.php?action_kouhyou_detail_004_kani=true&JigyosyoCd=1490900816-00&ServiceCd=710&Type=search" }, "geometry": { "type": "Point", "coordinates": [ 139.615634, 35.5096779 ] } },
{ "type": "Feature", "properties": { "内容": "夜間対応型訪問介護　ゆい【夜間対応型訪問介護】神奈川県横浜市港北区日吉本町1-27-37", "url2": "https://www.kaigokensaku.mhlw.go.jp/14/index.php?action_kouhyou_detail_004_kani=true&JigyosyoCd=1490900253-00&ServiceCd=710&Type=search" }, "geometry": { "type": "Point", "coordinates": [ 139.644739857602673, 35.552402004097885 ] } },
{ "type": "Feature", "properties": { "内容": "やさしい手新横浜定期巡回随時対応型訪問介護看護事業所【夜間対応型訪問介護】神奈川県横浜市港北区新横浜1－23－5ベラルーチェ新横浜1階", "url2": "https://www.kaigokensaku.mhlw.go.jp/14/index.php?action_kouhyou_detail_004_kani=true&JigyosyoCd=1490900584-00&ServiceCd=710&Type=search" }, "geometry": { "type": "Point", "coordinates": [ 139.608914499999969, 35.5038599 ] } },
{ "type": "Feature", "properties": { "内容": "楡の大樹ヘルパーステーション（夜間）【夜間対応型訪問介護】神奈川県横浜市港北区新横浜2-4-17新横浜千歳観光第2ビル３階", "url2": "https://www.kaigokensaku.mhlw.go.jp/14/index.php?action_kouhyou_detail_004_kani=true&JigyosyoCd=1490900337-00&ServiceCd=710&Type=search" }, "geometry": { "type": "Point", "coordinates": [ 139.616701500000033, 35.5088401 ] } },
{ "type": "Feature", "properties": { "内容": "ＳＯＭＰＯケア　横浜戸塚　夜間訪問介護【夜間対応型訪問介護】神奈川県横浜市戸塚区戸塚町１４５番地秀文堂ビル２０２号", "url2": "https://www.kaigokensaku.mhlw.go.jp/14/index.php?action_kouhyou_detail_004_kani=true&JigyosyoCd=1491000657-00&ServiceCd=710&Type=search" }, "geometry": { "type": "Point", "coordinates": [ 139.531634423942592, 35.397167086634624 ] } },
{ "type": "Feature", "properties": { "内容": "希望の大地ヘルパーステーション【夜間対応型訪問介護】神奈川県横浜市戸塚区品濃町545-30クライテリア東戸塚１階", "url2": "https://www.kaigokensaku.mhlw.go.jp/14/index.php?action_kouhyou_detail_004_kani=true&JigyosyoCd=1491000483-00&ServiceCd=710&Type=search" }, "geometry": { "type": "Point", "coordinates": [ 139.558752199999958, 35.4332388 ] } },
{ "type": "Feature", "properties": { "内容": "瑞穂の大地ヘルパーステーション【夜間対応型訪問介護】神奈川県横浜市港南区日野1－9－33ＮＴＴ港南ビル１階", "url2": "https://www.kaigokensaku.mhlw.go.jp/14/index.php?action_kouhyou_detail_004_kani=true&JigyosyoCd=1493100265-00&ServiceCd=710&Type=search" }, "geometry": { "type": "Point", "coordinates": [ 139.5868977, 35.3957608 ] } },
{ "type": "Feature", "properties": { "内容": "横浜市福祉サービス協会　訪問介護看護こうなん【夜間対応型訪問介護】神奈川県横浜市港南区上大岡西1-12-5朝日生命上大岡ビル4階", "url2": "https://www.kaigokensaku.mhlw.go.jp/14/index.php?action_kouhyou_detail_004_kani=true&JigyosyoCd=1493100711-00&ServiceCd=710&Type=search" }, "geometry": { "type": "Point", "coordinates": [ 139.596206504626963, 35.411375858480817 ] } },
{ "type": "Feature", "properties": { "内容": "横浜市福祉サービス協会　訪問介護看護あさひ【夜間対応型訪問介護】神奈川県横浜市旭区柏町131-5", "url2": "https://www.kaigokensaku.mhlw.go.jp/14/index.php?action_kouhyou_detail_004_kani=true&JigyosyoCd=1493200354-00&ServiceCd=710&Type=search" }, "geometry": { "type": "Point", "coordinates": [ 139.533271, 35.459046599999986 ] } },
{ "type": "Feature", "properties": { "内容": "銀の舞ヘルパーステーション【夜間対応型訪問介護】神奈川県横浜市旭区二俣川2-50-14コプレ二俣川オフィス905号", "url2": "https://www.kaigokensaku.mhlw.go.jp/14/index.php?action_kouhyou_detail_004_kani=true&JigyosyoCd=1493200313-00&ServiceCd=710&Type=search" }, "geometry": { "type": "Point", "coordinates": [ 139.532952645368937, 35.463503715381442 ] } },
{ "type": "Feature", "properties": { "内容": "ホームケア緑【夜間対応型訪問介護】神奈川県横浜市緑区十日市場町1258－92クレールレジデンス横浜十日市場", "url2": "https://www.kaigokensaku.mhlw.go.jp/14/index.php?action_kouhyou_detail_004_kani=true&JigyosyoCd=1493300428-00&ServiceCd=710&Type=search" }, "geometry": { "type": "Point", "coordinates": [ 139.514919400000053, 35.5217093 ] } },
{ "type": "Feature", "properties": { "内容": "翡翠の舞ヘルパーステーション【夜間対応型訪問介護】神奈川県横浜市緑区台村町337台和ビル1階", "url2": "https://www.kaigokensaku.mhlw.go.jp/14/index.php?action_kouhyou_detail_004_kani=true&JigyosyoCd=1493300477-00&ServiceCd=710&Type=search" }, "geometry": { "type": "Point", "coordinates": [ 139.537619, 35.5133305 ] } },
{ "type": "Feature", "properties": { "内容": "横浜市福祉サービス協会　訪問介護看護みどり【夜間対応型訪問介護】神奈川県横浜市緑区中山一丁目6番5号静銀中山ビル3階", "url2": "https://www.kaigokensaku.mhlw.go.jp/14/index.php?action_kouhyou_detail_004_kani=true&JigyosyoCd=1493300253-00&ServiceCd=710&Type=search" }, "geometry": { "type": "Point", "coordinates": [ 139.540941500000031, 35.515603729727403 ] } },
{ "type": "Feature", "properties": { "内容": "ＳＯＭＰＯケア　横浜十日市場　夜間訪問介護【夜間対応型訪問介護】神奈川県横浜市緑区十日市場町824-2", "url2": "https://www.kaigokensaku.mhlw.go.jp/14/index.php?action_kouhyou_detail_004_kani=true&JigyosyoCd=1493300402-00&ServiceCd=710&Type=search" }, "geometry": { "type": "Point", "coordinates": [ 139.518135674758355, 35.524715436651633 ] } },
{ "type": "Feature", "properties": { "内容": "横浜市福祉サービス協会　訪問介護看護せや【夜間対応型訪問介護】神奈川県横浜市瀬谷区三ツ境100-6海發ビル１階", "url2": "https://www.kaigokensaku.mhlw.go.jp/14/index.php?action_kouhyou_detail_004_kani=true&JigyosyoCd=1493400293-00&ServiceCd=710&Type=search" }, "geometry": { "type": "Point", "coordinates": [ 139.501589476973464, 35.466944197578485 ] } },
{ "type": "Feature", "properties": { "内容": "フルライフ本郷台【夜間対応型訪問介護】神奈川県横浜市栄区公田町514-5柳澤ビル2階", "url2": "https://www.kaigokensaku.mhlw.go.jp/14/index.php?action_kouhyou_detail_004_kani=true&JigyosyoCd=1493500175-00&ServiceCd=710&Type=search" }, "geometry": { "type": "Point", "coordinates": [ 139.555206099999964, 35.3630341 ] } },
{ "type": "Feature", "properties": { "内容": "たすけあい泉定期巡回・随時対応型訪問介護看護にじ【夜間対応型訪問介護】神奈川県横浜市泉区中田南4丁目26番10号", "url2": "https://www.kaigokensaku.mhlw.go.jp/14/index.php?action_kouhyou_detail_004_kani=true&JigyosyoCd=1493600611-00&ServiceCd=710&Type=search" }, "geometry": { "type": "Point", "coordinates": [ 139.507924300000013, 35.4080693 ] } },
{ "type": "Feature", "properties": { "内容": "横浜市福祉サービス協会　訪問介護看護いずみ【夜間対応型訪問介護】神奈川県横浜市泉区和泉中央南5-1-18スガノビル１階", "url2": "https://www.kaigokensaku.mhlw.go.jp/14/index.php?action_kouhyou_detail_004_kani=true&JigyosyoCd=1493600272-00&ServiceCd=710&Type=search" }, "geometry": { "type": "Point", "coordinates": [ 139.48533462684648, 35.416628148354363 ] } },
{ "type": "Feature", "properties": { "内容": "花の生活館ヘルパーステーション【夜間対応型訪問介護】神奈川県横浜市泉区弥生台13-4横山ビル202", "url2": "https://www.kaigokensaku.mhlw.go.jp/14/index.php?action_kouhyou_detail_004_kani=true&JigyosyoCd=1493600215-00&ServiceCd=710&Type=search" }, "geometry": { "type": "Point", "coordinates": [ 139.50658169999997, 35.428217 ] } },
{ "type": "Feature", "properties": { "内容": "夜間対応型訪問介護　ゆい　青葉【夜間対応型訪問介護】神奈川県横浜市青葉区あざみ野2-12-4小川ビル202", "url2": "https://www.kaigokensaku.mhlw.go.jp/14/index.php?action_kouhyou_detail_004_kani=true&JigyosyoCd=1493700478-00&ServiceCd=710&Type=search" }, "geometry": { "type": "Point", "coordinates": [ 139.549275699999953, 35.5684528 ] } },
{ "type": "Feature", "properties": { "内容": "エヌアイ在宅サービスステーション【夜間対応型訪問介護】神奈川県横浜市青葉区市ヶ尾町25-6", "url2": "https://www.kaigokensaku.mhlw.go.jp/14/index.php?action_kouhyou_detail_004_kani=true&JigyosyoCd=1493700627-00&ServiceCd=710&Type=search" }, "geometry": { "type": "Point", "coordinates": [ 139.538585799999964, 35.549220100000021 ] } },
{ "type": "Feature", "properties": { "内容": "わかたけナイトケアステーション青葉【夜間対応型訪問介護】神奈川県横浜市青葉区奈良4-6-12", "url2": "https://www.kaigokensaku.mhlw.go.jp/14/index.php?action_kouhyou_detail_004_kani=true&JigyosyoCd=1493700353-00&ServiceCd=710&Type=search" }, "geometry": { "type": "Point", "coordinates": [ 139.482790799999947, 35.5514968 ] } },
{ "type": "Feature", "properties": { "内容": "都筑区医師会24時間在宅ケアステーション【夜間対応型訪問介護】神奈川県横浜市都筑区牛久保西１－20－21", "url2": "https://www.kaigokensaku.mhlw.go.jp/14/index.php?action_kouhyou_detail_004_kani=true&JigyosyoCd=1493800310-00&ServiceCd=710&Type=search" }, "geometry": { "type": "Point", "coordinates": [ 139.5812234, 35.5565019 ] } },
{ "type": "Feature", "properties": { "内容": "SOMPOケア川崎日進　夜間訪問介護【夜間対応型訪問介護】神奈川県川崎市川崎区日進町22-3吉田貸事務所", "url2": "https://www.kaigokensaku.mhlw.go.jp/14/index.php?action_kouhyou_detail_004_kani=true&JigyosyoCd=1495000638-00&ServiceCd=710&Type=search" }, "geometry": { "type": "Point", "coordinates": [ 139.696607399999948, 35.5240512 ] } },
{ "type": "Feature", "properties": { "内容": "フルライフ川崎【夜間対応型訪問介護】神奈川県川崎市幸区幸町2-593モリファーストビル3階B", "url2": "https://www.kaigokensaku.mhlw.go.jp/14/index.php?action_kouhyou_detail_004_kani=true&JigyosyoCd=1495100271-00&ServiceCd=710&Type=search" }, "geometry": { "type": "Point", "coordinates": [ 139.698887300000024, 35.5375715 ] } },
{ "type": "Feature", "properties": { "内容": "フルライフ中原【夜間対応型訪問介護】神奈川県川崎市中原区丸子通1-627-8トーシンビル", "url2": "https://www.kaigokensaku.mhlw.go.jp/14/index.php?action_kouhyou_detail_004_kani=true&JigyosyoCd=1495200139-00&ServiceCd=710&Type=search" }, "geometry": { "type": "Point", "coordinates": [ 139.665307290757511, 35.581512107092763 ] } },
{ "type": "Feature", "properties": { "内容": "ＳＯＭＰＯケア　川崎高津　夜間訪問介護【夜間対応型訪問介護】神奈川県川崎市高津区溝口3-11-17溝口パークホームズ2-B", "url2": "https://www.kaigokensaku.mhlw.go.jp/14/index.php?action_kouhyou_detail_004_kani=true&JigyosyoCd=1495300442-00&ServiceCd=710&Type=search" }, "geometry": { "type": "Point", "coordinates": [ 139.613106199999947, 35.603114400000017 ] } },
{ "type": "Feature", "properties": { "内容": "ＳＯＭＰＯケア川崎鷺沼夜間訪問介護【夜間対応型訪問介護】神奈川県川崎市宮前区有馬1-7-5サンプラザ鷺沼１Ｆ", "url2": "https://www.kaigokensaku.mhlw.go.jp/14/index.php?action_kouhyou_detail_004_kani=true&JigyosyoCd=1495500421-00&ServiceCd=710&Type=search" }, "geometry": { "type": "Point", "coordinates": [ 139.577892099999985, 35.5793263 ] } },
{ "type": "Feature", "properties": { "内容": "エイプレイス麻生【夜間対応型訪問介護】神奈川県川崎市麻生区万福寺1丁目8番7号パストラル新百合ヶ丘310号室", "url2": "https://www.kaigokensaku.mhlw.go.jp/14/index.php?action_kouhyou_detail_004_kani=true&JigyosyoCd=1495600353-00&ServiceCd=710&Type=search" }, "geometry": { "type": "Point", "coordinates": [ 139.503934904821563, 35.603485163632605 ] } },
{ "type": "Feature", "properties": { "内容": "SOMPOケア　川崎新百合ヶ丘　夜間訪問介護【夜間対応型訪問介護】神奈川県川崎市麻生区万福寺4-1-8グラードビュウ百合丘2階201号室", "url2": "https://www.kaigokensaku.mhlw.go.jp/14/index.php?action_kouhyou_detail_004_kani=true&JigyosyoCd=1495600478-00&ServiceCd=710&Type=search" }, "geometry": { "type": "Point", "coordinates": [ 139.512785943516519, 35.608121452206099 ] } },
{ "type": "Feature", "properties": { "内容": "夜間対応型訪問介護　ラポール城南【夜間対応型訪問介護】神奈川県藤沢市城南４－９－８城東ビル１階", "url2": "https://www.kaigokensaku.mhlw.go.jp/14/index.php?action_kouhyou_detail_004_kani=true&JigyosyoCd=1492200157-00&ServiceCd=710&Type=search" }, "geometry": { "type": "Point", "coordinates": [ 139.461766300000022, 35.347238 ] } },
{ "type": "Feature", "properties": { "内容": "医療法人社団　三喜会　介護老人保健施設　ライフプラザ鶴巻【夜間対応型訪問介護】神奈川県秦野市鶴巻北3-1-3", "url2": "https://www.kaigokensaku.mhlw.go.jp/14/index.php?action_kouhyou_detail_004_kani=true&JigyosyoCd=1452880029-00&ServiceCd=710&Type=search" }, "geometry": { "type": "Point", "coordinates": [ 139.2761855, 35.3821699 ] } },
{ "type": "Feature", "properties": { "内容": "夜間対応型訪問介護みちびき【夜間対応型訪問介護】神奈川県秦野市曽屋二丁目6-30清水ハイツ101号", "url2": "https://www.kaigokensaku.mhlw.go.jp/14/index.php?action_kouhyou_detail_004_kani=true&JigyosyoCd=1492800238-00&ServiceCd=710&Type=search" }, "geometry": { "type": "Point", "coordinates": [ 139.227353599999986, 35.3799245 ] } },
{ "type": "Feature", "properties": { "内容": "らんたん【夜間対応型訪問介護】神奈川県大和市中央３丁目２－３０クリオ大和壱番館１０２号室", "url2": "https://www.kaigokensaku.mhlw.go.jp/14/index.php?action_kouhyou_detail_004_kani=true&JigyosyoCd=1493000564-00&ServiceCd=710&Type=search" }, "geometry": { "type": "Point", "coordinates": [ 139.4558058, 35.4704297 ] } },
{ "type": "Feature", "properties": { "内容": "夜間ヘルパーステーション絆【夜間対応型訪問介護】神奈川県伊勢原市高森3004-2", "url2": "https://www.kaigokensaku.mhlw.go.jp/14/index.php?action_kouhyou_detail_004_kani=true&JigyosyoCd=1494000050-00&ServiceCd=710&Type=search" }, "geometry": { "type": "Point", "coordinates": [ 139.332055209292577, 35.409065440815112 ] } }
]
}
