{
"type": "FeatureCollection",
"name": "geo_14_短期入所療養介護(療養病床を有する病院等）",
"crs": { "type": "name", "properties": { "name": "urn:ogc:def:crs:OGC:1.3:CRS84" } },
"features": [
{ "type": "Feature", "properties": { "内容": "くりはらメディカルクリニック【短期入所療養介護(療養病床を有する病院等）】神奈川県座間市栗原1199-4", "url": "https://www.kaigokensaku.mhlw.go.jp/14/index.php?action_kouhyou_detail_004_kani=true&JigyosyoCd=1414110128-00&ServiceCd=&Type=search", "url2": "http://www.kurihara-mc.com/short-stay.html" }, "geometry": { "type": "Point", "coordinates": [ 139.415041699999961, 35.4967525 ] } }
]
}
