{
"type": "FeatureCollection",
"name": "geo_14_幼保連携型認定こども園",
"crs": { "type": "name", "properties": { "name": "urn:ogc:def:crs:EPSG::6668" } },
"features": [
{ "type": "Feature", "properties": { "P29_001": "14151", "P29_002": "A214215000013", "P29_003": "16013", "P29_004": "相模湖こども園", "P29_005": "神奈川県相模原市緑区与瀬886-7", "P29_006": "3", "P29_007": "0", "P29_008": "00", "P29_009": null }, "geometry": { "type": "Point", "coordinates": [ 139.189546733694499, 35.614290370299507 ] } },
{ "type": "Feature", "properties": { "P29_001": "14203", "P29_002": "A214220300010", "P29_003": "16013", "P29_004": "平塚市港こども園", "P29_005": "神奈川県平塚市夕陽ケ丘22-3", "P29_006": "3", "P29_007": "0", "P29_008": "00", "P29_009": null }, "geometry": { "type": "Point", "coordinates": [ 139.357610661734782, 35.322975740336588 ] } },
{ "type": "Feature", "properties": { "P29_001": "14211", "P29_002": "A214221100029", "P29_003": "16013", "P29_004": "ひろはたこども園", "P29_005": "神奈川県秦野市下大槻138", "P29_006": "3", "P29_007": "0", "P29_008": "00", "P29_009": null }, "geometry": { "type": "Point", "coordinates": [ 139.259699852507964, 35.360913952026763 ] } },
{ "type": "Feature", "properties": { "P29_001": "14211", "P29_002": "A214221100038", "P29_003": "16013", "P29_004": "すえひろこども園", "P29_005": "神奈川県秦野市末広町6-35", "P29_006": "3", "P29_007": "0", "P29_008": "00", "P29_009": null }, "geometry": { "type": "Point", "coordinates": [ 139.232253028024957, 35.37528611676008 ] } },
{ "type": "Feature", "properties": { "P29_001": "14211", "P29_002": "A214221100047", "P29_003": "16013", "P29_004": "つるまきこども園", "P29_005": "神奈川県秦野市鶴巻2248-1", "P29_006": "3", "P29_007": "0", "P29_008": "00", "P29_009": null }, "geometry": { "type": "Point", "coordinates": [ 139.271460287503828, 35.377198336087233 ] } },
{ "type": "Feature", "properties": { "P29_001": "14211", "P29_002": "A214221100056", "P29_003": "16013", "P29_004": "しぶさわこども園", "P29_005": "神奈川県秦野市渋沢上1-12-2", "P29_006": "3", "P29_007": "0", "P29_008": "00", "P29_009": null }, "geometry": { "type": "Point", "coordinates": [ 139.178579393513132, 35.368301010393701 ] } },
{ "type": "Feature", "properties": { "P29_001": "14361", "P29_002": "A214236100018", "P29_003": "16013", "P29_004": "なかいこども園", "P29_005": "神奈川県足柄上郡中井町井ノ口1996-1", "P29_006": "3", "P29_007": "0", "P29_008": "00", "P29_009": null }, "geometry": { "type": "Point", "coordinates": [ 139.230733342179207, 35.34065111672632 ] } },
{ "type": "Feature", "properties": { "P29_001": "14364", "P29_002": "A214236400015", "P29_003": "16013", "P29_004": "山北町立やまきたこども園", "P29_005": "神奈川県足柄上郡山北町山北1266", "P29_006": "3", "P29_007": "0", "P29_008": "00", "P29_009": null }, "geometry": { "type": "Point", "coordinates": [ 139.082265887463706, 35.359952347972424 ] } },
{ "type": "Feature", "properties": { "P29_001": "14382", "P29_002": "A214238200013", "P29_003": "16013", "P29_004": "仙石原幼児学園", "P29_005": "神奈川県足柄下郡箱根町仙石原981", "P29_006": "3", "P29_007": "0", "P29_008": "00", "P29_009": null }, "geometry": { "type": "Point", "coordinates": [ 139.014714109768306, 35.270625816298782 ] } },
{ "type": "Feature", "properties": { "P29_001": "14382", "P29_002": "A214238200022", "P29_003": "16013", "P29_004": "湯本幼児学園", "P29_005": "神奈川県足柄下郡箱根町湯本392", "P29_006": "3", "P29_007": "0", "P29_008": "00", "P29_009": null }, "geometry": { "type": "Point", "coordinates": [ 139.105585738882183, 35.23060233909392 ] } },
{ "type": "Feature", "properties": { "P29_001": "14118", "P29_002": "A214310000012", "P29_003": "16013", "P29_004": "認定こども園ゆうゆうのもり幼保園", "P29_005": "神奈川県横浜市都筑区早渕2-3-77", "P29_006": "4", "P29_007": "0", "P29_008": "00", "P29_009": null }, "geometry": { "type": "Point", "coordinates": [ 139.599109494040817, 35.544973645260612 ] } },
{ "type": "Feature", "properties": { "P29_001": "14111", "P29_002": "A214310000021", "P29_003": "16013", "P29_004": "認定こども園ムロノキッズ室の木幼稚園・プリスクール室の木", "P29_005": "神奈川県横浜市港南区港南3-35-20", "P29_006": "4", "P29_007": "0", "P29_008": "00", "P29_009": null }, "geometry": { "type": "Point", "coordinates": [ 139.581871369029557, 35.401872778492944 ] } },
{ "type": "Feature", "properties": { "P29_001": "14112", "P29_002": "A214310000030", "P29_003": "16013", "P29_004": "認定こども園やつはしキッズ八ッ橋幼稚園", "P29_005": "神奈川県横浜市旭区中希望が丘196", "P29_006": "4", "P29_007": "0", "P29_008": "00", "P29_009": null }, "geometry": { "type": "Point", "coordinates": [ 139.508854298687538, 35.461436590246826 ] } },
{ "type": "Feature", "properties": { "P29_001": "14117", "P29_002": "A214310000049", "P29_003": "16013", "P29_004": "認定こども園三陽幼稚園・三陽保育園", "P29_005": "神奈川県横浜市青葉区上谷本町722", "P29_006": "4", "P29_007": "0", "P29_008": "00", "P29_009": null }, "geometry": { "type": "Point", "coordinates": [ 139.51757950560949, 35.559583960260582 ] } },
{ "type": "Feature", "properties": { "P29_001": "14115", "P29_002": "A214310000058", "P29_003": "16013", "P29_004": "幼保連携型認定こども園いのやま幼稚園・保育園", "P29_005": "神奈川県横浜市栄区上之町29-1", "P29_006": "4", "P29_007": "0", "P29_008": "00", "P29_009": null }, "geometry": { "type": "Point", "coordinates": [ 139.575535960632749, 35.355594552911825 ] } },
{ "type": "Feature", "properties": { "P29_001": "14114", "P29_002": "A214310000067", "P29_003": "16013", "P29_004": "認定こども園あづまの幼稚園・あづまのナーサリー", "P29_005": "神奈川県横浜市瀬谷区東野台38", "P29_006": "4", "P29_007": "0", "P29_008": "00", "P29_009": null }, "geometry": { "type": "Point", "coordinates": [ 139.500212138810355, 35.478137171170644 ] } },
{ "type": "Feature", "properties": { "P29_001": "14115", "P29_002": "A214310000076", "P29_003": "16013", "P29_004": "認定こども園中野幼稚園中野どんぐり保育園", "P29_005": "神奈川県横浜市栄区元大橋2-32-3", "P29_006": "4", "P29_007": "0", "P29_008": "00", "P29_009": null }, "geometry": { "type": "Point", "coordinates": [ 139.566666828541742, 35.368460574538815 ] } },
{ "type": "Feature", "properties": { "P29_001": "14114", "P29_002": "A214310000085", "P29_003": "16013", "P29_004": "認定こども園はらのこ原幼稚園", "P29_005": "神奈川県横浜市瀬谷区阿久和西3-36-6", "P29_006": "4", "P29_007": "0", "P29_008": "00", "P29_009": null }, "geometry": { "type": "Point", "coordinates": [ 139.498416021551634, 35.449913193522711 ] } },
{ "type": "Feature", "properties": { "P29_001": "14111", "P29_002": "A214310000094", "P29_003": "16013", "P29_004": "関東学院のびのびのば園", "P29_005": "神奈川県横浜市港南区野庭町617-2", "P29_006": "4", "P29_007": "0", "P29_008": "00", "P29_009": null }, "geometry": { "type": "Point", "coordinates": [ 139.567483358483315, 35.391598069561574 ] } },
{ "type": "Feature", "properties": { "P29_001": "14118", "P29_002": "A214310000101", "P29_003": "16013", "P29_004": "認定こども園エクレス", "P29_005": "神奈川県横浜市都筑区長坂8-1", "P29_006": "4", "P29_007": "0", "P29_008": "00", "P29_009": null }, "geometry": { "type": "Point", "coordinates": [ 139.57170030492864, 35.538071245736205 ] } },
{ "type": "Feature", "properties": { "P29_001": "14102", "P29_002": "A214310000110", "P29_003": "16013", "P29_004": "認定こども園捜真幼稚園", "P29_005": "神奈川県横浜市神奈川区栗田谷42-43", "P29_006": "4", "P29_007": "0", "P29_008": "00", "P29_009": null }, "geometry": { "type": "Point", "coordinates": [ 139.617713924147864, 35.481434617062085 ] } },
{ "type": "Feature", "properties": { "P29_001": "14105", "P29_002": "A214310000129", "P29_003": "16013", "P29_004": "認定こども園山王台幼稚園", "P29_005": "神奈川県横浜市南区永田山王台38-38", "P29_006": "4", "P29_007": "0", "P29_008": "00", "P29_009": null }, "geometry": { "type": "Point", "coordinates": [ 139.587128314467805, 35.429146663709453 ] } },
{ "type": "Feature", "properties": { "P29_001": "14106", "P29_002": "A214310000147", "P29_003": "16013", "P29_004": "認定こども園峯岡幼稚園", "P29_005": "神奈川県横浜市保土ケ谷区峰岡町2-195", "P29_006": "4", "P29_007": "0", "P29_008": "00", "P29_009": null }, "geometry": { "type": "Point", "coordinates": [ 139.597441920144206, 35.465544563166432 ] } },
{ "type": "Feature", "properties": { "P29_001": "14112", "P29_002": "A214310000165", "P29_003": "16013", "P29_004": "認定こども園二俣川幼稚園", "P29_005": "神奈川県横浜市旭区今川町16-1", "P29_006": "4", "P29_007": "0", "P29_008": "00", "P29_009": null }, "geometry": { "type": "Point", "coordinates": [ 139.538615107955138, 35.473557070339979 ] } },
{ "type": "Feature", "properties": { "P29_001": "14115", "P29_002": "A214310000174", "P29_003": "16013", "P29_004": "いいじまひがしこども園飯島東幼稚園・飯島東保育園", "P29_005": "神奈川県横浜市栄区飯島町2158", "P29_006": "4", "P29_007": "0", "P29_008": "00", "P29_009": null }, "geometry": { "type": "Point", "coordinates": [ 139.540635959895155, 35.370998184454521 ] } },
{ "type": "Feature", "properties": { "P29_001": "14116", "P29_002": "A214310000183", "P29_003": "16013", "P29_004": "ぬくもりの森しんばしやよい台こども園やよい台幼稚園", "P29_005": "神奈川県横浜市泉区新橋町1101-5", "P29_006": "4", "P29_007": "0", "P29_008": "00", "P29_009": null }, "geometry": { "type": "Point", "coordinates": [ 139.511802894249684, 35.432907728268049 ] } },
{ "type": "Feature", "properties": { "P29_001": "14118", "P29_002": "A214310000192", "P29_003": "16013", "P29_004": "認定こども園やまゆりキッズ横浜みずほ幼稚園", "P29_005": "神奈川県横浜市都筑区北山田3-25", "P29_006": "4", "P29_007": "0", "P29_008": "00", "P29_009": null }, "geometry": { "type": "Point", "coordinates": [ 139.58780075691817, 35.55952049748948 ] } },
{ "type": "Feature", "properties": { "P29_001": "14114", "P29_002": "A214310000209", "P29_003": "16013", "P29_004": "幼保連携型認定こども園みなみ幼稚園", "P29_005": "神奈川県横浜市瀬谷区阿久和南4-16-1", "P29_006": "4", "P29_007": "0", "P29_008": "00", "P29_009": null }, "geometry": { "type": "Point", "coordinates": [ 139.500251862773268, 35.43774089136793 ] } },
{ "type": "Feature", "properties": { "P29_001": "14117", "P29_002": "A214310000218", "P29_003": "16013", "P29_004": "幼保連携型認定こども園青葉台幼稚園", "P29_005": "神奈川県横浜市青葉区榎が丘5-1", "P29_006": "4", "P29_007": "0", "P29_008": "00", "P29_009": null }, "geometry": { "type": "Point", "coordinates": [ 139.514782274650912, 35.540728199751953 ] } },
{ "type": "Feature", "properties": { "P29_001": "14110", "P29_002": "A214310000227", "P29_003": "16013", "P29_004": "幼保連携型認定こども園みどり幼稚園", "P29_005": "神奈川県横浜市戸塚区汲沢2-26-14", "P29_006": "4", "P29_007": "0", "P29_008": "00", "P29_009": null }, "geometry": { "type": "Point", "coordinates": [ 139.517210871390091, 35.400819004837331 ] } },
{ "type": "Feature", "properties": { "P29_001": "14116", "P29_002": "A214310000236", "P29_003": "16013", "P29_004": "幼保連携型認定こども園泉ヶ丘幼稚園", "P29_005": "神奈川県横浜市泉区和泉が丘3-9-1", "P29_006": "4", "P29_007": "0", "P29_008": "00", "P29_009": null }, "geometry": { "type": "Point", "coordinates": [ 139.494814890521809, 35.40629957647711 ] } },
{ "type": "Feature", "properties": { "P29_001": "14116", "P29_002": "A214310000245", "P29_003": "16013", "P29_004": "認定こども園いづみ幼稚園", "P29_005": "神奈川県横浜市泉区和泉中央南4-17-36", "P29_006": "4", "P29_007": "0", "P29_008": "00", "P29_009": null }, "geometry": { "type": "Point", "coordinates": [ 139.489207296688846, 35.414736796426965 ] } },
{ "type": "Feature", "properties": { "P29_001": "14116", "P29_002": "A214310000254", "P29_003": "16013", "P29_004": "認定こども園明成幼稚園", "P29_005": "神奈川県横浜市泉区上飯田町2422", "P29_006": "4", "P29_007": "0", "P29_008": "00", "P29_009": null }, "geometry": { "type": "Point", "coordinates": [ 139.476546043827199, 35.426207341113418 ] } },
{ "type": "Feature", "properties": { "P29_001": "14110", "P29_002": "A214310000263", "P29_003": "16013", "P29_004": "幼保連携型認定こども園ひまわり幼稚園", "P29_005": "神奈川県横浜市戸塚区戸塚町5118", "P29_006": "4", "P29_007": "0", "P29_008": "00", "P29_009": null }, "geometry": { "type": "Point", "coordinates": [ 139.532360055810329, 35.405083469264405 ] } },
{ "type": "Feature", "properties": { "P29_001": "14112", "P29_002": "A214310000272", "P29_003": "16013", "P29_004": "幼保連携型認定こども園希望ヶ丘幼稚園希望ヶ丘保育園", "P29_005": "神奈川県横浜市旭区東希望が丘17", "P29_006": "4", "P29_007": "0", "P29_008": "00", "P29_009": null }, "geometry": { "type": "Point", "coordinates": [ 139.519491087712225, 35.463476960185019 ] } },
{ "type": "Feature", "properties": { "P29_001": "14116", "P29_002": "A214310000281", "P29_003": "16013", "P29_004": "なかよしこども園", "P29_005": "神奈川県横浜市泉区下和泉3-27-11", "P29_006": "4", "P29_007": "0", "P29_008": "00", "P29_009": null }, "geometry": { "type": "Point", "coordinates": [ 139.496006331762999, 35.396809238674535 ] } },
{ "type": "Feature", "properties": { "P29_001": "14112", "P29_002": "A214310000290", "P29_003": "16013", "P29_004": "認定こども園オーセルわかば幼稚園", "P29_005": "神奈川県横浜市旭区若葉台1-7-1", "P29_006": "4", "P29_007": "0", "P29_008": "00", "P29_009": null }, "geometry": { "type": "Point", "coordinates": [ 139.504867395094067, 35.504139274398803 ] } },
{ "type": "Feature", "properties": { "P29_001": "14101", "P29_002": "A214310000307", "P29_003": "16013", "P29_004": "幼保連携型認定こども園あさひ台幼稚園", "P29_005": "神奈川県横浜市鶴見区下末吉6-7-24", "P29_006": "4", "P29_007": "0", "P29_008": "00", "P29_009": null }, "geometry": { "type": "Point", "coordinates": [ 139.665052555648998, 35.520384624485295 ] } },
{ "type": "Feature", "properties": { "P29_001": "14108", "P29_002": "A214310000316", "P29_003": "16013", "P29_004": "学校法人新栄学園認定こども園金沢白百合幼稚園", "P29_005": "神奈川県横浜市金沢区釜利谷南2-2-4", "P29_006": "4", "P29_007": "0", "P29_008": "00", "P29_009": null }, "geometry": { "type": "Point", "coordinates": [ 139.609958898137762, 35.338510454967754 ] } },
{ "type": "Feature", "properties": { "P29_001": "14110", "P29_002": "A214310000343", "P29_003": "16013", "P29_004": "幼保連携型認定こども園ＹＭＣＡとつか保育園", "P29_005": "神奈川県横浜市戸塚区上倉田町865-71", "P29_006": "4", "P29_007": "0", "P29_008": "00", "P29_009": null }, "geometry": { "type": "Point", "coordinates": [ 139.53884409866248, 35.397468021377627 ] } },
{ "type": "Feature", "properties": { "P29_001": "14117", "P29_002": "A214310000370", "P29_003": "16013", "P29_004": "認定こども園あざみ野白ゆり幼稚園", "P29_005": "神奈川県横浜市青葉区大場町596", "P29_006": "4", "P29_007": "0", "P29_008": "00", "P29_009": null }, "geometry": { "type": "Point", "coordinates": [ 139.535566150472789, 35.570003259921172 ] } },
{ "type": "Feature", "properties": { "P29_001": "14102", "P29_002": "A214310000389", "P29_003": "16013", "P29_004": "うちゅうこども園たんまち", "P29_005": "神奈川県横浜市神奈川区上反町1-10-5", "P29_006": "4", "P29_007": "0", "P29_008": "00", "P29_009": null }, "geometry": { "type": "Point", "coordinates": [ 139.624760196944663, 35.473607091674609 ] } },
{ "type": "Feature", "properties": { "P29_001": "14109", "P29_002": "A214310000398", "P29_003": "16013", "P29_004": "幼保連携型認定こども園岸根こども園", "P29_005": "神奈川県横浜市港北区岸根町685-12", "P29_006": "4", "P29_007": "0", "P29_008": "00", "P29_009": null }, "geometry": { "type": "Point", "coordinates": [ 139.610561214465662, 35.496455492099351 ] } },
{ "type": "Feature", "properties": { "P29_001": "14114", "P29_002": "A214310000405", "P29_003": "16013", "P29_004": "幼保連携型認定こども園二ツ橋あいりん幼稚園", "P29_005": "神奈川県横浜市瀬谷区二ツ橋町144", "P29_006": "4", "P29_007": "0", "P29_008": "00", "P29_009": null }, "geometry": { "type": "Point", "coordinates": [ 139.493962414088855, 35.464017021077787 ] } },
{ "type": "Feature", "properties": { "P29_001": "14109", "P29_002": "A214310000414", "P29_003": "16013", "P29_004": "しんよしだこども園", "P29_005": "神奈川県横浜市港北区新吉田東6-17-3", "P29_006": "4", "P29_007": "0", "P29_008": "00", "P29_009": null }, "geometry": { "type": "Point", "coordinates": [ 139.621416053703939, 35.536539774485377 ] } },
{ "type": "Feature", "properties": { "P29_001": "14104", "P29_002": "A214310000423", "P29_003": "16013", "P29_004": "横濱中華幼保園", "P29_005": "神奈川県横浜市中区山下町142", "P29_006": "4", "P29_007": "0", "P29_008": "00", "P29_009": null }, "geometry": { "type": "Point", "coordinates": [ 139.644582399092798, 35.442563963060316 ] } },
{ "type": "Feature", "properties": { "P29_001": "14111", "P29_002": "A214310000432", "P29_003": "16013", "P29_004": "幼保連携型認定こども園森が丘幼稚園", "P29_005": "神奈川県横浜市港南区笹下1-11-16", "P29_006": "4", "P29_007": "0", "P29_008": "00", "P29_009": null }, "geometry": { "type": "Point", "coordinates": [ 139.599634303551539, 35.398314423321274 ] } },
{ "type": "Feature", "properties": { "P29_001": "14116", "P29_002": "A214310000441", "P29_003": "16013", "P29_004": "認定こども園宮の台幼稚園", "P29_005": "神奈川県横浜市泉区中田北3-29-1", "P29_006": "4", "P29_007": "0", "P29_008": "00", "P29_009": null }, "geometry": { "type": "Point", "coordinates": [ 139.510888461684857, 35.421976883427234 ] } },
{ "type": "Feature", "properties": { "P29_001": "14116", "P29_002": "A214310000450", "P29_003": "16013", "P29_004": "幼保連携型認定こども園ＹＭＣＡいずみ保育園", "P29_005": "神奈川県横浜市泉区上飯田町1872-1", "P29_006": "4", "P29_007": "0", "P29_008": "00", "P29_009": null }, "geometry": { "type": "Point", "coordinates": [ 139.478463092725178, 35.423793775848203 ] } },
{ "type": "Feature", "properties": { "P29_001": "14117", "P29_002": "A214310000469", "P29_003": "16013", "P29_004": "つどいの森もみの木こども園", "P29_005": "神奈川県横浜市青葉区もみの木台16-13", "P29_006": "4", "P29_007": "0", "P29_008": "00", "P29_009": null }, "geometry": { "type": "Point", "coordinates": [ 139.526338580961578, 35.571831466438624 ] } },
{ "type": "Feature", "properties": { "P29_001": "14133", "P29_002": "A214313000016", "P29_003": "16013", "P29_004": "田園調布学園大学みらいこども園", "P29_005": "神奈川県川崎市中原区下新城1-15-3", "P29_006": "4", "P29_007": "0", "P29_008": "00", "P29_009": null }, "geometry": { "type": "Point", "coordinates": [ 139.631718049303942, 35.581089517175869 ] } },
{ "type": "Feature", "properties": { "P29_001": "14136", "P29_002": "A214313000025", "P29_003": "16013", "P29_004": "健爽学園ゆりかご幼稚園", "P29_005": "神奈川県川崎市宮前区犬蔵1-19-16", "P29_006": "4", "P29_007": "0", "P29_008": "00", "P29_009": null }, "geometry": { "type": "Point", "coordinates": [ 139.561115139060831, 35.591329551545172 ] } },
{ "type": "Feature", "properties": { "P29_001": "14136", "P29_002": "A214313000034", "P29_003": "16013", "P29_004": "宮前おひさまこども園", "P29_005": "神奈川県川崎市宮前区西野川2-22-5", "P29_006": "4", "P29_007": "0", "P29_008": "00", "P29_009": null }, "geometry": { "type": "Point", "coordinates": [ 139.610331182860762, 35.574705490748535 ] } },
{ "type": "Feature", "properties": { "P29_001": "14135", "P29_002": "A214313000043", "P29_003": "16013", "P29_004": "認定こども園岸栄光学園生田ひまわり幼稚園", "P29_005": "神奈川県川崎市多摩区栗谷1-11-6", "P29_006": "4", "P29_007": "0", "P29_008": "00", "P29_009": null }, "geometry": { "type": "Point", "coordinates": [ 139.533509978784906, 35.6122180715181 ] } },
{ "type": "Feature", "properties": { "P29_001": "14132", "P29_002": "A214313000052", "P29_003": "16013", "P29_004": "女躰神社こども園", "P29_005": "神奈川県川崎市幸区幸町1-992-3", "P29_006": "4", "P29_007": "0", "P29_008": "00", "P29_009": null }, "geometry": { "type": "Point", "coordinates": [ 139.697093689608351, 35.534680572337514 ] } },
{ "type": "Feature", "properties": { "P29_001": "14151", "P29_002": "A214315000011", "P29_003": "16013", "P29_004": "幼保連携型認定こども園大島幼稚園", "P29_005": "神奈川県相模原市緑区大島202-1", "P29_006": "4", "P29_007": "0", "P29_008": "00", "P29_009": null }, "geometry": { "type": "Point", "coordinates": [ 139.313009708357981, 35.583147150082254 ] } },
{ "type": "Feature", "properties": { "P29_001": "14153", "P29_002": "A214315000039", "P29_003": "16013", "P29_004": "認定こども園モモ", "P29_005": "神奈川県相模原市南区鵜野森1-21-4", "P29_006": "4", "P29_007": "0", "P29_008": "00", "P29_009": null }, "geometry": { "type": "Point", "coordinates": [ 139.429266575626741, 35.546105087915294 ] } },
{ "type": "Feature", "properties": { "P29_001": "14153", "P29_002": "A214315000057", "P29_003": "16013", "P29_004": "認定こども園相模林間幼稚園", "P29_005": "神奈川県相模原市南区上鶴間4-2-1", "P29_006": "4", "P29_007": "0", "P29_008": "00", "P29_009": null }, "geometry": { "type": "Point", "coordinates": [ 139.445601971265006, 35.521248661667215 ] } },
{ "type": "Feature", "properties": { "P29_001": "14153", "P29_002": "A214315000066", "P29_003": "16013", "P29_004": "認定こども園ピノ", "P29_005": "神奈川県相模原市南区古淵1-8-1ヤママサ第8ビル", "P29_006": "4", "P29_007": "0", "P29_008": "00", "P29_009": null }, "geometry": { "type": "Point", "coordinates": [ 139.420252578769635, 35.556368108346675 ] } },
{ "type": "Feature", "properties": { "P29_001": "14151", "P29_002": "A214315000075", "P29_003": "16013", "P29_004": "認定こども園相模野幼稚園", "P29_005": "神奈川県相模原市緑区二本松3-9-12", "P29_006": "4", "P29_007": "0", "P29_008": "00", "P29_009": null }, "geometry": { "type": "Point", "coordinates": [ 139.317218875676446, 35.595561268540095 ] } },
{ "type": "Feature", "properties": { "P29_001": "14152", "P29_002": "A214315000084", "P29_003": "16013", "P29_004": "愛の園ふちのべこども園", "P29_005": "神奈川県相模原市中央区淵野辺1-16-5", "P29_006": "4", "P29_007": "0", "P29_008": "00", "P29_009": null }, "geometry": { "type": "Point", "coordinates": [ 139.391696869790422, 35.573546338472191 ] } },
{ "type": "Feature", "properties": { "P29_001": "14152", "P29_002": "A214315000093", "P29_003": "16013", "P29_004": "愛の園ふちのべこども園分園まほろば", "P29_005": "神奈川県相模原市中央区淵野辺1-12-16", "P29_006": "4", "P29_007": "0", "P29_008": "00", "P29_009": null }, "geometry": { "type": "Point", "coordinates": [ 139.392073844735023, 35.572104220785846 ] } },
{ "type": "Feature", "properties": { "P29_001": "14152", "P29_002": "A214315000100", "P29_003": "16013", "P29_004": "認定こども園すこやか", "P29_005": "神奈川県相模原市中央区横山4-12-14", "P29_006": "4", "P29_007": "0", "P29_008": "00", "P29_009": null }, "geometry": { "type": "Point", "coordinates": [ 139.363535088755953, 35.565471353124515 ] } },
{ "type": "Feature", "properties": { "P29_001": "14152", "P29_002": "A214315000119", "P29_003": "16013", "P29_004": "認定こども園すこやか分園はぐくみ", "P29_005": "神奈川県相模原市中央区中央4-12-1-2Ｆ", "P29_006": "4", "P29_007": "0", "P29_008": "00", "P29_009": null }, "geometry": { "type": "Point", "coordinates": [ 139.368106964074258, 35.572969494687833 ] } },
{ "type": "Feature", "properties": { "P29_001": "14151", "P29_002": "A214315000128", "P29_003": "16013", "P29_004": "認定こども園きらきら", "P29_005": "神奈川県相模原市緑区下九沢1520-1", "P29_006": "4", "P29_007": "0", "P29_008": "00", "P29_009": null }, "geometry": { "type": "Point", "coordinates": [ 139.339273307905302, 35.575181752623131 ] } },
{ "type": "Feature", "properties": { "P29_001": "14151", "P29_002": "A214315000137", "P29_003": "16013", "P29_004": "認定こども園きらきら分園やまと", "P29_005": "神奈川県相模原市緑区下九沢1522-1", "P29_006": "4", "P29_007": "0", "P29_008": "00", "P29_009": null }, "geometry": { "type": "Point", "coordinates": [ 139.339942092842136, 35.575263744747041 ] } },
{ "type": "Feature", "properties": { "P29_001": "14152", "P29_002": "A214315000146", "P29_003": "16013", "P29_004": "ふちのべ美邦こども園", "P29_005": "神奈川県相模原市中央区共和1-4-3", "P29_006": "4", "P29_007": "0", "P29_008": "00", "P29_009": null }, "geometry": { "type": "Point", "coordinates": [ 139.398455345616981, 35.566481867843329 ] } },
{ "type": "Feature", "properties": { "P29_001": "14153", "P29_002": "A214315000155", "P29_003": "16013", "P29_004": "幼保連携型認定こども園おおのだい", "P29_005": "神奈川県相模原市南区大野台4-3-20", "P29_006": "4", "P29_007": "0", "P29_008": "00", "P29_009": null }, "geometry": { "type": "Point", "coordinates": [ 139.403609091819902, 35.548269370186098 ] } },
{ "type": "Feature", "properties": { "P29_001": "14153", "P29_002": "A214315000164", "P29_003": "16013", "P29_004": "幼保連携型認定こども園まつがえこども園", "P29_005": "神奈川県相模原市南区松が枝町10-14", "P29_006": "4", "P29_007": "0", "P29_008": "00", "P29_009": null }, "geometry": { "type": "Point", "coordinates": [ 139.425791601947338, 35.517745686727018 ] } },
{ "type": "Feature", "properties": { "P29_001": "14152", "P29_002": "A214315000173", "P29_003": "16013", "P29_004": "幼保連携型認定こども園清水こども園", "P29_005": "神奈川県相模原市中央区田名2166-2", "P29_006": "4", "P29_007": "0", "P29_008": "00", "P29_009": null }, "geometry": { "type": "Point", "coordinates": [ 139.327493924101333, 35.559530403252793 ] } },
{ "type": "Feature", "properties": { "P29_001": "14152", "P29_002": "A214315000182", "P29_003": "16013", "P29_004": "幼保連携型認定こども園星ヶ丘二葉園", "P29_005": "神奈川県相模原市中央区星が丘1-16-15", "P29_006": "4", "P29_007": "0", "P29_008": "00", "P29_009": null }, "geometry": { "type": "Point", "coordinates": [ 139.369897940617562, 35.562166029255003 ] } },
{ "type": "Feature", "properties": { "P29_001": "14152", "P29_002": "A214315000191", "P29_003": "16013", "P29_004": "幼保連携型認定こども園星ヶ丘二葉園分園", "P29_005": "神奈川県相模原市中央区相模原6-20-1-2Ｆ", "P29_006": "4", "P29_007": "0", "P29_008": "00", "P29_009": null }, "geometry": { "type": "Point", "coordinates": [ 139.374640510408682, 35.57416966474841 ] } },
{ "type": "Feature", "properties": { "P29_001": "14152", "P29_002": "A214315000208", "P29_003": "16013", "P29_004": "幼保連携型認定こども園第二ふたば園", "P29_005": "神奈川県相模原市中央区南橋本1-2-17", "P29_006": "4", "P29_007": "0", "P29_008": "00", "P29_009": null }, "geometry": { "type": "Point", "coordinates": [ 139.35287931725577, 35.582056142460083 ] } },
{ "type": "Feature", "properties": { "P29_001": "14151", "P29_002": "A214315000217", "P29_003": "16013", "P29_004": "幼保連携型認定こども園むくどりこども園", "P29_005": "神奈川県相模原市緑区下九沢454", "P29_006": "4", "P29_007": "0", "P29_008": "00", "P29_009": null }, "geometry": { "type": "Point", "coordinates": [ 139.34926618153537, 35.567378984845583 ] } },
{ "type": "Feature", "properties": { "P29_001": "14151", "P29_002": "A214315000226", "P29_003": "16013", "P29_004": "幼保連携型認定こども園むくどり風の丘こども園", "P29_005": "神奈川県相模原市緑区下九沢1558-14", "P29_006": "4", "P29_007": "0", "P29_008": "00", "P29_009": null }, "geometry": { "type": "Point", "coordinates": [ 139.336816240536876, 35.579799250702827 ] } },
{ "type": "Feature", "properties": { "P29_001": "14151", "P29_002": "A214315000244", "P29_003": "16013", "P29_004": "幼保連携型認定こども園ひまわり第２こども園", "P29_005": "神奈川県相模原市緑区橋本4-18-19", "P29_006": "4", "P29_007": "0", "P29_008": "00", "P29_009": null }, "geometry": { "type": "Point", "coordinates": [ 139.34785677554197, 35.597922506886881 ] } },
{ "type": "Feature", "properties": { "P29_001": "14151", "P29_002": "A214315000253", "P29_003": "16013", "P29_004": "幼保連携型認定こども園みんなのとっぽこども園", "P29_005": "神奈川県相模原市緑区東橋本1-19-12", "P29_006": "4", "P29_007": "0", "P29_008": "00", "P29_009": null }, "geometry": { "type": "Point", "coordinates": [ 139.350139391349217, 35.592504587002161 ] } },
{ "type": "Feature", "properties": { "P29_001": "14151", "P29_002": "A214315000262", "P29_003": "16013", "P29_004": "幼保連携型認定こども園東橋本ひまわりこども園", "P29_005": "神奈川県相模原市緑区東橋本4-14-36", "P29_006": "4", "P29_007": "0", "P29_008": "00", "P29_009": null }, "geometry": { "type": "Point", "coordinates": [ 139.357736420413886, 35.598105497120471 ] } },
{ "type": "Feature", "properties": { "P29_001": "14152", "P29_002": "A214315000299", "P29_003": "16013", "P29_004": "横山台こども園", "P29_005": "神奈川県相模原市中央区横山台2-24-16", "P29_006": "4", "P29_007": "0", "P29_008": "00", "P29_009": null }, "geometry": { "type": "Point", "coordinates": [ 139.357692269240744, 35.565058986395144 ] } },
{ "type": "Feature", "properties": { "P29_001": "14152", "P29_002": "A214315000306", "P29_003": "16013", "P29_004": "相生こども園", "P29_005": "神奈川県相模原市中央区相生2-17-3", "P29_006": "4", "P29_007": "0", "P29_008": "00", "P29_009": null }, "geometry": { "type": "Point", "coordinates": [ 139.388165079269783, 35.562368063263264 ] } },
{ "type": "Feature", "properties": { "P29_001": "14152", "P29_002": "A214315000315", "P29_003": "16013", "P29_004": "幼保連携型認定こども園ひかりキッズ", "P29_005": "神奈川県相模原市中央区鹿沼台2-12-15", "P29_006": "4", "P29_007": "0", "P29_008": "00", "P29_009": null }, "geometry": { "type": "Point", "coordinates": [ 139.393706877652562, 35.567800928298098 ] } },
{ "type": "Feature", "properties": { "P29_001": "14152", "P29_002": "A214315000324", "P29_003": "16013", "P29_004": "幼保連携型認定こども園ひかりキッズ分園", "P29_005": "神奈川県相模原市中央区鹿沼台1-2-24-1Ｆ", "P29_006": "4", "P29_007": "0", "P29_008": "00", "P29_009": null }, "geometry": { "type": "Point", "coordinates": [ 139.389864228309989, 35.569630762431181 ] } },
{ "type": "Feature", "properties": { "P29_001": "14152", "P29_002": "A214315000333", "P29_003": "16013", "P29_004": "たけのうちこども園", "P29_005": "神奈川県相模原市中央区東淵野辺4-25-3", "P29_006": "4", "P29_007": "0", "P29_008": "00", "P29_009": null }, "geometry": { "type": "Point", "coordinates": [ 139.411069325036948, 35.559707463702651 ] } },
{ "type": "Feature", "properties": { "P29_001": "14153", "P29_002": "A214315000342", "P29_003": "16013", "P29_004": "古淵あおばこども園", "P29_005": "神奈川県相模原市南区古淵1-5-3", "P29_006": "4", "P29_007": "0", "P29_008": "00", "P29_009": null }, "geometry": { "type": "Point", "coordinates": [ 139.41866891787592, 35.556731156380039 ] } },
{ "type": "Feature", "properties": { "P29_001": "14153", "P29_002": "A214315000351", "P29_003": "16013", "P29_004": "古淵あおばこども園分園バンビーノ", "P29_005": "神奈川県相模原市南区古淵2-13-8", "P29_006": "4", "P29_007": "0", "P29_008": "00", "P29_009": null }, "geometry": { "type": "Point", "coordinates": [ 139.417296834165683, 35.555814722245252 ] } },
{ "type": "Feature", "properties": { "P29_001": "14153", "P29_002": "A214315000360", "P29_003": "16013", "P29_004": "たいようこども園", "P29_005": "神奈川県相模原市南区豊町10-5", "P29_006": "4", "P29_007": "0", "P29_008": "00", "P29_009": null }, "geometry": { "type": "Point", "coordinates": [ 139.426821308016287, 35.52728666923803 ] } },
{ "type": "Feature", "properties": { "P29_001": "14153", "P29_002": "A214315000379", "P29_003": "16013", "P29_004": "相武台新日本こども園", "P29_005": "神奈川県相模原市南区相武台団地1-4-3", "P29_006": "4", "P29_007": "0", "P29_008": "00", "P29_009": null }, "geometry": { "type": "Point", "coordinates": [ 139.413305142322486, 35.509491836075611 ] } },
{ "type": "Feature", "properties": { "P29_001": "14151", "P29_002": "A214315000388", "P29_003": "16013", "P29_004": "二本松こども園", "P29_005": "神奈川県相模原市緑区二本松2-30-30", "P29_006": "4", "P29_007": "0", "P29_008": "00", "P29_009": null }, "geometry": { "type": "Point", "coordinates": [ 139.314984977177431, 35.591261073787074 ] } },
{ "type": "Feature", "properties": { "P29_001": "14151", "P29_002": "A214315000397", "P29_003": "16013", "P29_004": "西橋本みたけこども園", "P29_005": "神奈川県相模原市緑区西橋本2-20-12", "P29_006": "4", "P29_007": "0", "P29_008": "00", "P29_009": null }, "geometry": { "type": "Point", "coordinates": [ 139.337183234711546, 35.592937287788551 ] } },
{ "type": "Feature", "properties": { "P29_001": "14152", "P29_002": "A214315000404", "P29_003": "16013", "P29_004": "南橋本みたけこども園", "P29_005": "神奈川県相模原市中央区南橋本3-4-21", "P29_006": "4", "P29_007": "0", "P29_008": "00", "P29_009": null }, "geometry": { "type": "Point", "coordinates": [ 139.350218362748564, 35.580120214041756 ] } },
{ "type": "Feature", "properties": { "P29_001": "14152", "P29_002": "A214315000413", "P29_003": "16013", "P29_004": "小町通みたけこども園", "P29_005": "神奈川県相模原市中央区小町通2-2-14", "P29_006": "4", "P29_007": "0", "P29_008": "00", "P29_009": null }, "geometry": { "type": "Point", "coordinates": [ 139.35753536650148, 35.572494112192295 ] } },
{ "type": "Feature", "properties": { "P29_001": "14153", "P29_002": "A214315000422", "P29_003": "16013", "P29_004": "幼保連携型認定こども園さいわいこども園", "P29_005": "神奈川県相模原市南区相模大野9-15-36", "P29_006": "4", "P29_007": "0", "P29_008": "00", "P29_009": null }, "geometry": { "type": "Point", "coordinates": [ 139.438803012556662, 35.526082231783143 ] } },
{ "type": "Feature", "properties": { "P29_001": "14201", "P29_002": "A214320100010", "P29_003": "16013", "P29_004": "認定こども園追浜幼稚園", "P29_005": "神奈川県横須賀市鷹取1-1-2", "P29_006": "4", "P29_007": "0", "P29_008": "00", "P29_009": null }, "geometry": { "type": "Point", "coordinates": [ 139.623316091643431, 35.316172741358095 ] } },
{ "type": "Feature", "properties": { "P29_001": "14201", "P29_002": "A214320100029", "P29_003": "16013", "P29_004": "しらかばこども園", "P29_005": "神奈川県横須賀市池田町1-22-12", "P29_006": "4", "P29_007": "0", "P29_008": "00", "P29_009": null }, "geometry": { "type": "Point", "coordinates": [ 139.696096080445329, 35.255917067559565 ] } },
{ "type": "Feature", "properties": { "P29_001": "14201", "P29_002": "A214320100038", "P29_003": "16013", "P29_004": "しらかばこども園池田分園", "P29_005": "神奈川県横須賀市池田町1-19-18", "P29_006": "4", "P29_007": "0", "P29_008": "00", "P29_009": null }, "geometry": { "type": "Point", "coordinates": [ 139.694445537357524, 35.255225963683635 ] } },
{ "type": "Feature", "properties": { "P29_001": "14201", "P29_002": "A214320100047", "P29_003": "16013", "P29_004": "しらかばこども園新大津分園", "P29_005": "神奈川県横須賀市大津町4-8-6", "P29_006": "4", "P29_007": "0", "P29_008": "00", "P29_009": null }, "geometry": { "type": "Point", "coordinates": [ 139.690108648120912, 35.257969254095642 ] } },
{ "type": "Feature", "properties": { "P29_001": "14201", "P29_002": "A214320100065", "P29_003": "16013", "P29_004": "太田和こども園分園", "P29_005": "神奈川県横須賀市太田和3-1173-3", "P29_006": "4", "P29_007": "0", "P29_008": "00", "P29_009": null }, "geometry": { "type": "Point", "coordinates": [ 139.638957307414557, 35.227894818868442 ] } },
{ "type": "Feature", "properties": { "P29_001": "14201", "P29_002": "A214320100074", "P29_003": "16013", "P29_004": "幼保連携型認定こども園うわまち幼稚園", "P29_005": "神奈川県横須賀市上町2-10", "P29_006": "4", "P29_007": "0", "P29_008": "00", "P29_009": null }, "geometry": { "type": "Point", "coordinates": [ 139.669793992670378, 35.273954815632074 ] } },
{ "type": "Feature", "properties": { "P29_001": "14201", "P29_002": "A214320100083", "P29_003": "16013", "P29_004": "三和こども園", "P29_005": "神奈川県横須賀市田戸台26", "P29_006": "4", "P29_007": "0", "P29_008": "00", "P29_009": null }, "geometry": { "type": "Point", "coordinates": [ 139.673091424291385, 35.271428559385782 ] } },
{ "type": "Feature", "properties": { "P29_001": "14201", "P29_002": "A214320100118", "P29_003": "16013", "P29_004": "認定こども園善隣園", "P29_005": "神奈川県横須賀市田浦町2-80-1", "P29_006": "4", "P29_007": "0", "P29_008": "00", "P29_009": null }, "geometry": { "type": "Point", "coordinates": [ 139.633686373441549, 35.292193896018212 ] } },
{ "type": "Feature", "properties": { "P29_001": "14201", "P29_002": "A214320100136", "P29_003": "16013", "P29_004": "公郷こども園", "P29_005": "神奈川県横須賀市公郷町6-7-1", "P29_006": "4", "P29_007": "0", "P29_008": "00", "P29_009": null }, "geometry": { "type": "Point", "coordinates": [ 139.674703445237981, 35.260040450004034 ] } },
{ "type": "Feature", "properties": { "P29_001": "14201", "P29_002": "A214320100154", "P29_003": "16013", "P29_004": "認定こども園聖心桜が丘幼稚園", "P29_005": "神奈川県横須賀市桜が丘1-51-1", "P29_006": "4", "P29_007": "0", "P29_008": "00", "P29_009": null }, "geometry": { "type": "Point", "coordinates": [ 139.702435646460174, 35.254098497473727 ] } },
{ "type": "Feature", "properties": { "P29_001": "14201", "P29_002": "A214320100163", "P29_003": "16013", "P29_004": "浦賀こども園", "P29_005": "神奈川県横須賀市浦賀6-3-1", "P29_006": "4", "P29_007": "0", "P29_008": "00", "P29_009": null }, "geometry": { "type": "Point", "coordinates": [ 139.714369026694641, 35.2461930164366 ] } },
{ "type": "Feature", "properties": { "P29_001": "14201", "P29_002": "A214320100172", "P29_003": "16013", "P29_004": "長岡こども園", "P29_005": "神奈川県横須賀市長沢1-25-8", "P29_006": "4", "P29_007": "0", "P29_008": "00", "P29_009": null }, "geometry": { "type": "Point", "coordinates": [ 139.677140055167712, 35.204217549201509 ] } },
{ "type": "Feature", "properties": { "P29_001": "14201", "P29_002": "A214320100181", "P29_003": "16013", "P29_004": "キッズアカデミーぎんのすずこども園", "P29_005": "神奈川県横須賀市追浜町2-70", "P29_006": "4", "P29_007": "0", "P29_008": "00", "P29_009": null }, "geometry": { "type": "Point", "coordinates": [ 139.625481162873967, 35.311649498434328 ] } },
{ "type": "Feature", "properties": { "P29_001": "14201", "P29_002": "A214320100190", "P29_003": "16013", "P29_004": "岩戸こども園", "P29_005": "神奈川県横須賀市岩戸3-37-5", "P29_006": "4", "P29_007": "0", "P29_008": "00", "P29_009": null }, "geometry": { "type": "Point", "coordinates": [ 139.671926504346146, 35.233600330691118 ] } },
{ "type": "Feature", "properties": { "P29_001": "14201", "P29_002": "A214320100207", "P29_003": "16013", "P29_004": "佐野こども園", "P29_005": "神奈川県横須賀市佐野町5-7", "P29_006": "4", "P29_007": "0", "P29_008": "00", "P29_009": null }, "geometry": { "type": "Point", "coordinates": [ 139.669820180136298, 35.260653192189729 ] } },
{ "type": "Feature", "properties": { "P29_001": "14201", "P29_002": "A214320100216", "P29_003": "16013", "P29_004": "長井婦人会こども園", "P29_005": "神奈川県横須賀市長井2-2-3", "P29_006": "4", "P29_007": "0", "P29_008": "00", "P29_009": null }, "geometry": { "type": "Point", "coordinates": [ 139.620151872120715, 35.203724483938686 ] } },
{ "type": "Feature", "properties": { "P29_001": "14201", "P29_002": "A214320100225", "P29_003": "16013", "P29_004": "和順こども園", "P29_005": "神奈川県横須賀市久里浜2-19-14", "P29_006": "4", "P29_007": "0", "P29_008": "00", "P29_009": null }, "geometry": { "type": "Point", "coordinates": [ 139.69727181569877, 35.231249428511568 ] } },
{ "type": "Feature", "properties": { "P29_001": "14201", "P29_002": "A214320100234", "P29_003": "16013", "P29_004": "和順こども園分園", "P29_005": "神奈川県横須賀市久里浜2-18-1", "P29_006": "4", "P29_007": "0", "P29_008": "00", "P29_009": null }, "geometry": { "type": "Point", "coordinates": [ 139.697540094048321, 35.231158949442346 ] } },
{ "type": "Feature", "properties": { "P29_001": "14203", "P29_002": "A214320300018", "P29_003": "16013", "P29_004": "認定美里・柿の実こども園", "P29_005": "神奈川県平塚市下島824", "P29_006": "4", "P29_007": "0", "P29_008": "00", "P29_009": null }, "geometry": { "type": "Point", "coordinates": [ 139.34457669573041, 35.368622474858483 ] } },
{ "type": "Feature", "properties": { "P29_001": "14203", "P29_002": "A214320300027", "P29_003": "16013", "P29_004": "認定こども園大野幼稚園", "P29_005": "神奈川県平塚市東八幡1-16-39", "P29_006": "4", "P29_007": "0", "P29_008": "00", "P29_009": null }, "geometry": { "type": "Point", "coordinates": [ 139.354008745711099, 35.342105008055263 ] } },
{ "type": "Feature", "properties": { "P29_001": "14204", "P29_002": "A214320400017", "P29_003": "16013", "P29_004": "認定こども園アワーキッズ鎌倉　（分園）", "P29_005": "神奈川県鎌倉市寺分1-15-4", "P29_006": "4", "P29_007": "0", "P29_008": "00", "P29_009": null }, "geometry": { "type": "Point", "coordinates": [ 139.521382092114891, 35.334553564768548 ] } },
{ "type": "Feature", "properties": { "P29_001": "14206", "P29_002": "A214320600015", "P29_003": "16013", "P29_004": "認定こども園小田原みどり学園", "P29_005": "神奈川県小田原市中町1-15-11", "P29_006": "4", "P29_007": "0", "P29_008": "00", "P29_009": null }, "geometry": { "type": "Point", "coordinates": [ 139.159812307562447, 35.260893607213006 ] } },
{ "type": "Feature", "properties": { "P29_001": "14207", "P29_002": "A214320700014", "P29_003": "16013", "P29_004": "茅ヶ崎松若こども園", "P29_005": "神奈川県茅ヶ崎市小和田2-12-47", "P29_006": "4", "P29_007": "0", "P29_008": "00", "P29_009": null }, "geometry": { "type": "Point", "coordinates": [ 139.434999976332136, 35.340850640922163 ] } },
{ "type": "Feature", "properties": { "P29_001": "14207", "P29_002": "A214320700023", "P29_003": "16013", "P29_004": "認定こども園平和学園幼稚園", "P29_005": "神奈川県茅ヶ崎市富士見町5-2", "P29_006": "4", "P29_007": "0", "P29_008": "00", "P29_009": null }, "geometry": { "type": "Point", "coordinates": [ 139.432084513191455, 35.326543902223641 ] } },
{ "type": "Feature", "properties": { "P29_001": "14211", "P29_002": "A214321100018", "P29_003": "16013", "P29_004": "幼保連携型認定こども園いまいずみ保育園", "P29_005": "神奈川県秦野市尾尻952-16", "P29_006": "4", "P29_007": "0", "P29_008": "00", "P29_009": null }, "geometry": { "type": "Point", "coordinates": [ 139.225093601690986, 35.366320488164256 ] } },
{ "type": "Feature", "properties": { "P29_001": "14211", "P29_002": "A214321100027", "P29_003": "16013", "P29_004": "幼保連携型認定こども園やまゆりこども園", "P29_005": "神奈川県秦野市沼代新町3-42", "P29_006": "4", "P29_007": "0", "P29_008": "00", "P29_009": null }, "geometry": { "type": "Point", "coordinates": [ 139.17738697554509, 35.375296409738759 ] } },
{ "type": "Feature", "properties": { "P29_001": "14211", "P29_002": "A214321100036", "P29_003": "16013", "P29_004": "サンキッズ南が丘こどもえん", "P29_005": "神奈川県秦野市南が丘2-1", "P29_006": "4", "P29_007": "0", "P29_008": "00", "P29_009": null }, "geometry": { "type": "Point", "coordinates": [ 139.226016205195521, 35.355309313066584 ] } },
{ "type": "Feature", "properties": { "P29_001": "14213", "P29_002": "A214321300016", "P29_003": "16013", "P29_004": "幼保連携型認定こども園高座みどり幼稚園", "P29_005": "神奈川県大和市南林間2-14-8", "P29_006": "4", "P29_007": "0", "P29_008": "00", "P29_009": null }, "geometry": { "type": "Point", "coordinates": [ 139.444787094625269, 35.496369088409253 ] } },
{ "type": "Feature", "properties": { "P29_001": "14214", "P29_002": "A214321400015", "P29_003": "16013", "P29_004": "認定こども園東海大学付属本田記念幼稚園", "P29_005": "神奈川県伊勢原市下糟屋111", "P29_006": "4", "P29_007": "0", "P29_008": "00", "P29_009": null }, "geometry": { "type": "Point", "coordinates": [ 139.313672715615581, 35.406146753326524 ] } },
{ "type": "Feature", "properties": { "P29_001": "14214", "P29_002": "A214321400024", "P29_003": "16013", "P29_004": "幼保連携型認定こども園伊勢原立正幼稚園", "P29_005": "神奈川県伊勢原市沼目6-1209", "P29_006": "4", "P29_007": "0", "P29_008": "00", "P29_009": null }, "geometry": { "type": "Point", "coordinates": [ 139.332233225489176, 35.389568293338442 ] } },
{ "type": "Feature", "properties": { "P29_001": "14214", "P29_002": "A214321400033", "P29_003": "16013", "P29_004": "幼保連携型認定こども園伊勢原山王幼稚園", "P29_005": "神奈川県伊勢原市三ノ宮468", "P29_006": "4", "P29_007": "0", "P29_008": "00", "P29_009": null }, "geometry": { "type": "Point", "coordinates": [ 139.289965038801284, 35.407024135664798 ] } },
{ "type": "Feature", "properties": { "P29_001": "14214", "P29_002": "A214321400042", "P29_003": "16013", "P29_004": "幼保連携型認定こども園伊勢原八雲幼稚園", "P29_005": "神奈川県伊勢原市板戸623", "P29_006": "4", "P29_007": "0", "P29_008": "00", "P29_009": null }, "geometry": { "type": "Point", "coordinates": [ 139.300445086783071, 35.397638765357179 ] } },
{ "type": "Feature", "properties": { "P29_001": "14217", "P29_002": "A214321700012", "P29_003": "16013", "P29_004": "幼保連携型認定こども園華綾幼稚園", "P29_005": "神奈川県南足柄市大雄町1059", "P29_006": "4", "P29_007": "0", "P29_008": "00", "P29_009": null }, "geometry": { "type": "Point", "coordinates": [ 139.097589832371341, 35.31382082946763 ] } },
{ "type": "Feature", "properties": { "P29_001": "14218", "P29_002": "A214321800011", "P29_003": "16013", "P29_004": "幼保連携型認定こども園ピッピことりこども園", "P29_005": "神奈川県綾瀬市吉岡1526", "P29_006": "4", "P29_007": "0", "P29_008": "00", "P29_009": null }, "geometry": { "type": "Point", "coordinates": [ 139.418871613034867, 35.425946281320343 ] } },
{ "type": "Feature", "properties": { "P29_001": "14321", "P29_002": "A214332100015", "P29_003": "16013", "P29_004": "認定こども園湘南こども園", "P29_005": "神奈川県高座郡寒川町大曲1-1-6", "P29_006": "4", "P29_007": "0", "P29_008": "00", "P29_009": null }, "geometry": { "type": "Point", "coordinates": [ 139.393848502713553, 35.361965811422458 ] } },
{ "type": "Feature", "properties": { "P29_001": "14341", "P29_002": "A214334100011", "P29_003": "16013", "P29_004": "幼保連携型認定こども園あおばと", "P29_005": "神奈川県中郡大磯町大磯1121", "P29_006": "4", "P29_007": "0", "P29_008": "00", "P29_009": null }, "geometry": { "type": "Point", "coordinates": [ 139.314331516809318, 35.309090203087315 ] } },
{ "type": "Feature", "properties": { "P29_001": "14341", "P29_002": "A214334100020", "P29_003": "16013", "P29_004": "認定こども園サンキッズ国府", "P29_005": "神奈川県中郡大磯町国府新宿152", "P29_006": "4", "P29_007": "0", "P29_008": "00", "P29_009": null }, "geometry": { "type": "Point", "coordinates": [ 139.273092832697017, 35.303028240170285 ] } },
{ "type": "Feature", "properties": { "P29_001": "14151", "P29_002": "A214215000023", "P29_003": "16013", "P29_004": "ふじのこども園", "P29_005": "神奈川県相模原市緑区吉野1030-12", "P29_006": "3", "P29_007": "0", "P29_008": "00", "P29_009": null }, "geometry": { "type": "Point", "coordinates": [ 139.164184077631774, 35.621315387693869 ] } },
{ "type": "Feature", "properties": { "P29_001": "14201", "P29_002": "A214220100012", "P29_003": "16013", "P29_004": "横須賀市立中央こども園", "P29_005": "神奈川県横須賀市小川町20", "P29_006": "3", "P29_007": "0", "P29_008": "00", "P29_009": null }, "geometry": { "type": "Point", "coordinates": [ 139.673586663621705, 35.281382980675325 ] } },
{ "type": "Feature", "properties": { "P29_001": "14211", "P29_002": "A214221100010", "P29_003": "16013", "P29_004": "みどりこども園", "P29_005": "神奈川県秦野市緑町16-2", "P29_006": "3", "P29_007": "0", "P29_008": "00", "P29_009": null }, "geometry": { "type": "Point", "coordinates": [ 139.210558393664797, 35.373381875625476 ] } },
{ "type": "Feature", "properties": { "P29_001": "14108", "P29_002": "A214310000138", "P29_003": "16013", "P29_004": "関東学院六浦こども園", "P29_005": "神奈川県横浜市金沢区六浦東1-50-1", "P29_006": "4", "P29_007": "0", "P29_008": "00", "P29_009": null }, "geometry": { "type": "Point", "coordinates": [ 139.626948919132417, 35.324766022615471 ] } },
{ "type": "Feature", "properties": { "P29_001": "14110", "P29_002": "A214310000156", "P29_003": "16013", "P29_004": "幼保連携型認定こども園南幼稚園", "P29_005": "神奈川県横浜市戸塚区深谷町456-6", "P29_006": "4", "P29_007": "0", "P29_008": "00", "P29_009": null }, "geometry": { "type": "Point", "coordinates": [ 139.505272134556861, 35.38233210436789 ] } },
{ "type": "Feature", "properties": { "P29_001": "14116", "P29_002": "A214310000325", "P29_003": "16013", "P29_004": "認定こども園ふじづかようちえんふじづかほいくえん", "P29_005": "神奈川県横浜市泉区下飯田町892", "P29_006": "4", "P29_007": "0", "P29_008": "00", "P29_009": null }, "geometry": { "type": "Point", "coordinates": [ 139.482582794670151, 35.401378311090873 ] } },
{ "type": "Feature", "properties": { "P29_001": "14110", "P29_002": "A214310000334", "P29_003": "16013", "P29_004": "あきば幼保連携型認定こども園", "P29_005": "神奈川県横浜市戸塚区秋葉町520-88", "P29_006": "4", "P29_007": "0", "P29_008": "00", "P29_009": null }, "geometry": { "type": "Point", "coordinates": [ 139.541378070367699, 35.418334643841206 ] } },
{ "type": "Feature", "properties": { "P29_001": "14101", "P29_002": "A214310000352", "P29_003": "16013", "P29_004": "幼保連携型認定こども園ＹＭＣＡつるみ保育園", "P29_005": "神奈川県横浜市鶴見区平安町2-28-1ヨコハマアイランドガーデン", "P29_006": "4", "P29_007": "0", "P29_008": "00", "P29_009": null }, "geometry": { "type": "Point", "coordinates": [ 139.69514712192435, 35.508098564331107 ] } },
{ "type": "Feature", "properties": { "P29_001": "14104", "P29_002": "A214310000361", "P29_003": "16013", "P29_004": "うちゅうこども園やまて", "P29_005": "神奈川県横浜市中区千代崎町1-25-23", "P29_006": "4", "P29_007": "0", "P29_008": "00", "P29_009": null }, "geometry": { "type": "Point", "coordinates": [ 139.653382427769998, 35.434955925871584 ] } },
{ "type": "Feature", "properties": { "P29_001": "14116", "P29_002": "A214310000478", "P29_003": "16013", "P29_004": "認定こども園上飯田幼稚園", "P29_005": "神奈川県横浜市泉区上飯田町2106", "P29_006": "4", "P29_007": "0", "P29_008": "00", "P29_009": null }, "geometry": { "type": "Point", "coordinates": [ 139.483221417135525, 35.425896401737845 ] } },
{ "type": "Feature", "properties": { "P29_001": "14112", "P29_002": "A214310000487", "P29_003": "16013", "P29_004": "幼保連携型認定こども園若葉台こども園", "P29_005": "神奈川県横浜市旭区若葉台2-20-1", "P29_006": "4", "P29_007": "0", "P29_008": "00", "P29_009": null }, "geometry": { "type": "Point", "coordinates": [ 139.500069901861423, 35.505086658285109 ] } },
{ "type": "Feature", "properties": { "P29_001": "14112", "P29_002": "A214310000496", "P29_003": "16013", "P29_004": "川井宿幼保連携型認定こども園", "P29_005": "神奈川県横浜市旭区都岡町98-1", "P29_006": "4", "P29_007": "0", "P29_008": "00", "P29_009": null }, "geometry": { "type": "Point", "coordinates": [ 139.521182172542552, 35.49167539951177 ] } },
{ "type": "Feature", "properties": { "P29_001": "14112", "P29_002": "A214310000503", "P29_003": "16013", "P29_004": "認定こども園上の原幼稚園", "P29_005": "神奈川県横浜市旭区小高町56-2", "P29_006": "4", "P29_007": "0", "P29_008": "00", "P29_009": null }, "geometry": { "type": "Point", "coordinates": [ 139.554382467936534, 35.462393019457522 ] } },
{ "type": "Feature", "properties": { "P29_001": "14110", "P29_002": "A214310000512", "P29_003": "16013", "P29_004": "幼保連携型認定こども園ＹＭＣＡ東とつか保育園", "P29_005": "神奈川県横浜市戸塚区上品濃1-15", "P29_006": "4", "P29_007": "0", "P29_008": "00", "P29_009": null }, "geometry": { "type": "Point", "coordinates": [ 139.553298544223537, 35.433600279062716 ] } },
{ "type": "Feature", "properties": { "P29_001": "14117", "P29_002": "A214310000521", "P29_003": "16013", "P29_004": "荏田北幼保連携型認定こども園", "P29_005": "神奈川県横浜市青葉区荏田北3-6-14", "P29_006": "4", "P29_007": "0", "P29_008": "00", "P29_009": null }, "geometry": { "type": "Point", "coordinates": [ 139.548727341523687, 35.560455788216565 ] } },
{ "type": "Feature", "properties": { "P29_001": "14152", "P29_002": "A214315000020", "P29_003": "16013", "P29_004": "誠心こども園", "P29_005": "神奈川県相模原市中央区すすきの町27-38", "P29_006": "4", "P29_007": "0", "P29_008": "00", "P29_009": null }, "geometry": { "type": "Point", "coordinates": [ 139.369512049814205, 35.59004458383906 ] } },
{ "type": "Feature", "properties": { "P29_001": "14153", "P29_002": "A214315000048", "P29_003": "16013", "P29_004": "認定こども園相模女子大学幼稚部", "P29_005": "神奈川県相模原市南区文京2-1-1", "P29_006": "4", "P29_007": "0", "P29_008": "00", "P29_009": null }, "geometry": { "type": "Point", "coordinates": [ 139.429900824650446, 35.535315131377672 ] } },
{ "type": "Feature", "properties": { "P29_001": "14151", "P29_002": "A214315000235", "P29_003": "16013", "P29_004": "幼保連携型認定こども園橋本りんごこども園", "P29_005": "神奈川県相模原市緑区橋本1-12-25", "P29_006": "4", "P29_007": "0", "P29_008": "00", "P29_009": null }, "geometry": { "type": "Point", "coordinates": [ 139.344377644009711, 35.590918053735905 ] } },
{ "type": "Feature", "properties": { "P29_001": "14151", "P29_002": "A214315000271", "P29_003": "16013", "P29_004": "幼保連携型認定こども園むくどり風の森こども園", "P29_005": "神奈川県相模原市緑区大島11-147", "P29_006": "4", "P29_007": "0", "P29_008": "00", "P29_009": null }, "geometry": { "type": "Point", "coordinates": [ 139.314331224741665, 35.586619101288029 ] } },
{ "type": "Feature", "properties": { "P29_001": "14151", "P29_002": "A214315000280", "P29_003": "16013", "P29_004": "幼保連携型認定こども園むくどり風の森こども園分園", "P29_005": "神奈川県相模原市緑区上九沢4市営上九沢団地Ｉ棟1Ｆ", "P29_006": "4", "P29_007": "0", "P29_008": "00", "P29_009": null }, "geometry": { "type": "Point", "coordinates": [ 139.336785154224287, 35.579836395945861 ] } },
{ "type": "Feature", "properties": { "P29_001": "14151", "P29_002": "A214315000431", "P29_003": "16013", "P29_004": "幼保連携型認定こども園大沢幼稚園", "P29_005": "神奈川県相模原市緑区上九沢267", "P29_006": "4", "P29_007": "0", "P29_008": "00", "P29_009": null }, "geometry": { "type": "Point", "coordinates": [ 139.328864461404464, 35.578971519870251 ] } },
{ "type": "Feature", "properties": { "P29_001": "14153", "P29_002": "A214315000440", "P29_003": "16013", "P29_004": "幼保連携型認定こども園若松こども園", "P29_005": "神奈川県相模原市南区若松2-3-7", "P29_006": "4", "P29_007": "0", "P29_008": "00", "P29_009": null }, "geometry": { "type": "Point", "coordinates": [ 139.428367895672295, 35.542174024905329 ] } },
{ "type": "Feature", "properties": { "P29_001": "14151", "P29_002": "A214315000469", "P29_003": "16013", "P29_004": "幼保連携型認定こども園橋本幼稚園", "P29_005": "神奈川県相模原市緑区橋本6-14-1", "P29_006": "4", "P29_007": "0", "P29_008": "00", "P29_009": null }, "geometry": { "type": "Point", "coordinates": [ 139.344443814553983, 35.598061098889282 ] } },
{ "type": "Feature", "properties": { "P29_001": "14151", "P29_002": "A214315000478", "P29_003": "16013", "P29_004": "幼保連携型認定こども園太陽の子幼稚園", "P29_005": "神奈川県相模原市緑区原宿南3-6-10", "P29_006": "4", "P29_007": "0", "P29_008": "00", "P29_009": null }, "geometry": { "type": "Point", "coordinates": [ 139.311919125608654, 35.593331873565006 ] } },
{ "type": "Feature", "properties": { "P29_001": "14152", "P29_002": "A214315000487", "P29_003": "16013", "P29_004": "幼保連携型認定こども園ＹＭＣＡオベリン保育園", "P29_005": "神奈川県相模原市中央区淵野辺3-5-41　桜美林大学国際寮2Ｆ", "P29_006": "4", "P29_007": "0", "P29_008": "00", "P29_009": null }, "geometry": { "type": "Point", "coordinates": [ 139.392397857123854, 35.570254719494763 ] } },
{ "type": "Feature", "properties": { "P29_001": "14153", "P29_002": "A214315000496", "P29_003": "16013", "P29_004": "あらいそのこども園", "P29_005": "神奈川県相模原市南区新磯野3-22-15", "P29_006": "4", "P29_007": "0", "P29_008": "00", "P29_009": null }, "geometry": { "type": "Point", "coordinates": [ 139.404357281665312, 35.505019959284482 ] } },
{ "type": "Feature", "properties": { "P29_001": "14201", "P29_002": "A214320100056", "P29_003": "16013", "P29_004": "太田和こども園", "P29_005": "神奈川県横須賀市太田和3-733", "P29_006": "4", "P29_007": "0", "P29_008": "00", "P29_009": null }, "geometry": { "type": "Point", "coordinates": [ 139.640313900227284, 35.228423076548459 ] } },
{ "type": "Feature", "properties": { "P29_001": "14201", "P29_002": "A214320100092", "P29_003": "16013", "P29_004": "三和こども園安浦分園", "P29_005": "神奈川県横須賀市安浦町2-27ＩＤビル1Ｆ", "P29_006": "4", "P29_007": "0", "P29_008": "00", "P29_009": null }, "geometry": { "type": "Point", "coordinates": [ 139.677010012122196, 35.270421207622647 ] } },
{ "type": "Feature", "properties": { "P29_001": "14201", "P29_002": "A214320100109", "P29_003": "16013", "P29_004": "三和こども園上町分園", "P29_005": "神奈川県横須賀市上町2-31", "P29_006": "4", "P29_007": "0", "P29_008": "00", "P29_009": null }, "geometry": { "type": "Point", "coordinates": [ 139.668120923314234, 35.272615469477778 ] } },
{ "type": "Feature", "properties": { "P29_001": "14201", "P29_002": "A214320100127", "P29_003": "16013", "P29_004": "認定こども園善隣園分園こばと園", "P29_005": "神奈川県横須賀市東逸見町1-1-4-208", "P29_006": "4", "P29_007": "0", "P29_008": "00", "P29_009": null }, "geometry": { "type": "Point", "coordinates": [ 139.653178326155057, 35.283999357923875 ] } },
{ "type": "Feature", "properties": { "P29_001": "14201", "P29_002": "A214320100145", "P29_003": "16013", "P29_004": "認定こども園聖佳幼稚園", "P29_005": "神奈川県横須賀市坂本町1-29", "P29_006": "4", "P29_007": "0", "P29_008": "00", "P29_009": null }, "geometry": { "type": "Point", "coordinates": [ 139.659046762298146, 35.273025609279529 ] } },
{ "type": "Feature", "properties": { "P29_001": "14201", "P29_002": "A214320100243", "P29_003": "16013", "P29_004": "認定こども園ぎんなん幼稚園", "P29_005": "神奈川県横須賀市大津町3-29-41-1", "P29_006": "4", "P29_007": "0", "P29_008": "00", "P29_009": null }, "geometry": { "type": "Point", "coordinates": [ 139.6943896576756, 35.257144847554137 ] } },
{ "type": "Feature", "properties": { "P29_001": "14201", "P29_002": "A214320100252", "P29_003": "16013", "P29_004": "長井こども園", "P29_005": "神奈川県横須賀市長井5-9-5", "P29_006": "4", "P29_007": "0", "P29_008": "00", "P29_009": null }, "geometry": { "type": "Point", "coordinates": [ 139.6114848792798, 35.204605308583005 ] } },
{ "type": "Feature", "properties": { "P29_001": "14204", "P29_002": "A214320400026", "P29_003": "16013", "P29_004": "認定こども園鎌倉みどりこども園", "P29_005": "神奈川県鎌倉市植木210-1", "P29_006": "4", "P29_007": "0", "P29_008": "00", "P29_009": null }, "geometry": { "type": "Point", "coordinates": [ 139.515710505003142, 35.352231948690267 ] } },
{ "type": "Feature", "properties": { "P29_001": "14204", "P29_002": "A214320400035", "P29_003": "16013", "P29_004": "認定こども園アワーキッズ鎌倉　(本園)", "P29_005": "神奈川県鎌倉市寺分1-13-5", "P29_006": "4", "P29_007": "0", "P29_008": "00", "P29_009": null }, "geometry": { "type": "Point", "coordinates": [ 139.521389548995415, 35.334618249333943 ] } },
{ "type": "Feature", "properties": { "P29_001": "14214", "P29_002": "A214321400051", "P29_003": "16013", "P29_004": "伊勢原ひかり幼稚園", "P29_005": "神奈川県伊勢原市東大竹1377", "P29_006": "4", "P29_007": "0", "P29_008": "00", "P29_009": null }, "geometry": { "type": "Point", "coordinates": [ 139.307901335406797, 35.388382479956533 ] } },
{ "type": "Feature", "properties": { "P29_001": "14215", "P29_002": "A214321500014", "P29_003": "16013", "P29_004": "にっしん幼稚園", "P29_005": "神奈川県海老名市柏ケ谷263", "P29_006": "4", "P29_007": "0", "P29_008": "00", "P29_009": null }, "geometry": { "type": "Point", "coordinates": [ 139.409651594263437, 35.457684989480214 ] } },
{ "type": "Feature", "properties": { "P29_001": "14321", "P29_002": "A214332100024", "P29_003": "16013", "P29_004": "幼保連携型認定こども園寒川さくら幼稚園", "P29_005": "神奈川県高座郡寒川町岡田4-20-35", "P29_006": "4", "P29_007": "0", "P29_008": "00", "P29_009": null }, "geometry": { "type": "Point", "coordinates": [ 139.397004225752653, 35.373001806200499 ] } },
{ "type": "Feature", "properties": { "P29_001": "14401", "P29_002": "A214340100018", "P29_003": "16013", "P29_004": "幼保連携型認定こども園中津幼稚園", "P29_005": "神奈川県愛甲郡愛川町中津2217", "P29_006": "4", "P29_007": "0", "P29_008": "00", "P29_009": null }, "geometry": { "type": "Point", "coordinates": [ 139.344241636648064, 35.52587782206453 ] } }
]
}
