{
"type": "FeatureCollection",
"name": "geo_14_高校",
"crs": { "type": "name", "properties": { "name": "urn:ogc:def:crs:EPSG::6668" } },
"features": [
{ "type": "Feature", "properties": { "P29_001": "14117", "P29_002": "D113320900045", "P29_003": "16004", "P29_004": "玉川学園高等部", "P29_005": "東京都町田市玉川学園6-1-1", "P29_006": "4", "P29_007": "0", "P29_008": "00", "P29_009": null }, "geometry": { "type": "Point", "coordinates": [ 139.470355025229367, 35.569138402250665 ] } },
{ "type": "Feature", "properties": { "P29_001": "14101", "P29_002": "D114210010017", "P29_003": "16004", "P29_004": "神奈川県立鶴見高等学校", "P29_005": "神奈川県横浜市鶴見区下末吉6-2-1", "P29_006": "2", "P29_007": "0", "P29_008": "00", "P29_009": null }, "geometry": { "type": "Point", "coordinates": [ 139.663087308506078, 35.518887183506038 ] } },
{ "type": "Feature", "properties": { "P29_001": "14101", "P29_002": "D114210010026", "P29_003": "16004", "P29_004": "神奈川県立鶴見総合高等学校", "P29_005": "神奈川県横浜市鶴見区平安町2-28-8", "P29_006": "2", "P29_007": "0", "P29_008": "00", "P29_009": null }, "geometry": { "type": "Point", "coordinates": [ 139.693355963546111, 35.508564030551319 ] } },
{ "type": "Feature", "properties": { "P29_001": "14102", "P29_002": "D114210010035", "P29_003": "16004", "P29_004": "神奈川県立神奈川工業高等学校", "P29_005": "神奈川県横浜市神奈川区平川町19-1", "P29_006": "2", "P29_007": "0", "P29_008": "00", "P29_009": null }, "geometry": { "type": "Point", "coordinates": [ 139.629679064695722, 35.481346180903415 ] } },
{ "type": "Feature", "properties": { "P29_001": "14102", "P29_002": "D114210010044", "P29_003": "16004", "P29_004": "神奈川県立神奈川総合高等学校", "P29_005": "神奈川県横浜市神奈川区平川町19-2", "P29_006": "2", "P29_007": "0", "P29_008": "00", "P29_009": null }, "geometry": { "type": "Point", "coordinates": [ 139.628648392622551, 35.481092749657471 ] } },
{ "type": "Feature", "properties": { "P29_001": "14102", "P29_002": "D114210010053", "P29_003": "16004", "P29_004": "神奈川県立横浜翠嵐高等学校", "P29_005": "神奈川県横浜市神奈川区三ツ沢南町1-1", "P29_006": "2", "P29_007": "0", "P29_008": "00", "P29_009": null }, "geometry": { "type": "Point", "coordinates": [ 139.609816771442382, 35.472550903111454 ] } },
{ "type": "Feature", "properties": { "P29_001": "14102", "P29_002": "D114210010062", "P29_003": "16004", "P29_004": "神奈川県立城郷高等学校", "P29_005": "神奈川県横浜市神奈川区三枚町364-1", "P29_006": "2", "P29_007": "0", "P29_008": "00", "P29_009": null }, "geometry": { "type": "Point", "coordinates": [ 139.60077834744547, 35.490402793925313 ] } },
{ "type": "Feature", "properties": { "P29_001": "14103", "P29_002": "D114210010071", "P29_003": "16004", "P29_004": "神奈川県立横浜平沼高等学校", "P29_005": "神奈川県横浜市西区岡野1-5-8", "P29_006": "2", "P29_007": "0", "P29_008": "00", "P29_009": null }, "geometry": { "type": "Point", "coordinates": [ 139.61467825244705, 35.461324491558322 ] } },
{ "type": "Feature", "properties": { "P29_001": "14104", "P29_002": "D114210010080", "P29_003": "16004", "P29_004": "神奈川県立横浜緑ケ丘高等学校", "P29_005": "神奈川県横浜市中区本牧緑ケ丘37", "P29_006": "2", "P29_007": "0", "P29_008": "00", "P29_009": null }, "geometry": { "type": "Point", "coordinates": [ 139.652640387116236, 35.424604718911937 ] } },
{ "type": "Feature", "properties": { "P29_001": "14104", "P29_002": "D114210010099", "P29_003": "16004", "P29_004": "神奈川県立横浜立野高等学校", "P29_005": "神奈川県横浜市中区本牧間門40-1", "P29_006": "2", "P29_007": "0", "P29_008": "00", "P29_009": null }, "geometry": { "type": "Point", "coordinates": [ 139.653860896145204, 35.418282996575236 ] } },
{ "type": "Feature", "properties": { "P29_001": "14105", "P29_002": "D114210010106", "P29_003": "16004", "P29_004": "神奈川県立横浜清陵高等学校", "P29_005": "神奈川県横浜市南区清水ケ丘41", "P29_006": "2", "P29_007": "0", "P29_008": "00", "P29_009": null }, "geometry": { "type": "Point", "coordinates": [ 139.610047982681664, 35.437855343017965 ] } },
{ "type": "Feature", "properties": { "P29_001": "14105", "P29_002": "D114210010115", "P29_003": "16004", "P29_004": "神奈川県立横浜国際高等学校", "P29_005": "神奈川県横浜市南区六ツ川1-731", "P29_006": "2", "P29_007": "0", "P29_008": "00", "P29_009": null }, "geometry": { "type": "Point", "coordinates": [ 139.585914484336456, 35.427188300848194 ] } },
{ "type": "Feature", "properties": { "P29_001": "14111", "P29_002": "D114210010124", "P29_003": "16004", "P29_004": "神奈川県立横浜南陵高等学校", "P29_005": "神奈川県横浜市港南区日野中央2-26-1", "P29_006": "2", "P29_007": "0", "P29_008": "00", "P29_009": null }, "geometry": { "type": "Point", "coordinates": [ 139.585481471815427, 35.386194044545299 ] } },
{ "type": "Feature", "properties": { "P29_001": "14106", "P29_002": "D114210010151", "P29_003": "16004", "P29_004": "神奈川県立光陵高等学校", "P29_005": "神奈川県横浜市保土ケ谷区権太坂1-7-1", "P29_006": "2", "P29_007": "0", "P29_008": "00", "P29_009": null }, "geometry": { "type": "Point", "coordinates": [ 139.574819667255582, 35.443419852082961 ] } },
{ "type": "Feature", "properties": { "P29_001": "14106", "P29_002": "D114210010179", "P29_003": "16004", "P29_004": "神奈川県立保土ケ谷高等学校", "P29_005": "神奈川県横浜市保土ケ谷区川島町1557", "P29_006": "2", "P29_007": "0", "P29_008": "00", "P29_009": null }, "geometry": { "type": "Point", "coordinates": [ 139.563093021926193, 35.465749150735391 ] } },
{ "type": "Feature", "properties": { "P29_001": "14112", "P29_002": "D114210010188", "P29_003": "16004", "P29_004": "神奈川県立希望ケ丘高等学校", "P29_005": "神奈川県横浜市旭区南希望が丘79-1", "P29_006": "2", "P29_007": "0", "P29_008": "00", "P29_009": null }, "geometry": { "type": "Point", "coordinates": [ 139.511411752370293, 35.455983240597114 ] } },
{ "type": "Feature", "properties": { "P29_001": "14112", "P29_002": "D114210010197", "P29_003": "16004", "P29_004": "神奈川県立二俣川看護福祉高等学校", "P29_005": "神奈川県横浜市旭区中尾1-5-1", "P29_006": "2", "P29_007": "0", "P29_008": "00", "P29_009": null }, "geometry": { "type": "Point", "coordinates": [ 139.521915167066396, 35.467591178538733 ] } },
{ "type": "Feature", "properties": { "P29_001": "14112", "P29_002": "D114210010204", "P29_003": "16004", "P29_004": "神奈川県立旭高等学校", "P29_005": "神奈川県横浜市旭区下川井町2247", "P29_006": "2", "P29_007": "0", "P29_008": "00", "P29_009": null }, "geometry": { "type": "Point", "coordinates": [ 139.511401573799219, 35.487336802304718 ] } },
{ "type": "Feature", "properties": { "P29_001": "14112", "P29_002": "D114210010213", "P29_003": "16004", "P29_004": "神奈川県立横浜旭陵高等学校", "P29_005": "神奈川県横浜市旭区上白根町1161-7", "P29_006": "2", "P29_007": "0", "P29_008": "00", "P29_009": null }, "geometry": { "type": "Point", "coordinates": [ 139.526968554514042, 35.491465950952275 ] } },
{ "type": "Feature", "properties": { "P29_001": "14107", "P29_002": "D114210010231", "P29_003": "16004", "P29_004": "神奈川県立横浜氷取沢高等学校", "P29_005": "神奈川県横浜市磯子区氷取沢町938-2", "P29_006": "2", "P29_007": "0", "P29_008": "00", "P29_009": null }, "geometry": { "type": "Point", "coordinates": [ 139.61138441310618, 35.363172912390795 ] } },
{ "type": "Feature", "properties": { "P29_001": "14108", "P29_002": "D114210010240", "P29_003": "16004", "P29_004": "神奈川県立金沢総合高等学校", "P29_005": "神奈川県横浜市金沢区富岡東6-34-1", "P29_006": "2", "P29_007": "0", "P29_008": "00", "P29_009": null }, "geometry": { "type": "Point", "coordinates": [ 139.634961072964984, 35.366245895720652 ] } },
{ "type": "Feature", "properties": { "P29_001": "14109", "P29_002": "D114210010268", "P29_003": "16004", "P29_004": "神奈川県立港北高等学校", "P29_005": "神奈川県横浜市港北区大倉山7-35-1", "P29_006": "2", "P29_007": "0", "P29_008": "00", "P29_009": null }, "geometry": { "type": "Point", "coordinates": [ 139.61754455468764, 35.524277306613797 ] } },
{ "type": "Feature", "properties": { "P29_001": "14109", "P29_002": "D114210010277", "P29_003": "16004", "P29_004": "神奈川県立新羽高等学校", "P29_005": "神奈川県横浜市港北区新羽町1348", "P29_006": "2", "P29_007": "0", "P29_008": "00", "P29_009": null }, "geometry": { "type": "Point", "coordinates": [ 139.605144064149442, 35.520175278082377 ] } },
{ "type": "Feature", "properties": { "P29_001": "14109", "P29_002": "D114210010286", "P29_003": "16004", "P29_004": "神奈川県立岸根高等学校", "P29_005": "神奈川県横浜市港北区岸根町370", "P29_006": "2", "P29_007": "0", "P29_008": "00", "P29_009": null }, "geometry": { "type": "Point", "coordinates": [ 139.613463618819367, 35.500854361144327 ] } },
{ "type": "Feature", "properties": { "P29_001": "14113", "P29_002": "D114210010295", "P29_003": "16004", "P29_004": "神奈川県立霧が丘高等学校", "P29_005": "神奈川県横浜市緑区霧が丘6-16-1", "P29_006": "2", "P29_007": "0", "P29_008": "00", "P29_009": null }, "geometry": { "type": "Point", "coordinates": [ 139.502331227927158, 35.509975753482898 ] } },
{ "type": "Feature", "properties": { "P29_001": "14113", "P29_002": "D114210010302", "P29_003": "16004", "P29_004": "神奈川県立白山高等学校", "P29_005": "神奈川県横浜市緑区白山4-71-1", "P29_006": "2", "P29_007": "0", "P29_008": "00", "P29_009": null }, "geometry": { "type": "Point", "coordinates": [ 139.551318959714195, 35.498329791868166 ] } },
{ "type": "Feature", "properties": { "P29_001": "14117", "P29_002": "D114210010311", "P29_003": "16004", "P29_004": "神奈川県立市ケ尾高等学校", "P29_005": "神奈川県横浜市青葉区市ケ尾町1854", "P29_006": "2", "P29_007": "0", "P29_008": "00", "P29_009": null }, "geometry": { "type": "Point", "coordinates": [ 139.530404991982323, 35.556755624517578 ] } },
{ "type": "Feature", "properties": { "P29_001": "14117", "P29_002": "D114210010320", "P29_003": "16004", "P29_004": "神奈川県立田奈高等学校", "P29_005": "神奈川県横浜市青葉区桂台2-39-2", "P29_006": "2", "P29_007": "0", "P29_008": "00", "P29_009": null }, "geometry": { "type": "Point", "coordinates": [ 139.497920686449305, 35.552306574040827 ] } },
{ "type": "Feature", "properties": { "P29_001": "14117", "P29_002": "D114210010339", "P29_003": "16004", "P29_004": "神奈川県立元石川高等学校", "P29_005": "神奈川県横浜市青葉区元石川町4116", "P29_006": "2", "P29_007": "0", "P29_008": "00", "P29_009": null }, "geometry": { "type": "Point", "coordinates": [ 139.540618549893168, 35.577818565657651 ] } },
{ "type": "Feature", "properties": { "P29_001": "14118", "P29_002": "D114210010357", "P29_003": "16004", "P29_004": "神奈川県立荏田高等学校", "P29_005": "神奈川県横浜市都筑区荏田南3-9-1", "P29_006": "2", "P29_007": "0", "P29_008": "00", "P29_009": null }, "geometry": { "type": "Point", "coordinates": [ 139.555152058125827, 35.549200958941022 ] } },
{ "type": "Feature", "properties": { "P29_001": "14118", "P29_002": "D114210010366", "P29_003": "16004", "P29_004": "神奈川県立新栄高等学校", "P29_005": "神奈川県横浜市都筑区新栄町1-1", "P29_006": "2", "P29_007": "0", "P29_008": "00", "P29_009": null }, "geometry": { "type": "Point", "coordinates": [ 139.595163192426696, 35.53660471761097 ] } },
{ "type": "Feature", "properties": { "P29_001": "14110", "P29_002": "D114210010384", "P29_003": "16004", "P29_004": "神奈川県立横浜桜陽高等学校", "P29_005": "神奈川県横浜市戸塚区汲沢町973", "P29_006": "2", "P29_007": "0", "P29_008": "00", "P29_009": null }, "geometry": { "type": "Point", "coordinates": [ 139.517140093308825, 35.390909971862762 ] } },
{ "type": "Feature", "properties": { "P29_001": "14110", "P29_002": "D114210010393", "P29_003": "16004", "P29_004": "神奈川県立上矢部高等学校", "P29_005": "神奈川県横浜市戸塚区上矢部町3230", "P29_006": "2", "P29_007": "0", "P29_008": "00", "P29_009": null }, "geometry": { "type": "Point", "coordinates": [ 139.528309415897525, 35.4138307979781 ] } },
{ "type": "Feature", "properties": { "P29_001": "14115", "P29_002": "D114210010400", "P29_003": "16004", "P29_004": "神奈川県立柏陽高等学校", "P29_005": "神奈川県横浜市栄区柏陽1-1", "P29_006": "2", "P29_007": "0", "P29_008": "00", "P29_009": null }, "geometry": { "type": "Point", "coordinates": [ 139.553419343230388, 35.365986437844107 ] } },
{ "type": "Feature", "properties": { "P29_001": "14115", "P29_002": "D114210010419", "P29_003": "16004", "P29_004": "神奈川県立金井高等学校", "P29_005": "神奈川県横浜市栄区金井町100", "P29_006": "2", "P29_007": "0", "P29_008": "00", "P29_009": null }, "geometry": { "type": "Point", "coordinates": [ 139.523882280633302, 35.374108423936192 ] } },
{ "type": "Feature", "properties": { "P29_001": "14115", "P29_002": "D114210010428", "P29_003": "16004", "P29_004": "神奈川県立横浜栄高等学校", "P29_005": "神奈川県横浜市栄区上郷町555", "P29_006": "2", "P29_007": "0", "P29_008": "00", "P29_009": null }, "geometry": { "type": "Point", "coordinates": [ 139.580710878365181, 35.365475526914729 ] } },
{ "type": "Feature", "properties": { "P29_001": "14116", "P29_002": "D114210010437", "P29_003": "16004", "P29_004": "神奈川県立松陽高等学校", "P29_005": "神奈川県横浜市泉区和泉町7713", "P29_006": "2", "P29_007": "0", "P29_008": "00", "P29_009": null }, "geometry": { "type": "Point", "coordinates": [ 139.494121603506443, 35.437498523645473 ] } },
{ "type": "Feature", "properties": { "P29_001": "14116", "P29_002": "D114210010446", "P29_003": "16004", "P29_004": "神奈川県立横浜緑園高等学校", "P29_005": "神奈川県横浜市泉区岡津町2667", "P29_006": "2", "P29_007": "0", "P29_008": "00", "P29_009": null }, "geometry": { "type": "Point", "coordinates": [ 139.524121331366274, 35.432372709199555 ] } },
{ "type": "Feature", "properties": { "P29_001": "14116", "P29_002": "D114210010455", "P29_003": "16004", "P29_004": "神奈川県立横浜修悠館高等学校", "P29_005": "神奈川県横浜市泉区和泉町2563", "P29_006": "2", "P29_007": "0", "P29_008": "00", "P29_009": null }, "geometry": { "type": "Point", "coordinates": [ 139.489809727966502, 35.408688084541829 ] } },
{ "type": "Feature", "properties": { "P29_001": "14110", "P29_002": "D114210020015", "P29_003": "16004", "P29_004": "横浜市立戸塚高等学校", "P29_005": "神奈川県横浜市戸塚区汲沢2-27-1", "P29_006": "3", "P29_007": "0", "P29_008": "00", "P29_009": null }, "geometry": { "type": "Point", "coordinates": [ 139.516517423240202, 35.399525810556973 ] } },
{ "type": "Feature", "properties": { "P29_001": "14106", "P29_002": "D114210020024", "P29_003": "16004", "P29_004": "横浜市立桜丘高等学校", "P29_005": "神奈川県横浜市保土ケ谷区桜ケ丘2-15-1", "P29_006": "3", "P29_007": "0", "P29_008": "00", "P29_009": null }, "geometry": { "type": "Point", "coordinates": [ 139.585759616496006, 35.451993009302008 ] } },
{ "type": "Feature", "properties": { "P29_001": "14111", "P29_002": "D114210020042", "P29_003": "16004", "P29_004": "横浜市立南高等学校", "P29_005": "神奈川県横浜市港南区東永谷2-1-1", "P29_006": "3", "P29_007": "0", "P29_008": "00", "P29_009": null }, "geometry": { "type": "Point", "coordinates": [ 139.580529848951869, 35.405658401603596 ] } },
{ "type": "Feature", "properties": { "P29_001": "14105", "P29_002": "D114210020060", "P29_003": "16004", "P29_004": "横浜市立横浜商業高等学校", "P29_005": "神奈川県横浜市南区南太田2-30-1", "P29_006": "3", "P29_007": "0", "P29_008": "01", "P29_009": null }, "geometry": { "type": "Point", "coordinates": [ 139.610203693339031, 35.434749838548647 ] } },
{ "type": "Feature", "properties": { "P29_001": "14104", "P29_002": "D114210020079", "P29_003": "16004", "P29_004": "横浜市立みなと総合高等学校", "P29_005": "神奈川県横浜市中区山下町231", "P29_006": "3", "P29_007": "0", "P29_008": "00", "P29_009": null }, "geometry": { "type": "Point", "coordinates": [ 139.642364615142554, 35.441968905038891 ] } },
{ "type": "Feature", "properties": { "P29_001": "14101", "P29_002": "D114210020088", "P29_003": "16004", "P29_004": "横浜市立横浜サイエンスフロンティア高等学校", "P29_005": "神奈川県横浜市鶴見区小野町6", "P29_006": "3", "P29_007": "0", "P29_008": "00", "P29_009": null }, "geometry": { "type": "Point", "coordinates": [ 139.678370213629535, 35.498266983901154 ] } },
{ "type": "Feature", "properties": { "P29_001": "14105", "P29_002": "D114210020097", "P29_003": "16004", "P29_004": "横浜市立横浜総合高等学校", "P29_005": "神奈川県横浜市南区大岡2-29-1", "P29_006": "3", "P29_007": "0", "P29_008": "00", "P29_009": null }, "geometry": { "type": "Point", "coordinates": [ 139.603166315508304, 35.421077044110199 ] } },
{ "type": "Feature", "properties": { "P29_001": "14131", "P29_002": "D114213010011", "P29_003": "16004", "P29_004": "神奈川県立川崎高等学校", "P29_005": "神奈川県川崎市川崎区渡田山王町22-6", "P29_006": "2", "P29_007": "0", "P29_008": "00", "P29_009": null }, "geometry": { "type": "Point", "coordinates": [ 139.697136355508349, 35.517270172844619 ] } },
{ "type": "Feature", "properties": { "P29_001": "14131", "P29_002": "D114213010020", "P29_003": "16004", "P29_004": "神奈川県立大師高等学校", "P29_005": "神奈川県川崎市川崎区四谷下町25-1", "P29_006": "2", "P29_007": "0", "P29_008": "00", "P29_009": null }, "geometry": { "type": "Point", "coordinates": [ 139.73634295145493, 35.524624780767788 ] } },
{ "type": "Feature", "properties": { "P29_001": "14133", "P29_002": "D114213010048", "P29_003": "16004", "P29_004": "神奈川県立新城高等学校", "P29_005": "神奈川県川崎市中原区下新城1-14-1", "P29_006": "2", "P29_007": "0", "P29_008": "00", "P29_009": null }, "geometry": { "type": "Point", "coordinates": [ 139.632197308618714, 35.580675978763281 ] } },
{ "type": "Feature", "properties": { "P29_001": "14133", "P29_002": "D114213010057", "P29_003": "16004", "P29_004": "神奈川県立住吉高等学校", "P29_005": "神奈川県川崎市中原区木月住吉町34-1", "P29_006": "2", "P29_007": "0", "P29_008": "00", "P29_009": null }, "geometry": { "type": "Point", "coordinates": [ 139.659510963675785, 35.566943709150969 ] } },
{ "type": "Feature", "properties": { "P29_001": "14136", "P29_002": "D114213010066", "P29_003": "16004", "P29_004": "神奈川県立川崎北高等学校", "P29_005": "神奈川県川崎市宮前区有馬3-22-1", "P29_006": "2", "P29_007": "0", "P29_008": "00", "P29_009": null }, "geometry": { "type": "Point", "coordinates": [ 139.586380836135476, 35.573939497060856 ] } },
{ "type": "Feature", "properties": { "P29_001": "14135", "P29_002": "D114213010075", "P29_003": "16004", "P29_004": "神奈川県立多摩高等学校", "P29_005": "神奈川県川崎市多摩区宿河原5-14-1", "P29_006": "2", "P29_007": "0", "P29_008": "00", "P29_009": null }, "geometry": { "type": "Point", "coordinates": [ 139.585097215919745, 35.617131903771863 ] } },
{ "type": "Feature", "properties": { "P29_001": "14135", "P29_002": "D114213010084", "P29_003": "16004", "P29_004": "神奈川県立向の岡工業高等学校", "P29_005": "神奈川県川崎市多摩区堰1-28-1", "P29_006": "2", "P29_007": "0", "P29_008": "00", "P29_009": null }, "geometry": { "type": "Point", "coordinates": [ 139.596859328133178, 35.615235001787369 ] } },
{ "type": "Feature", "properties": { "P29_001": "14135", "P29_002": "D114213010093", "P29_003": "16004", "P29_004": "神奈川県立生田高等学校", "P29_005": "神奈川県川崎市多摩区長沢3-17-1", "P29_006": "2", "P29_007": "0", "P29_008": "00", "P29_009": null }, "geometry": { "type": "Point", "coordinates": [ 139.540552088280407, 35.598924462801094 ] } },
{ "type": "Feature", "properties": { "P29_001": "14135", "P29_002": "D114213010100", "P29_003": "16004", "P29_004": "神奈川県立百合丘高等学校", "P29_005": "神奈川県川崎市多摩区南生田4-2-1", "P29_006": "2", "P29_007": "0", "P29_008": "00", "P29_009": null }, "geometry": { "type": "Point", "coordinates": [ 139.534605902728998, 35.60094189847409 ] } },
{ "type": "Feature", "properties": { "P29_001": "14135", "P29_002": "D114213010119", "P29_003": "16004", "P29_004": "神奈川県立生田東高等学校", "P29_005": "神奈川県川崎市多摩区生田4-32-1", "P29_006": "2", "P29_007": "0", "P29_008": "00", "P29_009": null }, "geometry": { "type": "Point", "coordinates": [ 139.546571147804514, 35.618725582813084 ] } },
{ "type": "Feature", "properties": { "P29_001": "14135", "P29_002": "D114213010128", "P29_003": "16004", "P29_004": "神奈川県立菅高等学校", "P29_005": "神奈川県川崎市多摩区菅馬場4-2-1", "P29_006": "2", "P29_007": "0", "P29_008": "00", "P29_009": null }, "geometry": { "type": "Point", "coordinates": [ 139.52804591938883, 35.622600321977728 ] } },
{ "type": "Feature", "properties": { "P29_001": "14137", "P29_002": "D114213010137", "P29_003": "16004", "P29_004": "神奈川県立麻生総合高等学校", "P29_005": "神奈川県川崎市麻生区片平1778", "P29_006": "2", "P29_007": "0", "P29_008": "00", "P29_009": null }, "geometry": { "type": "Point", "coordinates": [ 139.483007580893911, 35.59567727221458 ] } },
{ "type": "Feature", "properties": { "P29_001": "14137", "P29_002": "D114213010146", "P29_003": "16004", "P29_004": "神奈川県立麻生高等学校", "P29_005": "神奈川県川崎市麻生区金程3-4-1", "P29_006": "2", "P29_007": "0", "P29_008": "00", "P29_009": null }, "geometry": { "type": "Point", "coordinates": [ 139.49820437870676, 35.612048162339271 ] } },
{ "type": "Feature", "properties": { "P29_001": "14131", "P29_002": "D114213020019", "P29_003": "16004", "P29_004": "川崎市立川崎高等学校", "P29_005": "神奈川県川崎市川崎区中島3-3-1", "P29_006": "3", "P29_007": "0", "P29_008": "00", "P29_009": null }, "geometry": { "type": "Point", "coordinates": [ 139.71435741955068, 35.527511934730697 ] } },
{ "type": "Feature", "properties": { "P29_001": "14132", "P29_002": "D114213020028", "P29_003": "16004", "P29_004": "川崎市立幸高等学校", "P29_005": "神奈川県川崎市幸区戸手本町1-150", "P29_006": "3", "P29_007": "0", "P29_008": "00", "P29_009": null }, "geometry": { "type": "Point", "coordinates": [ 139.686312173317077, 35.541892872918204 ] } },
{ "type": "Feature", "properties": { "P29_001": "14132", "P29_002": "D114213020037", "P29_003": "16004", "P29_004": "川崎市立川崎総合科学高等学校", "P29_005": "神奈川県川崎市幸区小向仲野町5-1", "P29_006": "3", "P29_007": "0", "P29_008": "00", "P29_009": null }, "geometry": { "type": "Point", "coordinates": [ 139.696197335818738, 35.552213913185597 ] } },
{ "type": "Feature", "properties": { "P29_001": "14134", "P29_002": "D114213020055", "P29_003": "16004", "P29_004": "川崎市立高津高等学校", "P29_005": "神奈川県川崎市高津区久本3-11-1", "P29_006": "3", "P29_007": "0", "P29_008": "00", "P29_009": null }, "geometry": { "type": "Point", "coordinates": [ 139.616443147104007, 35.596067238845691 ] } },
{ "type": "Feature", "properties": { "P29_001": "14151", "P29_002": "D114215010016", "P29_003": "16004", "P29_004": "神奈川県立相原高等学校", "P29_005": "神奈川県相模原市緑区橋本台4-2-1", "P29_006": "2", "P29_007": "0", "P29_008": "00", "P29_009": null }, "geometry": { "type": "Point", "coordinates": [ 139.326616794723293, 35.588338140994956 ] } },
{ "type": "Feature", "properties": { "P29_001": "14151", "P29_002": "D114215010025", "P29_003": "16004", "P29_004": "神奈川県立橋本高等学校", "P29_005": "神奈川県相模原市緑区橋本8-8-1", "P29_006": "2", "P29_007": "0", "P29_008": "00", "P29_009": null }, "geometry": { "type": "Point", "coordinates": [ 139.334370630749817, 35.599426595124889 ] } },
{ "type": "Feature", "properties": { "P29_001": "14152", "P29_002": "D114215010061", "P29_003": "16004", "P29_004": "神奈川県立上溝高等学校", "P29_005": "神奈川県相模原市中央区上溝6-5-1", "P29_006": "2", "P29_007": "0", "P29_008": "00", "P29_009": null }, "geometry": { "type": "Point", "coordinates": [ 139.35549924763987, 35.556225747079033 ] } },
{ "type": "Feature", "properties": { "P29_001": "14152", "P29_002": "D114215010089", "P29_003": "16004", "P29_004": "神奈川県立上溝南高等学校", "P29_005": "神奈川県相模原市中央区上溝269", "P29_006": "2", "P29_007": "0", "P29_008": "00", "P29_009": null }, "geometry": { "type": "Point", "coordinates": [ 139.363415691140091, 35.540885470443826 ] } },
{ "type": "Feature", "properties": { "P29_001": "14152", "P29_002": "D114215010105", "P29_003": "16004", "P29_004": "神奈川県立相模田名高等学校", "P29_005": "神奈川県相模原市中央区田名6786-1", "P29_006": "2", "P29_007": "0", "P29_008": "00", "P29_009": null }, "geometry": { "type": "Point", "coordinates": [ 139.345166958536936, 35.548899516749898 ] } },
{ "type": "Feature", "properties": { "P29_001": "14153", "P29_002": "D114215010114", "P29_003": "16004", "P29_004": "神奈川県立神奈川総合産業高等学校", "P29_005": "神奈川県相模原市南区文京1-11-1", "P29_006": "2", "P29_007": "0", "P29_008": "00", "P29_009": null }, "geometry": { "type": "Point", "coordinates": [ 139.427513152567371, 35.536267995797409 ] } },
{ "type": "Feature", "properties": { "P29_001": "14153", "P29_002": "D114215010123", "P29_003": "16004", "P29_004": "神奈川県立麻溝台高等学校", "P29_005": "神奈川県相模原市南区北里2-11-1", "P29_006": "2", "P29_007": "0", "P29_008": "00", "P29_009": null }, "geometry": { "type": "Point", "coordinates": [ 139.398911613183742, 35.538096168397971 ] } },
{ "type": "Feature", "properties": { "P29_001": "14153", "P29_002": "D114215010132", "P29_003": "16004", "P29_004": "神奈川県立上鶴間高等学校", "P29_005": "神奈川県相模原市南区上鶴間本町9-31-1", "P29_006": "2", "P29_007": "0", "P29_008": "00", "P29_009": null }, "geometry": { "type": "Point", "coordinates": [ 139.455208646507685, 35.524311767749502 ] } },
{ "type": "Feature", "properties": { "P29_001": "14201", "P29_002": "D114220110015", "P29_003": "16004", "P29_004": "神奈川県立横須賀高等学校", "P29_005": "神奈川県横須賀市公郷町3-109", "P29_006": "2", "P29_007": "0", "P29_008": "00", "P29_009": null }, "geometry": { "type": "Point", "coordinates": [ 139.670215853987486, 35.25667484607466 ] } },
{ "type": "Feature", "properties": { "P29_001": "14201", "P29_002": "D114220110024", "P29_003": "16004", "P29_004": "神奈川県立横須賀大津高等学校", "P29_005": "神奈川県横須賀市大津町4-17-1", "P29_006": "2", "P29_007": "0", "P29_008": "00", "P29_009": null }, "geometry": { "type": "Point", "coordinates": [ 139.692038595606107, 35.258969537692344 ] } },
{ "type": "Feature", "properties": { "P29_001": "14201", "P29_002": "D114220110033", "P29_003": "16004", "P29_004": "神奈川県立横須賀工業高等学校", "P29_005": "神奈川県横須賀市公郷町4-10", "P29_006": "2", "P29_007": "0", "P29_008": "00", "P29_009": null }, "geometry": { "type": "Point", "coordinates": [ 139.677023089391298, 35.255289015466303 ] } },
{ "type": "Feature", "properties": { "P29_001": "14201", "P29_002": "D114220110051", "P29_003": "16004", "P29_004": "神奈川県立追浜高等学校", "P29_005": "神奈川県横須賀市夏島町13", "P29_006": "2", "P29_007": "0", "P29_008": "00", "P29_009": null }, "geometry": { "type": "Point", "coordinates": [ 139.63247907785933, 35.320480476963418 ] } },
{ "type": "Feature", "properties": { "P29_001": "14201", "P29_002": "D114220110060", "P29_003": "16004", "P29_004": "神奈川県立津久井浜高等学校", "P29_005": "神奈川県横須賀市津久井4-4-1", "P29_006": "2", "P29_007": "0", "P29_008": "00", "P29_009": null }, "geometry": { "type": "Point", "coordinates": [ 139.663469306257667, 35.200236404454323 ] } },
{ "type": "Feature", "properties": { "P29_001": "14201", "P29_002": "D114220120013", "P29_003": "16004", "P29_004": "横須賀市立横須賀総合高等学校", "P29_005": "神奈川県横須賀市久里浜6-1-1", "P29_006": "3", "P29_007": "0", "P29_008": "00", "P29_009": null }, "geometry": { "type": "Point", "coordinates": [ 139.70890600370862, 35.229556109818411 ] } },
{ "type": "Feature", "properties": { "P29_001": "14203", "P29_002": "D114220310013", "P29_003": "16004", "P29_004": "神奈川県立平塚江南高等学校", "P29_005": "神奈川県平塚市諏訪町5-1", "P29_006": "2", "P29_007": "0", "P29_008": "00", "P29_009": null }, "geometry": { "type": "Point", "coordinates": [ 139.335249287266151, 35.338923753894512 ] } },
{ "type": "Feature", "properties": { "P29_001": "14203", "P29_002": "D114220310022", "P29_003": "16004", "P29_004": "神奈川県立平塚農商高等学校", "P29_005": "神奈川県平塚市達上ケ丘10-10", "P29_006": "2", "P29_007": "0", "P29_008": "00", "P29_009": null }, "geometry": { "type": "Point", "coordinates": [ 139.328763095355527, 35.333816341272289 ] } },
{ "type": "Feature", "properties": { "P29_001": "14203", "P29_002": "D114220310040", "P29_003": "16004", "P29_004": "神奈川県立高浜高等学校", "P29_005": "神奈川県平塚市高浜台8-1", "P29_006": "2", "P29_007": "0", "P29_008": "00", "P29_009": null }, "geometry": { "type": "Point", "coordinates": [ 139.357322513754411, 35.320145716136096 ] } },
{ "type": "Feature", "properties": { "P29_001": "14203", "P29_002": "D114220310059", "P29_003": "16004", "P29_004": "神奈川県立平塚湘風高等学校", "P29_005": "神奈川県平塚市田村3-13-1", "P29_006": "2", "P29_007": "0", "P29_008": "00", "P29_009": null }, "geometry": { "type": "Point", "coordinates": [ 139.35826861740739, 35.372523635707509 ] } },
{ "type": "Feature", "properties": { "P29_001": "14204", "P29_002": "D114220410012", "P29_003": "16004", "P29_004": "神奈川県立鎌倉高等学校", "P29_005": "神奈川県鎌倉市七里ガ浜2-21-1", "P29_006": "2", "P29_007": "0", "P29_008": "00", "P29_009": null }, "geometry": { "type": "Point", "coordinates": [ 139.504023274863272, 35.308723635893806 ] } },
{ "type": "Feature", "properties": { "P29_001": "14204", "P29_002": "D114220410021", "P29_003": "16004", "P29_004": "神奈川県立七里ガ浜高等学校", "P29_005": "神奈川県鎌倉市七里ガ浜東2-3-1", "P29_006": "2", "P29_007": "0", "P29_008": "00", "P29_009": null }, "geometry": { "type": "Point", "coordinates": [ 139.512475837609372, 35.305300920753425 ] } },
{ "type": "Feature", "properties": { "P29_001": "14204", "P29_002": "D114220410030", "P29_003": "16004", "P29_004": "神奈川県立大船高等学校", "P29_005": "神奈川県鎌倉市高野8-1", "P29_006": "2", "P29_007": "0", "P29_008": "00", "P29_009": null }, "geometry": { "type": "Point", "coordinates": [ 139.547748012869761, 35.344603594815986 ] } },
{ "type": "Feature", "properties": { "P29_001": "14204", "P29_002": "D114220410049", "P29_003": "16004", "P29_004": "神奈川県立深沢高等学校", "P29_005": "神奈川県鎌倉市手広6-4-1", "P29_006": "2", "P29_007": "0", "P29_008": "00", "P29_009": null }, "geometry": { "type": "Point", "coordinates": [ 139.503449934160642, 35.330340898004842 ] } },
{ "type": "Feature", "properties": { "P29_001": "14205", "P29_002": "D114220510020", "P29_003": "16004", "P29_004": "神奈川県立藤沢西高等学校", "P29_005": "神奈川県藤沢市大庭3608-2", "P29_006": "2", "P29_007": "0", "P29_008": "00", "P29_009": null }, "geometry": { "type": "Point", "coordinates": [ 139.441292635135341, 35.356880009400179 ] } },
{ "type": "Feature", "properties": { "P29_001": "14205", "P29_002": "D114220510039", "P29_003": "16004", "P29_004": "神奈川県立藤沢工科高等学校", "P29_005": "神奈川県藤沢市今田744", "P29_006": "2", "P29_007": "0", "P29_008": "00", "P29_009": null }, "geometry": { "type": "Point", "coordinates": [ 139.477953682510588, 35.390043180118376 ] } },
{ "type": "Feature", "properties": { "P29_001": "14205", "P29_002": "D114220510057", "P29_003": "16004", "P29_004": "神奈川県立藤沢総合高等学校", "P29_005": "神奈川県藤沢市長後1909", "P29_006": "2", "P29_007": "0", "P29_008": "00", "P29_009": null }, "geometry": { "type": "Point", "coordinates": [ 139.457588400060814, 35.41517359262231 ] } },
{ "type": "Feature", "properties": { "P29_001": "14205", "P29_002": "D114220510066", "P29_003": "16004", "P29_004": "神奈川県立湘南台高等学校", "P29_005": "神奈川県藤沢市円行1986", "P29_006": "2", "P29_007": "0", "P29_008": "00", "P29_009": null }, "geometry": { "type": "Point", "coordinates": [ 139.460354333375477, 35.397696894537958 ] } },
{ "type": "Feature", "properties": { "P29_001": "14206", "P29_002": "D114220610010", "P29_003": "16004", "P29_004": "神奈川県立小田原高等学校", "P29_005": "神奈川県小田原市城山3-26-1", "P29_006": "2", "P29_007": "0", "P29_008": "00", "P29_009": null }, "geometry": { "type": "Point", "coordinates": [ 139.148164600438065, 35.25348758941162 ] } },
{ "type": "Feature", "properties": { "P29_001": "14206", "P29_002": "D114220610038", "P29_003": "16004", "P29_004": "神奈川県立西湘高等学校", "P29_005": "神奈川県小田原市酒匂1-3-1", "P29_006": "2", "P29_007": "0", "P29_008": "00", "P29_009": null }, "geometry": { "type": "Point", "coordinates": [ 139.186453661909923, 35.274811482628941 ] } },
{ "type": "Feature", "properties": { "P29_001": "14207", "P29_002": "D114220710019", "P29_003": "16004", "P29_004": "神奈川県立茅ケ崎高等学校", "P29_005": "神奈川県茅ヶ崎市本村3-4-1", "P29_006": "2", "P29_007": "0", "P29_008": "00", "P29_009": null }, "geometry": { "type": "Point", "coordinates": [ 139.418267154245314, 35.338703328819342 ] } },
{ "type": "Feature", "properties": { "P29_001": "14207", "P29_002": "D114220710037", "P29_003": "16004", "P29_004": "神奈川県立鶴嶺高等学校", "P29_005": "神奈川県茅ヶ崎市円蔵1-16-1", "P29_006": "2", "P29_007": "0", "P29_008": "00", "P29_009": null }, "geometry": { "type": "Point", "coordinates": [ 139.409725816747937, 35.344426336030267 ] } },
{ "type": "Feature", "properties": { "P29_001": "14210", "P29_002": "D114221010014", "P29_003": "16004", "P29_004": "神奈川県立三浦初声高等学校", "P29_005": "神奈川県三浦市初声町入江274-2", "P29_006": "2", "P29_007": "0", "P29_008": "00", "P29_009": null }, "geometry": { "type": "Point", "coordinates": [ 139.62586896368714, 35.18653024392453 ] } },
{ "type": "Feature", "properties": { "P29_001": "14211", "P29_002": "D114221110013", "P29_003": "16004", "P29_004": "神奈川県立秦野高等学校", "P29_005": "神奈川県秦野市下大槻113", "P29_006": "2", "P29_007": "0", "P29_008": "00", "P29_009": null }, "geometry": { "type": "Point", "coordinates": [ 139.257519858784548, 35.362500256622539 ] } },
{ "type": "Feature", "properties": { "P29_001": "14211", "P29_002": "D114221110022", "P29_003": "16004", "P29_004": "神奈川県立秦野総合高等学校", "P29_005": "神奈川県秦野市南が丘1-4-1", "P29_006": "2", "P29_007": "0", "P29_008": "00", "P29_009": null }, "geometry": { "type": "Point", "coordinates": [ 139.224113252529037, 35.358017689274064 ] } },
{ "type": "Feature", "properties": { "P29_001": "14211", "P29_002": "D114221110031", "P29_003": "16004", "P29_004": "神奈川県立秦野曽屋高等学校", "P29_005": "神奈川県秦野市曽屋3613-1", "P29_006": "2", "P29_007": "0", "P29_008": "00", "P29_009": null }, "geometry": { "type": "Point", "coordinates": [ 139.237128688788744, 35.37867201122004 ] } },
{ "type": "Feature", "properties": { "P29_001": "14212", "P29_002": "D114221210012", "P29_003": "16004", "P29_004": "神奈川県立厚木高等学校", "P29_005": "神奈川県厚木市戸室2-24-1", "P29_006": "2", "P29_007": "0", "P29_008": "00", "P29_009": null }, "geometry": { "type": "Point", "coordinates": [ 139.350958643329221, 35.446086679053565 ] } },
{ "type": "Feature", "properties": { "P29_001": "14212", "P29_002": "D114221210030", "P29_003": "16004", "P29_004": "神奈川県立厚木商業高等学校", "P29_005": "神奈川県厚木市王子3-1-1", "P29_006": "2", "P29_007": "0", "P29_008": "00", "P29_009": null }, "geometry": { "type": "Point", "coordinates": [ 139.34283457701008, 35.4576337493476 ] } },
{ "type": "Feature", "properties": { "P29_001": "14212", "P29_002": "D114221210049", "P29_003": "16004", "P29_004": "神奈川県立厚木北高等学校", "P29_005": "神奈川県厚木市下荻野886", "P29_006": "2", "P29_007": "0", "P29_008": "00", "P29_009": null }, "geometry": { "type": "Point", "coordinates": [ 139.337692784174749, 35.487218743913118 ] } },
{ "type": "Feature", "properties": { "P29_001": "14212", "P29_002": "D114221210058", "P29_003": "16004", "P29_004": "神奈川県立厚木清南高等学校", "P29_005": "神奈川県厚木市岡田1-12-1", "P29_006": "2", "P29_007": "0", "P29_008": "00", "P29_009": null }, "geometry": { "type": "Point", "coordinates": [ 139.360876936800736, 35.431126657683123 ] } },
{ "type": "Feature", "properties": { "P29_001": "14212", "P29_002": "D114221210067", "P29_003": "16004", "P29_004": "神奈川県立厚木西高等学校", "P29_005": "神奈川県厚木市森の里青山12-1", "P29_006": "2", "P29_007": "0", "P29_008": "00", "P29_009": null }, "geometry": { "type": "Point", "coordinates": [ 139.312911932240866, 35.448432532142959 ] } },
{ "type": "Feature", "properties": { "P29_001": "14213", "P29_002": "D114221310011", "P29_003": "16004", "P29_004": "神奈川県立大和高等学校", "P29_005": "神奈川県大和市つきみ野3-4", "P29_006": "2", "P29_007": "0", "P29_008": "00", "P29_009": null }, "geometry": { "type": "Point", "coordinates": [ 139.454168993842416, 35.507269355036094 ] } },
{ "type": "Feature", "properties": { "P29_001": "14213", "P29_002": "D114221310020", "P29_003": "16004", "P29_004": "神奈川県立大和南高等学校", "P29_005": "神奈川県大和市上和田2557", "P29_006": "2", "P29_007": "0", "P29_008": "00", "P29_009": null }, "geometry": { "type": "Point", "coordinates": [ 139.475273193584457, 35.443009827446481 ] } },
{ "type": "Feature", "properties": { "P29_001": "14213", "P29_002": "D114221310039", "P29_003": "16004", "P29_004": "神奈川県立大和東高等学校", "P29_005": "神奈川県大和市深見1760", "P29_006": "2", "P29_007": "0", "P29_008": "00", "P29_009": null }, "geometry": { "type": "Point", "coordinates": [ 139.469269000639144, 35.478880052455793 ] } },
{ "type": "Feature", "properties": { "P29_001": "14213", "P29_002": "D114221310048", "P29_003": "16004", "P29_004": "神奈川県立大和西高等学校", "P29_005": "神奈川県大和市南林間9-5-1", "P29_006": "2", "P29_007": "0", "P29_008": "00", "P29_009": null }, "geometry": { "type": "Point", "coordinates": [ 139.434552127213237, 35.496345822531985 ] } },
{ "type": "Feature", "properties": { "P29_001": "14214", "P29_002": "D114221410010", "P29_003": "16004", "P29_004": "神奈川県立伊勢原高等学校", "P29_005": "神奈川県伊勢原市田中1008-3", "P29_006": "2", "P29_007": "0", "P29_008": "00", "P29_009": null }, "geometry": { "type": "Point", "coordinates": [ 139.306051577872864, 35.403437686148102 ] } },
{ "type": "Feature", "properties": { "P29_001": "14215", "P29_002": "D114221510019", "P29_003": "16004", "P29_004": "神奈川県立中央農業高等学校", "P29_005": "神奈川県海老名市中新田4-12-1", "P29_006": "2", "P29_007": "0", "P29_008": "00", "P29_009": null }, "geometry": { "type": "Point", "coordinates": [ 139.386435662459604, 35.433745905405054 ] } },
{ "type": "Feature", "properties": { "P29_001": "14215", "P29_002": "D114221510028", "P29_003": "16004", "P29_004": "神奈川県立海老名高等学校", "P29_005": "神奈川県海老名市中新田1-26-1", "P29_006": "2", "P29_007": "0", "P29_008": "00", "P29_009": null }, "geometry": { "type": "Point", "coordinates": [ 139.387559192402989, 35.442004772989002 ] } },
{ "type": "Feature", "properties": { "P29_001": "14215", "P29_002": "D114221510037", "P29_003": "16004", "P29_004": "神奈川県立有馬高等学校", "P29_005": "神奈川県海老名市社家5-27-1", "P29_006": "2", "P29_007": "0", "P29_008": "00", "P29_009": null }, "geometry": { "type": "Point", "coordinates": [ 139.379575927314079, 35.414761787829136 ] } },
{ "type": "Feature", "properties": { "P29_001": "14216", "P29_002": "D114221610018", "P29_003": "16004", "P29_004": "神奈川県立座間高等学校", "P29_005": "神奈川県座間市入谷西5-11-1", "P29_006": "2", "P29_007": "0", "P29_008": "00", "P29_009": null }, "geometry": { "type": "Point", "coordinates": [ 139.396386662207249, 35.477153737805054 ] } },
{ "type": "Feature", "properties": { "P29_001": "14216", "P29_002": "D114221610027", "P29_003": "16004", "P29_004": "神奈川県立座間総合高等学校", "P29_005": "神奈川県座間市栗原2487", "P29_006": "2", "P29_007": "0", "P29_008": "00", "P29_009": null }, "geometry": { "type": "Point", "coordinates": [ 139.417497765103462, 35.487870483600368 ] } },
{ "type": "Feature", "properties": { "P29_001": "14216", "P29_002": "D114221610036", "P29_003": "16004", "P29_004": "神奈川県立相模向陽館高等学校", "P29_005": "神奈川県座間市ひばりが丘3-58-1", "P29_006": "2", "P29_007": "0", "P29_008": "00", "P29_009": null }, "geometry": { "type": "Point", "coordinates": [ 139.43598857266548, 35.480509097971442 ] } },
{ "type": "Feature", "properties": { "P29_001": "14217", "P29_002": "D114221710017", "P29_003": "16004", "P29_004": "神奈川県立足柄高等学校", "P29_005": "神奈川県南足柄市怒田860", "P29_006": "2", "P29_007": "0", "P29_008": "00", "P29_009": null }, "geometry": { "type": "Point", "coordinates": [ 139.103860804106347, 35.328569667623334 ] } },
{ "type": "Feature", "properties": { "P29_001": "14218", "P29_002": "D114221810016", "P29_003": "16004", "P29_004": "神奈川県立綾瀬高等学校", "P29_005": "神奈川県綾瀬市寺尾南1-4-1", "P29_006": "2", "P29_007": "0", "P29_008": "00", "P29_009": null }, "geometry": { "type": "Point", "coordinates": [ 139.429102357721348, 35.449310909793894 ] } },
{ "type": "Feature", "properties": { "P29_001": "14218", "P29_002": "D114221810025", "P29_003": "16004", "P29_004": "神奈川県立綾瀬西高等学校", "P29_005": "神奈川県綾瀬市早川1485-1", "P29_006": "2", "P29_007": "0", "P29_008": "00", "P29_009": null }, "geometry": { "type": "Point", "coordinates": [ 139.412569705585383, 35.436393688294153 ] } },
{ "type": "Feature", "properties": { "P29_001": "14321", "P29_002": "D114232110010", "P29_003": "16004", "P29_004": "神奈川県立寒川高等学校", "P29_005": "神奈川県高座郡寒川町一之宮9-30-1", "P29_006": "2", "P29_007": "0", "P29_008": "00", "P29_009": null }, "geometry": { "type": "Point", "coordinates": [ 139.386580872581959, 35.359791277413933 ] } },
{ "type": "Feature", "properties": { "P29_001": "14342", "P29_002": "D114234210015", "P29_003": "16004", "P29_004": "神奈川県立二宮高等学校", "P29_005": "神奈川県中郡二宮町一色1363", "P29_006": "2", "P29_007": "0", "P29_008": "00", "P29_009": null }, "geometry": { "type": "Point", "coordinates": [ 139.246531332093952, 35.313834365464558 ] } },
{ "type": "Feature", "properties": { "P29_001": "14362", "P29_002": "D114236210010", "P29_003": "16004", "P29_004": "神奈川県立大井高等学校", "P29_005": "神奈川県足柄上郡大井町西大井984-1", "P29_006": "2", "P29_007": "0", "P29_008": "00", "P29_009": null }, "geometry": { "type": "Point", "coordinates": [ 139.148659646800382, 35.320164961465622 ] } },
{ "type": "Feature", "properties": { "P29_001": "14364", "P29_002": "D114236410018", "P29_003": "16004", "P29_004": "神奈川県立山北高等学校", "P29_005": "神奈川県足柄上郡山北町向原2370", "P29_006": "2", "P29_007": "0", "P29_008": "00", "P29_009": null }, "geometry": { "type": "Point", "coordinates": [ 139.107929459323344, 35.354374720622793 ] } },
{ "type": "Feature", "properties": { "P29_001": "14366", "P29_002": "D114236610016", "P29_003": "16004", "P29_004": "神奈川県立吉田島高等学校", "P29_005": "神奈川県足柄上郡開成町吉田島281", "P29_006": "2", "P29_007": "0", "P29_008": "00", "P29_009": null }, "geometry": { "type": "Point", "coordinates": [ 139.125584274398534, 35.336576820750331 ] } },
{ "type": "Feature", "properties": { "P29_001": "14401", "P29_002": "D114240110013", "P29_003": "16004", "P29_004": "神奈川県立愛川高等学校", "P29_005": "神奈川県愛甲郡愛川町三増822-1", "P29_006": "2", "P29_007": "0", "P29_008": "00", "P29_009": null }, "geometry": { "type": "Point", "coordinates": [ 139.317011159990898, 35.532031728867302 ] } },
{ "type": "Feature", "properties": { "P29_001": "14101", "P29_002": "D114310000017", "P29_003": "16004", "P29_004": "白鵬女子高等学校", "P29_005": "神奈川県横浜市鶴見区北寺尾4-10-13", "P29_006": "4", "P29_007": "0", "P29_008": "00", "P29_009": null }, "geometry": { "type": "Point", "coordinates": [ 139.658548578128432, 35.515666625456177 ] } },
{ "type": "Feature", "properties": { "P29_001": "14101", "P29_002": "D114310000026", "P29_003": "16004", "P29_004": "聖ヨゼフ学園高等学校", "P29_005": "神奈川県横浜市鶴見区東寺尾北台11-1", "P29_006": "4", "P29_007": "0", "P29_008": "00", "P29_009": null }, "geometry": { "type": "Point", "coordinates": [ 139.664389940775834, 35.513027276538594 ] } },
{ "type": "Feature", "properties": { "P29_001": "14101", "P29_002": "D114310000035", "P29_003": "16004", "P29_004": "橘学苑高等学校", "P29_005": "神奈川県横浜市鶴見区獅子ヶ谷1-10-35", "P29_006": "4", "P29_007": "0", "P29_008": "00", "P29_009": null }, "geometry": { "type": "Point", "coordinates": [ 139.651857333211836, 35.515761249629243 ] } },
{ "type": "Feature", "properties": { "P29_001": "14101", "P29_002": "D114310000044", "P29_003": "16004", "P29_004": "鶴見大学附属高等学校", "P29_005": "神奈川県横浜市鶴見区鶴見2-2-1", "P29_006": "4", "P29_007": "0", "P29_008": "00", "P29_009": null }, "geometry": { "type": "Point", "coordinates": [ 139.666929256512617, 35.505595519357414 ] } },
{ "type": "Feature", "properties": { "P29_001": "14101", "P29_002": "D114310000053", "P29_003": "16004", "P29_004": "法政大学国際高等学校", "P29_005": "神奈川県横浜市鶴見区岸谷1-13-1", "P29_006": "4", "P29_007": "0", "P29_008": "00", "P29_009": null }, "geometry": { "type": "Point", "coordinates": [ 139.663188681229343, 35.495398084541847 ] } },
{ "type": "Feature", "properties": { "P29_001": "14102", "P29_002": "D114310000071", "P29_003": "16004", "P29_004": "神奈川学園高等学校", "P29_005": "神奈川県横浜市神奈川区沢渡18", "P29_006": "4", "P29_007": "0", "P29_008": "00", "P29_009": null }, "geometry": { "type": "Point", "coordinates": [ 139.617501570518584, 35.471606761292016 ] } },
{ "type": "Feature", "properties": { "P29_001": "14102", "P29_002": "D114310000080", "P29_003": "16004", "P29_004": "横浜創英高等学校", "P29_005": "神奈川県横浜市神奈川区西大口28", "P29_006": "4", "P29_007": "0", "P29_008": "00", "P29_009": null }, "geometry": { "type": "Point", "coordinates": [ 139.639467274425272, 35.490701424973771 ] } },
{ "type": "Feature", "properties": { "P29_001": "14104", "P29_002": "D114310000106", "P29_003": "16004", "P29_004": "聖光学院高等学校", "P29_005": "神奈川県横浜市中区滝之上100", "P29_006": "4", "P29_007": "0", "P29_008": "00", "P29_009": null }, "geometry": { "type": "Point", "coordinates": [ 139.642735532287304, 35.422265105596267 ] } },
{ "type": "Feature", "properties": { "P29_001": "14104", "P29_002": "D114310000115", "P29_003": "16004", "P29_004": "フェリス女学院高等学校", "P29_005": "神奈川県横浜市中区山手町178", "P29_006": "4", "P29_007": "0", "P29_008": "00", "P29_009": null }, "geometry": { "type": "Point", "coordinates": [ 139.647594091669561, 35.437833246165596 ] } },
{ "type": "Feature", "properties": { "P29_001": "14104", "P29_002": "D114310000124", "P29_003": "16004", "P29_004": "横浜共立学園高等学校", "P29_005": "神奈川県横浜市中区山手町212", "P29_006": "4", "P29_007": "0", "P29_008": "00", "P29_009": null }, "geometry": { "type": "Point", "coordinates": [ 139.640041845354176, 35.435083572796906 ] } },
{ "type": "Feature", "properties": { "P29_001": "14104", "P29_002": "D114310000142", "P29_003": "16004", "P29_004": "横浜雙葉高等学校", "P29_005": "神奈川県横浜市中区山手町88", "P29_006": "4", "P29_007": "0", "P29_008": "00", "P29_009": null }, "geometry": { "type": "Point", "coordinates": [ 139.65218052227155, 35.435790115325567 ] } },
{ "type": "Feature", "properties": { "P29_001": "14105", "P29_002": "D114310000151", "P29_003": "16004", "P29_004": "関東学院高等学校", "P29_005": "神奈川県横浜市南区三春台4", "P29_006": "4", "P29_007": "0", "P29_008": "00", "P29_009": null }, "geometry": { "type": "Point", "coordinates": [ 139.619229692109343, 35.441790624753359 ] } },
{ "type": "Feature", "properties": { "P29_001": "14105", "P29_002": "D114310000160", "P29_003": "16004", "P29_004": "青山学院横浜英和高等学校", "P29_005": "神奈川県横浜市南区蒔田町124", "P29_006": "4", "P29_007": "0", "P29_008": "00", "P29_009": null }, "geometry": { "type": "Point", "coordinates": [ 139.609037994184888, 35.426724499891293 ] } },
{ "type": "Feature", "properties": { "P29_001": "14106", "P29_002": "D114310000179", "P29_003": "16004", "P29_004": "横浜清風高等学校", "P29_005": "神奈川県横浜市保土ケ谷区岩井町447", "P29_006": "4", "P29_007": "0", "P29_008": "00", "P29_009": null }, "geometry": { "type": "Point", "coordinates": [ 139.598441380341399, 35.441513342679166 ] } },
{ "type": "Feature", "properties": { "P29_001": "14107", "P29_002": "D114310000188", "P29_003": "16004", "P29_004": "横浜学園高等学校", "P29_005": "神奈川県横浜市磯子区岡村2-4-1", "P29_006": "4", "P29_007": "0", "P29_008": "00", "P29_009": null }, "geometry": { "type": "Point", "coordinates": [ 139.615197823989689, 35.416903128563618 ] } },
{ "type": "Feature", "properties": { "P29_001": "14108", "P29_002": "D114310000204", "P29_003": "16004", "P29_004": "横浜高等学校", "P29_005": "神奈川県横浜市金沢区能見台通46-1", "P29_006": "4", "P29_007": "0", "P29_008": "00", "P29_009": null }, "geometry": { "type": "Point", "coordinates": [ 139.627516468862353, 35.362503801319036 ] } },
{ "type": "Feature", "properties": { "P29_001": "14108", "P29_002": "D114310000213", "P29_003": "16004", "P29_004": "横浜創学館高等学校", "P29_005": "神奈川県横浜市金沢区六浦東1-43-1", "P29_006": "4", "P29_007": "0", "P29_008": "00", "P29_009": null }, "geometry": { "type": "Point", "coordinates": [ 139.629407787842382, 35.323172843824409 ] } },
{ "type": "Feature", "properties": { "P29_001": "14109", "P29_002": "D114310000231", "P29_003": "16004", "P29_004": "英理女子学院高等学校", "P29_005": "神奈川県横浜市港北区菊名7-6-43", "P29_006": "4", "P29_007": "0", "P29_008": "00", "P29_009": null }, "geometry": { "type": "Point", "coordinates": [ 139.629397930700549, 35.515095709715737 ] } },
{ "type": "Feature", "properties": { "P29_001": "14109", "P29_002": "D114310000240", "P29_003": "16004", "P29_004": "日本大学高等学校", "P29_005": "神奈川県横浜市港北区箕輪町2-9-1", "P29_006": "4", "P29_007": "0", "P29_008": "00", "P29_009": null }, "geometry": { "type": "Point", "coordinates": [ 139.646569945758245, 35.544390319215992 ] } },
{ "type": "Feature", "properties": { "P29_001": "14109", "P29_002": "D114310000259", "P29_003": "16004", "P29_004": "武相高等学校", "P29_005": "神奈川県横浜市港北区仲手原2-34-1", "P29_006": "4", "P29_007": "0", "P29_008": "00", "P29_009": null }, "geometry": { "type": "Point", "coordinates": [ 139.625363319909326, 35.497032854287575 ] } },
{ "type": "Feature", "properties": { "P29_001": "14110", "P29_002": "D114310000268", "P29_003": "16004", "P29_004": "公文国際学園高等部", "P29_005": "神奈川県横浜市戸塚区小雀町777", "P29_006": "4", "P29_007": "0", "P29_008": "00", "P29_009": null }, "geometry": { "type": "Point", "coordinates": [ 139.512464416338588, 35.370753707182431 ] } },
{ "type": "Feature", "properties": { "P29_001": "14115", "P29_002": "D114310000277", "P29_003": "16004", "P29_004": "山手学院高等学校", "P29_005": "神奈川県横浜市栄区上郷町460", "P29_006": "4", "P29_007": "0", "P29_008": "00", "P29_009": null }, "geometry": { "type": "Point", "coordinates": [ 139.575915419417356, 35.366953830592998 ] } },
{ "type": "Feature", "properties": { "P29_001": "14112", "P29_002": "D114310000286", "P29_003": "16004", "P29_004": "横浜商科大学高等学校", "P29_005": "神奈川県横浜市旭区白根7-1-1", "P29_006": "4", "P29_007": "0", "P29_008": "00", "P29_009": null }, "geometry": { "type": "Point", "coordinates": [ 139.553252849918834, 35.48517403267104 ] } },
{ "type": "Feature", "properties": { "P29_001": "14112", "P29_002": "D114310000302", "P29_003": "16004", "P29_004": "横浜富士見丘学園高等学校", "P29_005": "神奈川県横浜市旭区中沢1-24-1", "P29_006": "4", "P29_007": "0", "P29_008": "00", "P29_009": null }, "geometry": { "type": "Point", "coordinates": [ 139.528540663229734, 35.471863391628652 ] } },
{ "type": "Feature", "properties": { "P29_001": "14113", "P29_002": "D114310000311", "P29_003": "16004", "P29_004": "森村学園高等部", "P29_005": "神奈川県横浜市緑区長津田町2695", "P29_006": "4", "P29_007": "0", "P29_008": "00", "P29_009": null }, "geometry": { "type": "Point", "coordinates": [ 139.489558713997752, 35.528215718424299 ] } },
{ "type": "Feature", "properties": { "P29_001": "14113", "P29_002": "D114310000320", "P29_003": "16004", "P29_004": "神奈川大学附属高等学校", "P29_005": "神奈川県横浜市緑区台村町800", "P29_006": "4", "P29_007": "0", "P29_008": "00", "P29_009": null }, "geometry": { "type": "Point", "coordinates": [ 139.531175137863016, 35.506176535083938 ] } },
{ "type": "Feature", "properties": { "P29_001": "14113", "P29_002": "D114310000339", "P29_003": "16004", "P29_004": "横浜翠陵高等学校", "P29_005": "神奈川県横浜市緑区三保町1", "P29_006": "4", "P29_007": "0", "P29_008": "00", "P29_009": null }, "geometry": { "type": "Point", "coordinates": [ 139.510649506412847, 35.511602511176783 ] } },
{ "type": "Feature", "properties": { "P29_001": "14117", "P29_002": "D114310000357", "P29_003": "16004", "P29_004": "桐蔭学園高等学校", "P29_005": "神奈川県横浜市青葉区鉄町1614", "P29_006": "4", "P29_007": "0", "P29_008": "00", "P29_009": null }, "geometry": { "type": "Point", "coordinates": [ 139.521424312886921, 35.566634831037504 ] } },
{ "type": "Feature", "properties": { "P29_001": "14118", "P29_002": "D114310000366", "P29_003": "16004", "P29_004": "サレジオ学院高等学校", "P29_005": "神奈川県横浜市都筑区南山田3-43-1", "P29_006": "4", "P29_007": "0", "P29_008": "00", "P29_009": null }, "geometry": { "type": "Point", "coordinates": [ 139.594403835810539, 35.557318057004977 ] } },
{ "type": "Feature", "properties": { "P29_001": "14118", "P29_002": "D114310000375", "P29_003": "16004", "P29_004": "中央大学附属横浜高等学校", "P29_005": "神奈川県横浜市都筑区牛久保東1-14-1", "P29_006": "4", "P29_007": "0", "P29_008": "00", "P29_009": null }, "geometry": { "type": "Point", "coordinates": [ 139.585217026928433, 35.551991753441222 ] } },
{ "type": "Feature", "properties": { "P29_001": "14109", "P29_002": "D114310000384", "P29_003": "16004", "P29_004": "清心女子高等学校", "P29_005": "神奈川県横浜市港北区篠原台町36-37", "P29_006": "4", "P29_007": "0", "P29_008": "00", "P29_009": null }, "geometry": { "type": "Point", "coordinates": [ 139.627700294905054, 35.493220774281937 ] } },
{ "type": "Feature", "properties": { "P29_001": "14116", "P29_002": "D114310000393", "P29_003": "16004", "P29_004": "秀英高等学校", "P29_005": "神奈川県横浜市泉区和泉町7865", "P29_006": "4", "P29_007": "0", "P29_008": "00", "P29_009": null }, "geometry": { "type": "Point", "coordinates": [ 139.498981567542188, 35.433931922030723 ] } },
{ "type": "Feature", "properties": { "P29_001": "14133", "P29_002": "D114313000011", "P29_003": "16004", "P29_004": "大西学園高等学校", "P29_005": "神奈川県川崎市中原区小杉町2-284", "P29_006": "4", "P29_007": "0", "P29_008": "00", "P29_009": null }, "geometry": { "type": "Point", "coordinates": [ 139.657060569360624, 35.578531324571173 ] } },
{ "type": "Feature", "properties": { "P29_001": "14134", "P29_002": "D114313000039", "P29_003": "16004", "P29_004": "洗足学園高等学校", "P29_005": "神奈川県川崎市高津区久本2-3-1", "P29_006": "4", "P29_007": "0", "P29_008": "00", "P29_009": null }, "geometry": { "type": "Point", "coordinates": [ 139.613939838522214, 35.595480565976196 ] } },
{ "type": "Feature", "properties": { "P29_001": "14135", "P29_002": "D114313000048", "P29_003": "16004", "P29_004": "カリタス女子高等学校", "P29_005": "神奈川県川崎市多摩区中野島4-6-1", "P29_006": "4", "P29_007": "0", "P29_008": "00", "P29_009": null }, "geometry": { "type": "Point", "coordinates": [ 139.559041580556055, 35.629201156669765 ] } },
{ "type": "Feature", "properties": { "P29_001": "14137", "P29_002": "D114313000066", "P29_003": "16004", "P29_004": "桐光学園高等学校", "P29_005": "神奈川県川崎市麻生区栗木3-12-1", "P29_006": "4", "P29_007": "0", "P29_008": "00", "P29_009": null }, "geometry": { "type": "Point", "coordinates": [ 139.472339733360627, 35.602885173462163 ] } },
{ "type": "Feature", "properties": { "P29_001": "14151", "P29_002": "D114315000016", "P29_003": "16004", "P29_004": "シュタイナー学園高等部", "P29_005": "神奈川県相模原市緑区吉野407", "P29_006": "4", "P29_007": "0", "P29_008": "00", "P29_009": null }, "geometry": { "type": "Point", "coordinates": [ 139.166426602115791, 35.615834443761848 ] } },
{ "type": "Feature", "properties": { "P29_001": "14152", "P29_002": "D114315000025", "P29_003": "16004", "P29_004": "麻布大学附属高等学校", "P29_005": "神奈川県相模原市中央区淵野辺1-17-50", "P29_006": "4", "P29_007": "0", "P29_008": "00", "P29_009": null }, "geometry": { "type": "Point", "coordinates": [ 139.391210174471126, 35.576614316634888 ] } },
{ "type": "Feature", "properties": { "P29_001": "14153", "P29_002": "D114315000034", "P29_003": "16004", "P29_004": "相模女子大学高等部", "P29_005": "神奈川県相模原市南区文京2-1-1", "P29_006": "4", "P29_007": "0", "P29_008": "00", "P29_009": null }, "geometry": { "type": "Point", "coordinates": [ 139.426271082207762, 35.533691061760265 ] } },
{ "type": "Feature", "properties": { "P29_001": "14153", "P29_002": "D114315000043", "P29_003": "16004", "P29_004": "相模原高等学校", "P29_005": "神奈川県相模原市南区当麻856", "P29_006": "4", "P29_007": "0", "P29_008": "00", "P29_009": null }, "geometry": { "type": "Point", "coordinates": [ 139.368782117152932, 35.5297839133205 ] } },
{ "type": "Feature", "properties": { "P29_001": "14153", "P29_002": "D114315000052", "P29_003": "16004", "P29_004": "東海大学付属相模高等学校", "P29_005": "神奈川県相模原市南区相南3-33-1", "P29_006": "4", "P29_007": "0", "P29_008": "00", "P29_009": null }, "geometry": { "type": "Point", "coordinates": [ 139.42909224096374, 35.51161592386341 ] } },
{ "type": "Feature", "properties": { "P29_001": "14201", "P29_002": "D114320100024", "P29_003": "16004", "P29_004": "三浦学苑高等学校", "P29_005": "神奈川県横須賀市衣笠栄町3-80", "P29_006": "4", "P29_007": "0", "P29_008": "00", "P29_009": null }, "geometry": { "type": "Point", "coordinates": [ 139.656789754448823, 35.261021515552059 ] } },
{ "type": "Feature", "properties": { "P29_001": "14201", "P29_002": "D114320100033", "P29_003": "16004", "P29_004": "緑ヶ丘女子高等学校", "P29_005": "神奈川県横須賀市緑が丘39", "P29_006": "4", "P29_007": "0", "P29_008": "00", "P29_009": null }, "geometry": { "type": "Point", "coordinates": [ 139.664117346043355, 35.280318018409268 ] } },
{ "type": "Feature", "properties": { "P29_001": "14201", "P29_002": "D114320100042", "P29_003": "16004", "P29_004": "横須賀学院高等学校", "P29_005": "神奈川県横須賀市稲岡町82", "P29_006": "4", "P29_007": "0", "P29_008": "00", "P29_009": null }, "geometry": { "type": "Point", "coordinates": [ 139.671970758827257, 35.284577232720743 ] } },
{ "type": "Feature", "properties": { "P29_001": "14204", "P29_002": "D114320400030", "P29_003": "16004", "P29_004": "鎌倉女学院高等学校", "P29_005": "神奈川県鎌倉市由比ガ浜2-10-4", "P29_006": "4", "P29_007": "0", "P29_008": "00", "P29_009": null }, "geometry": { "type": "Point", "coordinates": [ 139.550195237507239, 35.31374750245152 ] } },
{ "type": "Feature", "properties": { "P29_001": "14204", "P29_002": "D114320400058", "P29_003": "16004", "P29_004": "鎌倉女子大学高等部", "P29_005": "神奈川県鎌倉市岩瀬1420", "P29_006": "4", "P29_007": "0", "P29_008": "00", "P29_009": null }, "geometry": { "type": "Point", "coordinates": [ 139.547247080034055, 35.360557304392131 ] } },
{ "type": "Feature", "properties": { "P29_001": "14205", "P29_002": "D114320500011", "P29_003": "16004", "P29_004": "鵠沼高等学校", "P29_005": "神奈川県藤沢市鵠沼藤が谷4-9-10", "P29_006": "4", "P29_007": "0", "P29_008": "00", "P29_009": null }, "geometry": { "type": "Point", "coordinates": [ 139.483088789067949, 35.3273356444044 ] } },
{ "type": "Feature", "properties": { "P29_001": "14205", "P29_002": "D114320500039", "P29_003": "16004", "P29_004": "湘南学園高等学校", "P29_005": "神奈川県藤沢市鵠沼松が岡3-4-27", "P29_006": "4", "P29_007": "0", "P29_008": "00", "P29_009": null }, "geometry": { "type": "Point", "coordinates": [ 139.477386785115044, 35.323865259965103 ] } },
{ "type": "Feature", "properties": { "P29_001": "14205", "P29_002": "D114320500066", "P29_003": "16004", "P29_004": "藤嶺学園藤沢高等学校", "P29_005": "神奈川県藤沢市西富1-7-1", "P29_006": "4", "P29_007": "0", "P29_008": "00", "P29_009": null }, "geometry": { "type": "Point", "coordinates": [ 139.48620158523255, 35.348559090777378 ] } },
{ "type": "Feature", "properties": { "P29_001": "14205", "P29_002": "D114320500084", "P29_003": "16004", "P29_004": "聖園女学院高等学校", "P29_005": "神奈川県藤沢市みその台1-4", "P29_006": "4", "P29_007": "0", "P29_008": "00", "P29_009": null }, "geometry": { "type": "Point", "coordinates": [ 139.477126801307662, 35.354103067948856 ] } },
{ "type": "Feature", "properties": { "P29_001": "14205", "P29_002": "D114320500093", "P29_003": "16004", "P29_004": "慶應義塾湘南藤沢高等部", "P29_005": "神奈川県藤沢市遠藤5466", "P29_006": "4", "P29_007": "0", "P29_008": "00", "P29_009": null }, "geometry": { "type": "Point", "coordinates": [ 139.426249426231493, 35.38585634619178 ] } },
{ "type": "Feature", "properties": { "P29_001": "14206", "P29_002": "D114320600010", "P29_003": "16004", "P29_004": "旭丘高等学校", "P29_005": "神奈川県小田原市城内1-13", "P29_006": "4", "P29_007": "0", "P29_008": "00", "P29_009": null }, "geometry": { "type": "Point", "coordinates": [ 139.155161154273287, 35.252797744200699 ] } },
{ "type": "Feature", "properties": { "P29_001": "14206", "P29_002": "D114320600029", "P29_003": "16004", "P29_004": "相洋高等学校", "P29_005": "神奈川県小田原市城山4-13-33", "P29_006": "4", "P29_007": "0", "P29_008": "00", "P29_009": null }, "geometry": { "type": "Point", "coordinates": [ 139.146198103890697, 35.252470992058221 ] } },
{ "type": "Feature", "properties": { "P29_001": "14206", "P29_002": "D114320600038", "P29_003": "16004", "P29_004": "湘南ライナス学園高等部", "P29_005": "神奈川県小田原市風祭487-1", "P29_006": "4", "P29_007": "0", "P29_008": "00", "P29_009": null }, "geometry": { "type": "Point", "coordinates": [ 139.130539844397106, 35.247732886846052 ] } },
{ "type": "Feature", "properties": { "P29_001": "14208", "P29_002": "D114320800018", "P29_003": "16004", "P29_004": "聖和学院高等学校", "P29_005": "神奈川県逗子市久木2-2-1", "P29_006": "4", "P29_007": "0", "P29_008": "00", "P29_009": null }, "geometry": { "type": "Point", "coordinates": [ 139.578100339579407, 35.302661340787374 ] } },
{ "type": "Feature", "properties": { "P29_001": "14208", "P29_002": "D114320800027", "P29_003": "16004", "P29_004": "逗子開成高等学校", "P29_005": "神奈川県逗子市新宿2-5-1", "P29_006": "4", "P29_007": "0", "P29_008": "00", "P29_009": null }, "geometry": { "type": "Point", "coordinates": [ 139.573205735561714, 35.294157363626347 ] } },
{ "type": "Feature", "properties": { "P29_001": "14212", "P29_002": "D114321200012", "P29_003": "16004", "P29_004": "厚木中央高等学校", "P29_005": "神奈川県厚木市恩名1-17-18", "P29_006": "4", "P29_007": "0", "P29_008": "00", "P29_009": null }, "geometry": { "type": "Point", "coordinates": [ 139.354033405688341, 35.436985196337673 ] } },
{ "type": "Feature", "properties": { "P29_001": "14213", "P29_002": "D114321300020", "P29_003": "16004", "P29_004": "柏木学園高等学校", "P29_005": "神奈川県大和市深見西4-4-22", "P29_006": "4", "P29_007": "0", "P29_008": "00", "P29_009": null }, "geometry": { "type": "Point", "coordinates": [ 139.460136961406846, 35.482164039139974 ] } },
{ "type": "Feature", "properties": { "P29_001": "14214", "P29_002": "D114321400010", "P29_003": "16004", "P29_004": "向上高等学校", "P29_005": "神奈川県伊勢原市見附島411", "P29_006": "4", "P29_007": "0", "P29_008": "00", "P29_009": null }, "geometry": { "type": "Point", "coordinates": [ 139.340661603672515, 35.40524742061281 ] } },
{ "type": "Feature", "properties": { "P29_001": "14363", "P29_002": "D114336300019", "P29_003": "16004", "P29_004": "立花学園高等学校", "P29_005": "神奈川県足柄上郡松田町松田惣領307-2", "P29_006": "4", "P29_007": "0", "P29_008": "00", "P29_009": null }, "geometry": { "type": "Point", "coordinates": [ 139.140272975495492, 35.340719844485385 ] } },
{ "type": "Feature", "properties": { "P29_001": "14364", "P29_002": "D114336400018", "P29_003": "16004", "P29_004": "鹿島山北高等学校", "P29_005": "神奈川県足柄上郡山北町中川921-87", "P29_006": "4", "P29_007": "0", "P29_008": "00", "P29_009": null }, "geometry": { "type": "Point", "coordinates": [ 139.045463790354916, 35.415736779842405 ] } },
{ "type": "Feature", "properties": { "P29_001": "14111", "P29_002": "D114210010133", "P29_003": "16004", "P29_004": "神奈川県立横浜明朋高等学校", "P29_005": "神奈川県横浜市港南区港南台9-18-1", "P29_006": "2", "P29_007": "0", "P29_008": "00", "P29_009": null }, "geometry": { "type": "Point", "coordinates": [ 139.573695065148826, 35.370978952677504 ] } },
{ "type": "Feature", "properties": { "P29_001": "14111", "P29_002": "D114210010142", "P29_003": "16004", "P29_004": "神奈川県立永谷高等学校", "P29_005": "神奈川県横浜市港南区下永谷1-28-1", "P29_006": "2", "P29_007": "0", "P29_008": "00", "P29_009": null }, "geometry": { "type": "Point", "coordinates": [ 139.564179084546254, 35.413447700402301 ] } },
{ "type": "Feature", "properties": { "P29_001": "14106", "P29_002": "D114210010160", "P29_003": "16004", "P29_004": "神奈川県立商工高等学校", "P29_005": "神奈川県横浜市保土ケ谷区今井町743", "P29_006": "2", "P29_007": "0", "P29_008": "00", "P29_009": null }, "geometry": { "type": "Point", "coordinates": [ 139.553636954496994, 35.451131085614321 ] } },
{ "type": "Feature", "properties": { "P29_001": "14107", "P29_002": "D114210010222", "P29_003": "16004", "P29_004": "神奈川県立磯子工業高等学校", "P29_005": "神奈川県横浜市磯子区森5-24-1", "P29_006": "2", "P29_007": "0", "P29_008": "00", "P29_009": null }, "geometry": { "type": "Point", "coordinates": [ 139.604539944776292, 35.390920415205791 ] } },
{ "type": "Feature", "properties": { "P29_001": "14108", "P29_002": "D114210010259", "P29_003": "16004", "P29_004": "神奈川県立釜利谷高等学校", "P29_005": "神奈川県横浜市金沢区釜利谷東4-58-1", "P29_006": "2", "P29_007": "0", "P29_008": "00", "P29_009": null }, "geometry": { "type": "Point", "coordinates": [ 139.608481715105484, 35.351651849978857 ] } },
{ "type": "Feature", "properties": { "P29_001": "14118", "P29_002": "D114210010348", "P29_003": "16004", "P29_004": "神奈川県立川和高等学校", "P29_005": "神奈川県横浜市都筑区川和町2226-1", "P29_006": "2", "P29_007": "0", "P29_008": "00", "P29_009": null }, "geometry": { "type": "Point", "coordinates": [ 139.55249082236648, 35.537593930855564 ] } },
{ "type": "Feature", "properties": { "P29_001": "14110", "P29_002": "D114210010375", "P29_003": "16004", "P29_004": "神奈川県立舞岡高等学校", "P29_005": "神奈川県横浜市戸塚区南舞岡3-36-1", "P29_006": "2", "P29_007": "0", "P29_008": "00", "P29_009": null }, "geometry": { "type": "Point", "coordinates": [ 139.555082770109948, 35.39598061168482 ] } },
{ "type": "Feature", "properties": { "P29_001": "14114", "P29_002": "D114210010482", "P29_003": "16004", "P29_004": "神奈川県立横浜瀬谷高等学校", "P29_005": "神奈川県横浜市瀬谷区東野台29-1", "P29_006": "2", "P29_007": "0", "P29_008": "00", "P29_009": null }, "geometry": { "type": "Point", "coordinates": [ 139.498799480820026, 35.478475842098 ] } },
{ "type": "Feature", "properties": { "P29_001": "14108", "P29_002": "D114210020033", "P29_003": "16004", "P29_004": "横浜市立金沢高等学校", "P29_005": "神奈川県横浜市金沢区瀬戸22-1", "P29_006": "3", "P29_007": "0", "P29_008": "00", "P29_009": null }, "geometry": { "type": "Point", "coordinates": [ 139.618163554089307, 35.334949448911402 ] } },
{ "type": "Feature", "properties": { "P29_001": "14101", "P29_002": "D114210020051", "P29_003": "16004", "P29_004": "横浜市立東高等学校", "P29_005": "神奈川県横浜市鶴見区馬場3-5-1", "P29_006": "3", "P29_007": "0", "P29_008": "00", "P29_009": null }, "geometry": { "type": "Point", "coordinates": [ 139.651295418409518, 35.5050987239051 ] } },
{ "type": "Feature", "properties": { "P29_001": "14133", "P29_002": "D114213010039", "P29_003": "16004", "P29_004": "神奈川県立川崎工科高等学校", "P29_005": "神奈川県川崎市中原区上平間1700-7", "P29_006": "2", "P29_007": "0", "P29_008": "00", "P29_009": null }, "geometry": { "type": "Point", "coordinates": [ 139.675038026853969, 35.557492445900877 ] } },
{ "type": "Feature", "properties": { "P29_001": "14133", "P29_002": "D114213020046", "P29_003": "16004", "P29_004": "川崎市立橘高等学校", "P29_005": "神奈川県川崎市中原区中丸子562", "P29_006": "3", "P29_007": "0", "P29_008": "00", "P29_009": null }, "geometry": { "type": "Point", "coordinates": [ 139.667198659470955, 35.567376731095067 ] } },
{ "type": "Feature", "properties": { "P29_001": "14151", "P29_002": "D114215010052", "P29_003": "16004", "P29_004": "神奈川県立津久井高等学校", "P29_005": "神奈川県相模原市緑区三ケ木272-1", "P29_006": "2", "P29_007": "0", "P29_008": "00", "P29_009": null }, "geometry": { "type": "Point", "coordinates": [ 139.231213070207957, 35.588360031829417 ] } },
{ "type": "Feature", "properties": { "P29_001": "14152", "P29_002": "D114215010070", "P29_003": "16004", "P29_004": "神奈川県立相模原高等学校", "P29_005": "神奈川県相模原市中央区横山1-7-20", "P29_006": "2", "P29_007": "0", "P29_008": "00", "P29_009": null }, "geometry": { "type": "Point", "coordinates": [ 139.365741903789967, 35.568231517238061 ] } },
{ "type": "Feature", "properties": { "P29_001": "14152", "P29_002": "D114215010098", "P29_003": "16004", "P29_004": "神奈川県立相模原弥栄高等学校", "P29_005": "神奈川県相模原市中央区弥栄3-1-8", "P29_006": "2", "P29_007": "0", "P29_008": "00", "P29_009": null }, "geometry": { "type": "Point", "coordinates": [ 139.388533864743181, 35.556314039963759 ] } },
{ "type": "Feature", "properties": { "P29_001": "14151", "P29_002": "D114215010142", "P29_003": "16004", "P29_004": "神奈川県立相模原城山高等学校", "P29_005": "神奈川県相模原市緑区城山1-26-1", "P29_006": "2", "P29_007": "0", "P29_008": "00", "P29_009": null }, "geometry": { "type": "Point", "coordinates": [ 139.28692992596396, 35.586980254037243 ] } },
{ "type": "Feature", "properties": { "P29_001": "14201", "P29_002": "D114220110042", "P29_003": "16004", "P29_004": "神奈川県立海洋科学高等学校", "P29_005": "神奈川県横須賀市長坂1-2-1", "P29_006": "2", "P29_007": "0", "P29_008": "00", "P29_009": null }, "geometry": { "type": "Point", "coordinates": [ 139.628587043379724, 35.221878479355773 ] } },
{ "type": "Feature", "properties": { "P29_001": "14201", "P29_002": "D114220110079", "P29_003": "16004", "P29_004": "神奈川県立横須賀南高等学校", "P29_005": "神奈川県横須賀市佐原4-20-1", "P29_006": "2", "P29_007": "0", "P29_008": "00", "P29_009": null }, "geometry": { "type": "Point", "coordinates": [ 139.688832330735664, 35.237026619249491 ] } },
{ "type": "Feature", "properties": { "P29_001": "14203", "P29_002": "D114220310031", "P29_003": "16004", "P29_004": "神奈川県立平塚工科高等学校", "P29_005": "神奈川県平塚市黒部丘12-7", "P29_006": "2", "P29_007": "0", "P29_008": "00", "P29_009": null }, "geometry": { "type": "Point", "coordinates": [ 139.337175944031969, 35.321844270883652 ] } },
{ "type": "Feature", "properties": { "P29_001": "14205", "P29_002": "D114220510011", "P29_003": "16004", "P29_004": "神奈川県立湘南高等学校", "P29_005": "神奈川県藤沢市鵠沼神明5-6-10", "P29_006": "2", "P29_007": "0", "P29_008": "00", "P29_009": null }, "geometry": { "type": "Point", "coordinates": [ 139.472724216199424, 35.344656059136554 ] } },
{ "type": "Feature", "properties": { "P29_001": "14205", "P29_002": "D114220510048", "P29_003": "16004", "P29_004": "神奈川県立藤沢清流高等学校", "P29_005": "神奈川県藤沢市大鋸1450", "P29_006": "2", "P29_007": "0", "P29_008": "00", "P29_009": null }, "geometry": { "type": "Point", "coordinates": [ 139.483749843679419, 35.355531811282624 ] } },
{ "type": "Feature", "properties": { "P29_001": "14206", "P29_002": "D114220610029", "P29_003": "16004", "P29_004": "神奈川県立小田原東高等学校", "P29_005": "神奈川県小田原市東町4-12-1", "P29_006": "2", "P29_007": "0", "P29_008": "00", "P29_009": null }, "geometry": { "type": "Point", "coordinates": [ 139.179150077855752, 35.260767226807239 ] } },
{ "type": "Feature", "properties": { "P29_001": "14206", "P29_002": "D114220610047", "P29_003": "16004", "P29_004": "神奈川県立小田原城北工業高等学校", "P29_005": "神奈川県小田原市栢山200", "P29_006": "2", "P29_007": "0", "P29_008": "00", "P29_009": null }, "geometry": { "type": "Point", "coordinates": [ 139.145726566708646, 35.313865968370983 ] } },
{ "type": "Feature", "properties": { "P29_001": "14207", "P29_002": "D114220710028", "P29_003": "16004", "P29_004": "神奈川県立茅ケ崎北陵高等学校", "P29_005": "神奈川県茅ヶ崎市下寺尾128", "P29_006": "2", "P29_007": "0", "P29_008": "00", "P29_009": null }, "geometry": { "type": "Point", "coordinates": [ 139.397285981038664, 35.36185713524344 ] } },
{ "type": "Feature", "properties": { "P29_001": "14207", "P29_002": "D114220710046", "P29_003": "16004", "P29_004": "神奈川県立茅ケ崎西浜高等学校", "P29_005": "神奈川県茅ヶ崎市南湖7-12869-11", "P29_006": "2", "P29_007": "0", "P29_008": "00", "P29_009": null }, "geometry": { "type": "Point", "coordinates": [ 139.387492006018078, 35.319123906294458 ] } },
{ "type": "Feature", "properties": { "P29_001": "14208", "P29_002": "D114220810036", "P29_003": "16004", "P29_004": "神奈川県立逗子葉山高等学校", "P29_005": "神奈川県逗子市桜山5-24-1", "P29_006": "2", "P29_007": "0", "P29_008": "00", "P29_009": null }, "geometry": { "type": "Point", "coordinates": [ 139.597149387963498, 35.291736129304034 ] } },
{ "type": "Feature", "properties": { "P29_001": "14212", "P29_002": "D114221210021", "P29_003": "16004", "P29_004": "神奈川県立厚木東高等学校", "P29_005": "神奈川県厚木市王子1-1-1", "P29_006": "2", "P29_007": "0", "P29_008": "00", "P29_009": null }, "geometry": { "type": "Point", "coordinates": [ 139.344895018167904, 35.45640560959265 ] } },
{ "type": "Feature", "properties": { "P29_001": "14214", "P29_002": "D114221410029", "P29_003": "16004", "P29_004": "神奈川県立伊志田高等学校", "P29_005": "神奈川県伊勢原市石田1356-1", "P29_006": "2", "P29_007": "0", "P29_008": "00", "P29_009": null }, "geometry": { "type": "Point", "coordinates": [ 139.346155514787768, 35.413407723348051 ] } },
{ "type": "Feature", "properties": { "P29_001": "14341", "P29_002": "D114234110016", "P29_003": "16004", "P29_004": "神奈川県立大磯高等学校", "P29_005": "神奈川県中郡大磯町東町2-9-1", "P29_006": "2", "P29_007": "0", "P29_008": "00", "P29_009": null }, "geometry": { "type": "Point", "coordinates": [ 139.324637466703791, 35.312642396008371 ] } },
{ "type": "Feature", "properties": { "P29_001": "14102", "P29_002": "D114310000062", "P29_003": "16004", "P29_004": "浅野高等学校", "P29_005": "神奈川県横浜市神奈川区子安台1-3-1", "P29_006": "4", "P29_007": "0", "P29_008": "00", "P29_009": null }, "geometry": { "type": "Point", "coordinates": [ 139.659462671822865, 35.490718408924366 ] } },
{ "type": "Feature", "properties": { "P29_001": "14102", "P29_002": "D114310000099", "P29_003": "16004", "P29_004": "捜真女学校高等学部", "P29_005": "神奈川県横浜市神奈川区中丸8", "P29_006": "4", "P29_007": "0", "P29_008": "00", "P29_009": null }, "geometry": { "type": "Point", "coordinates": [ 139.620254115390793, 35.481222638133914 ] } },
{ "type": "Feature", "properties": { "P29_001": "14104", "P29_002": "D114310000133", "P29_003": "16004", "P29_004": "横浜女学院高等学校", "P29_005": "神奈川県横浜市中区山手町203", "P29_006": "4", "P29_007": "0", "P29_008": "00", "P29_009": null }, "geometry": { "type": "Point", "coordinates": [ 139.640235116299095, 35.436194544507195 ] } },
{ "type": "Feature", "properties": { "P29_001": "14108", "P29_002": "D114310000197", "P29_003": "16004", "P29_004": "関東学院六浦高等学校", "P29_005": "神奈川県横浜市金沢区六浦東1-50-1", "P29_006": "4", "P29_007": "0", "P29_008": "00", "P29_009": null }, "geometry": { "type": "Point", "coordinates": [ 139.624768929216657, 35.323771746451484 ] } },
{ "type": "Feature", "properties": { "P29_001": "14109", "P29_002": "D114310000222", "P29_003": "16004", "P29_004": "慶應義塾高等学校", "P29_005": "神奈川県横浜市港北区日吉4-1-2", "P29_006": "4", "P29_007": "0", "P29_008": "00", "P29_009": null }, "geometry": { "type": "Point", "coordinates": [ 139.649975956997167, 35.551514522571679 ] } },
{ "type": "Feature", "properties": { "P29_001": "14112", "P29_002": "D114310000295", "P29_003": "16004", "P29_004": "星槎高等学校", "P29_005": "神奈川県横浜市旭区若葉台4-35-1", "P29_006": "4", "P29_007": "0", "P29_008": "00", "P29_009": null }, "geometry": { "type": "Point", "coordinates": [ 139.493084086472919, 35.505020762032913 ] } },
{ "type": "Feature", "properties": { "P29_001": "14114", "P29_002": "D114310000348", "P29_003": "16004", "P29_004": "横浜隼人高等学校", "P29_005": "神奈川県横浜市瀬谷区阿久和南1-3-1", "P29_006": "4", "P29_007": "0", "P29_008": "00", "P29_009": null }, "geometry": { "type": "Point", "coordinates": [ 139.508964301651389, 35.44638009617767 ] } },
{ "type": "Feature", "properties": { "P29_001": "14133", "P29_002": "D114313000020", "P29_003": "16004", "P29_004": "法政大学第二高等学校", "P29_005": "神奈川県川崎市中原区木月大町6-1", "P29_006": "4", "P29_007": "0", "P29_008": "00", "P29_009": null }, "geometry": { "type": "Point", "coordinates": [ 139.651428662885507, 35.571205162362808 ] } },
{ "type": "Feature", "properties": { "P29_001": "14135", "P29_002": "D114313000057", "P29_003": "16004", "P29_004": "日本女子大学附属高等学校", "P29_005": "神奈川県川崎市多摩区西生田1-1-1", "P29_006": "4", "P29_007": "0", "P29_008": "00", "P29_009": null }, "geometry": { "type": "Point", "coordinates": [ 139.52739127743439, 35.619012427011526 ] } },
{ "type": "Feature", "properties": { "P29_001": "14201", "P29_002": "D114320100015", "P29_003": "16004", "P29_004": "湘南学院高等学校", "P29_005": "神奈川県横須賀市佐原2-2-20", "P29_006": "4", "P29_007": "0", "P29_008": "00", "P29_009": null }, "geometry": { "type": "Point", "coordinates": [ 139.68530627009406, 35.244066045844917 ] } },
{ "type": "Feature", "properties": { "P29_001": "14203", "P29_002": "D114320300013", "P29_003": "16004", "P29_004": "平塚学園高等学校", "P29_005": "神奈川県平塚市高浜台31-19", "P29_006": "4", "P29_007": "0", "P29_008": "00", "P29_009": null }, "geometry": { "type": "Point", "coordinates": [ 139.358146448075416, 35.318585263936619 ] } },
{ "type": "Feature", "properties": { "P29_001": "14204", "P29_002": "D114320400012", "P29_003": "16004", "P29_004": "栄光学園高等学校", "P29_005": "神奈川県鎌倉市玉縄4-1-1", "P29_006": "4", "P29_007": "0", "P29_008": "00", "P29_009": null }, "geometry": { "type": "Point", "coordinates": [ 139.52009339972571, 35.356377435106594 ] } },
{ "type": "Feature", "properties": { "P29_001": "14204", "P29_002": "D114320400021", "P29_003": "16004", "P29_004": "鎌倉学園高等学校", "P29_005": "神奈川県鎌倉市山ノ内110", "P29_006": "4", "P29_007": "0", "P29_008": "00", "P29_009": null }, "geometry": { "type": "Point", "coordinates": [ 139.553102573183679, 35.331001030366913 ] } },
{ "type": "Feature", "properties": { "P29_001": "14204", "P29_002": "D114320400049", "P29_003": "16004", "P29_004": "北鎌倉女子学園高等学校", "P29_005": "神奈川県鎌倉市山ノ内913", "P29_006": "4", "P29_007": "0", "P29_008": "00", "P29_009": null }, "geometry": { "type": "Point", "coordinates": [ 139.541664374595797, 35.337141223862993 ] } },
{ "type": "Feature", "properties": { "P29_001": "14204", "P29_002": "D114320400067", "P29_003": "16004", "P29_004": "清泉女学院高等学校", "P29_005": "神奈川県鎌倉市城廻200", "P29_006": "4", "P29_007": "0", "P29_008": "00", "P29_009": null }, "geometry": { "type": "Point", "coordinates": [ 139.513699629302948, 35.354044136481747 ] } },
{ "type": "Feature", "properties": { "P29_001": "14205", "P29_002": "D114320500020", "P29_003": "16004", "P29_004": "湘南工科大学附属高等学校", "P29_005": "神奈川県藤沢市辻堂西海岸1-1-25", "P29_006": "4", "P29_007": "0", "P29_008": "00", "P29_009": null }, "geometry": { "type": "Point", "coordinates": [ 139.451193533522826, 35.32508928647561 ] } },
{ "type": "Feature", "properties": { "P29_001": "14205", "P29_002": "D114320500048", "P29_003": "16004", "P29_004": "湘南白百合学園高等学校", "P29_005": "神奈川県藤沢市片瀬目白山4-1", "P29_006": "4", "P29_007": "0", "P29_008": "00", "P29_009": null }, "geometry": { "type": "Point", "coordinates": [ 139.49078289599521, 35.316045074316861 ] } },
{ "type": "Feature", "properties": { "P29_001": "14205", "P29_002": "D114320500057", "P29_003": "16004", "P29_004": "日本大学藤沢高等学校", "P29_005": "神奈川県藤沢市亀井野1866", "P29_006": "4", "P29_007": "0", "P29_008": "00", "P29_009": null }, "geometry": { "type": "Point", "coordinates": [ 139.470349115260547, 35.378125305045693 ] } },
{ "type": "Feature", "properties": { "P29_001": "14205", "P29_002": "D114320500075", "P29_003": "16004", "P29_004": "藤沢翔陵高等学校", "P29_005": "神奈川県藤沢市善行7-1-3", "P29_006": "4", "P29_007": "0", "P29_008": "00", "P29_009": null }, "geometry": { "type": "Point", "coordinates": [ 139.474320936437095, 35.361544599413499 ] } },
{ "type": "Feature", "properties": { "P29_001": "14207", "P29_002": "D114320700019", "P29_003": "16004", "P29_004": "アレセイア湘南高等学校", "P29_005": "神奈川県茅ヶ崎市富士見町5-2", "P29_006": "4", "P29_007": "0", "P29_008": "00", "P29_009": null }, "geometry": { "type": "Point", "coordinates": [ 139.43228436296647, 35.324916195635957 ] } },
{ "type": "Feature", "properties": { "P29_001": "14213", "P29_002": "D114321300011", "P29_003": "16004", "P29_004": "聖セシリア女子高等学校", "P29_005": "神奈川県大和市南林間3-10-1", "P29_006": "4", "P29_007": "0", "P29_008": "00", "P29_009": null }, "geometry": { "type": "Point", "coordinates": [ 139.445158229298329, 35.50043920137847 ] } },
{ "type": "Feature", "properties": { "P29_001": "14382", "P29_002": "D114338200016", "P29_003": "16004", "P29_004": "函嶺白百合学園高等学校", "P29_005": "神奈川県足柄下郡箱根町強羅1320", "P29_006": "4", "P29_007": "0", "P29_008": "00", "P29_009": null }, "geometry": { "type": "Point", "coordinates": [ 139.046707026158685, 35.251396840997892 ] } },
{ "type": "Feature", "properties": { "P29_001": "14107", "P29_002": "D114210020060", "P29_003": "16004", "P29_004": "横浜市立横浜商業高等学校", "P29_005": "神奈川県横浜市磯子区丸山1-22-21", "P29_006": "3", "P29_007": "0", "P29_008": "02", "P29_009": "別科" }, "geometry": { "type": "Point", "coordinates": [ 139.620696103635112, 35.423962952248075 ] } }
]
}
