{
"type": "FeatureCollection",
"name": "geo_14_特定施設入居者生活介護（有料老人ホーム（サービス付き高齢者向け住宅））",
"crs": { "type": "name", "properties": { "name": "urn:ogc:def:crs:OGC:1.3:CRS84" } },
"features": [
{ "type": "Feature", "properties": { "内容": "ココファン片倉【特定施設入居者生活介護（有料老人ホーム（サービス付き高齢者向け住宅））】神奈川県横浜市神奈川区片倉1-23-26ココファン片倉", "url": "https://www.kaigokensaku.mhlw.go.jp/14/index.php?action_kouhyou_detail_004_kani=true&JigyosyoCd=1470203397-00&ServiceCd=&Type=search", "url2": "https://www.cocofump.co.jp/facilities/katakura" }, "geometry": { "type": "Point", "coordinates": [ 139.6050334, 35.4874627 ] } },
{ "type": "Feature", "properties": { "内容": "ココファン横浜前里【特定施設入居者生活介護（有料老人ホーム（サービス付き高齢者向け住宅））】神奈川県横浜市南区前里町4-93-1", "url": "https://www.kaigokensaku.mhlw.go.jp/14/index.php?action_kouhyou_detail_004_kani=true&JigyosyoCd=1470503416-00&ServiceCd=&Type=search", "url2": "https://www.cocofump.co.jp/facilities/detail/yokohama-maesato/price/" }, "geometry": { "type": "Point", "coordinates": [ 139.6182351, 35.4385982 ] } },
{ "type": "Feature", "properties": { "内容": "ココファン日吉７丁目【特定施設入居者生活介護（有料老人ホーム（サービス付き高齢者向け住宅））】神奈川県横浜市港北区日吉7-6-21", "url": "https://www.kaigokensaku.mhlw.go.jp/14/index.php?action_kouhyou_detail_004_kani=true&JigyosyoCd=1470904069-00&ServiceCd=&Type=search", "url2": "https://www.cocofump.co.jp/" }, "geometry": { "type": "Point", "coordinates": [ 139.648811, 35.5450208 ] } },
{ "type": "Feature", "properties": { "内容": "クラシック・コミュニティ横浜【特定施設入居者生活介護（有料老人ホーム（サービス付き高齢者向け住宅））】神奈川県横浜市戸塚区戸塚町１９７８－１クラシック・コミュニティ横浜", "url": "https://www.kaigokensaku.mhlw.go.jp/14/index.php?action_kouhyou_detail_004_kani=true&JigyosyoCd=1471001659-00&ServiceCd=&Type=search", "url2": "https://www.sykz.co.jp/shisetsu/192" }, "geometry": { "type": "Point", "coordinates": [ 139.516180800000029, 35.384595 ] } },
{ "type": "Feature", "properties": { "内容": "ホームステーション二俣川【特定施設入居者生活介護（有料老人ホーム（サービス付き高齢者向け住宅））】神奈川県横浜市旭区本宿町66-2", "url": "https://www.kaigokensaku.mhlw.go.jp/14/index.php?action_kouhyou_detail_004_kani=true&JigyosyoCd=1473200804-00&ServiceCd=&Type=search", "url2": "https://www.life-silver.com/" }, "geometry": { "type": "Point", "coordinates": [ 139.5427573, 35.462654 ] } },
{ "type": "Feature", "properties": { "内容": "ミモザ横濱青葉グリーングラス【特定施設入居者生活介護（有料老人ホーム（サービス付き高齢者向け住宅））】神奈川県横浜市緑区北八朔町1974-1", "url": "https://www.kaigokensaku.mhlw.go.jp/14/index.php?action_kouhyou_detail_004_kani=true&JigyosyoCd=1473302998-00&ServiceCd=&Type=search", "url2": "https://mimoza-care.com/facility/paid-nursing-home/post-230/" }, "geometry": { "type": "Point", "coordinates": [ 139.535122800000011, 35.5292245 ] } },
{ "type": "Feature", "properties": { "内容": "ホームステーション武蔵新城【特定施設入居者生活介護（有料老人ホーム（サービス付き高齢者向け住宅））】神奈川県川崎市中原区下新城2-7-33", "url": "https://www.kaigokensaku.mhlw.go.jp/14/index.php?action_kouhyou_detail_004_kani=true&JigyosyoCd=1475201727-00&ServiceCd=&Type=search", "url2": "https://www.life-silver.com/life_facility/kanagawa/musashishinjyo.html" }, "geometry": { "type": "Point", "coordinates": [ 139.631236400000034, 35.5773738 ] } },
{ "type": "Feature", "properties": { "内容": "アクア相模原６丁目【特定施設入居者生活介護（有料老人ホーム（サービス付き高齢者向け住宅））】神奈川県相模原市中央区相模原6-9-3", "url": "https://www.kaigokensaku.mhlw.go.jp/14/index.php?action_kouhyou_detail_004_kani=true&JigyosyoCd=1472608957-00&ServiceCd=&Type=search", "url2": "https://www.exeo-home.jp/aquagroup/mut_sagamihara6.html" }, "geometry": { "type": "Point", "coordinates": [ 139.373520900000017, 35.574669800000024 ] } },
{ "type": "Feature", "properties": { "内容": "ホッとライブ横山台【特定施設入居者生活介護（有料老人ホーム（サービス付き高齢者向け住宅））】神奈川県相模原市中央区横山台２－５－１門倉センタービル4階", "url": "https://www.kaigokensaku.mhlw.go.jp/14/index.php?action_kouhyou_detail_004_kani=true&JigyosyoCd=1472604196-00&ServiceCd=&Type=search", "url2": "https://www.like-cn.co.jp/homes/hot-live/yokoyamadai.html" }, "geometry": { "type": "Point", "coordinates": [ 139.360202800000025, 35.5666359 ] } },
{ "type": "Feature", "properties": { "内容": "ライブラリ淵野辺【特定施設入居者生活介護（有料老人ホーム（サービス付き高齢者向け住宅））】神奈川県相模原市中央区相生1-6-24", "url": "https://www.kaigokensaku.mhlw.go.jp/14/index.php?action_kouhyou_detail_004_kani=true&JigyosyoCd=1472610755-00&ServiceCd=&Type=search", "url2": "https://www.living-platform.com/care/57" }, "geometry": { "type": "Point", "coordinates": [ 139.387054, 35.5656579 ] } },
{ "type": "Feature", "properties": { "内容": "ライブラリ相模大野南【特定施設入居者生活介護（有料老人ホーム（サービス付き高齢者向け住宅））】神奈川県相模原市南区相模大野7丁目37-10ライブラリ相模大野南", "url": "https://www.kaigokensaku.mhlw.go.jp/14/index.php?action_kouhyou_detail_004_kani=true&JigyosyoCd=1472610763-00&ServiceCd=&Type=search", "url2": "https://www.living-platform.com/care/55" }, "geometry": { "type": "Point", "coordinates": [ 139.443328573016316, 35.528981835685343 ] } },
{ "type": "Feature", "properties": { "内容": "ホームステーション小田急相模原【特定施設入居者生活介護（有料老人ホーム（サービス付き高齢者向け住宅））】神奈川県相模原市南区相南4-24-55", "url": "https://www.kaigokensaku.mhlw.go.jp/14/index.php?action_kouhyou_detail_004_kani=true&JigyosyoCd=1472606498-00&ServiceCd=&Type=search", "url2": "https://www.life-silver.com/life_facility/kanagawa/odakyusagamihara.html" }, "geometry": { "type": "Point", "coordinates": [ 139.424017721681253, 35.514374644658595 ] } },
{ "type": "Feature", "properties": { "内容": "ローズハイツ【特定施設入居者生活介護（有料老人ホーム（サービス付き高齢者向け住宅））】神奈川県横須賀市光風台３５－３３", "url": "https://www.kaigokensaku.mhlw.go.jp/14/index.php?action_kouhyou_detail_004_kani=true&JigyosyoCd=1471904142-00&ServiceCd=&Type=search", "url2": "http://rose-h.co.jp" }, "geometry": { "type": "Point", "coordinates": [ 139.713604700000019, 35.2393924 ] } },
{ "type": "Feature", "properties": { "内容": "住まいるClass池上【特定施設入居者生活介護（有料老人ホーム（サービス付き高齢者向け住宅））】神奈川県横須賀市池上3-3-3住まいるClass池上", "url": "https://www.kaigokensaku.mhlw.go.jp/14/index.php?action_kouhyou_detail_004_kani=true&JigyosyoCd=1471906246-00&ServiceCd=&Type=search", "url2": "http://smile-kaigo.net/" }, "geometry": { "type": "Point", "coordinates": [ 139.647654255819702, 35.262730003667443 ] } },
{ "type": "Feature", "properties": { "内容": "ふるさとホーム平塚【特定施設入居者生活介護（有料老人ホーム（サービス付き高齢者向け住宅））】神奈川県平塚市東真土1丁目２－３０", "url": "https://www.kaigokensaku.mhlw.go.jp/14/index.php?action_kouhyou_detail_004_kani=true&JigyosyoCd=1472004363-00&ServiceCd=&Type=search", "url2": null }, "geometry": { "type": "Point", "coordinates": [ 139.350365, 35.353536 ] } },
{ "type": "Feature", "properties": { "内容": "ホームステーション　小田原【特定施設入居者生活介護（有料老人ホーム（サービス付き高齢者向け住宅））】神奈川県小田原市東町５丁目１３－４４", "url": "https://www.kaigokensaku.mhlw.go.jp/14/index.php?action_kouhyou_detail_004_kani=true&JigyosyoCd=1472302999-00&ServiceCd=&Type=search", "url2": "https://www.life-silver.com/life_facility/kanagawa/odawara.html" }, "geometry": { "type": "Point", "coordinates": [ 139.177134600000045, 35.260826 ] } },
{ "type": "Feature", "properties": { "内容": "花珠の家はだの【特定施設入居者生活介護（有料老人ホーム（サービス付き高齢者向け住宅））】神奈川県秦野市今泉６９６－１", "url": "https://www.kaigokensaku.mhlw.go.jp/14/index.php?action_kouhyou_detail_004_kani=true&JigyosyoCd=1472802519-00&ServiceCd=&Type=search", "url2": "http://jala.co.jp" }, "geometry": { "type": "Point", "coordinates": [ 139.216207700000012, 35.3661608 ] } },
{ "type": "Feature", "properties": { "内容": "ディーフェスタクオーレ秦野【特定施設入居者生活介護（有料老人ホーム（サービス付き高齢者向け住宅））】神奈川県秦野市曽屋5592-6", "url": "https://www.kaigokensaku.mhlw.go.jp/14/index.php?action_kouhyou_detail_004_kani=true&JigyosyoCd=1472802329-00&ServiceCd=&Type=search", "url2": "https://www.daiwaliving-care.co.jp/d-festa/cuore-hadano/" }, "geometry": { "type": "Point", "coordinates": [ 139.248086, 35.365238 ] } },
{ "type": "Feature", "properties": { "内容": "ふるさとホーム厚木三田【特定施設入居者生活介護（有料老人ホーム（サービス付き高齢者向け住宅））】神奈川県厚木市三田2丁目25番1号ふるさとホーム厚木三田", "url": "https://www.kaigokensaku.mhlw.go.jp/14/index.php?action_kouhyou_detail_004_kani=true&JigyosyoCd=1472902434-00&ServiceCd=&Type=search", "url2": null }, "geometry": { "type": "Point", "coordinates": [ 139.3505648, 35.4771691 ] } },
{ "type": "Feature", "properties": { "内容": "ふるさとホーム本厚木【特定施設入居者生活介護（有料老人ホーム（サービス付き高齢者向け住宅））】神奈川県厚木市恩名5-3-30", "url": "https://www.kaigokensaku.mhlw.go.jp/14/index.php?action_kouhyou_detail_004_kani=true&JigyosyoCd=1472902442-00&ServiceCd=&Type=search", "url2": null }, "geometry": { "type": "Point", "coordinates": [ 139.341662600000063, 35.44422 ] } },
{ "type": "Feature", "properties": { "内容": "ふるさとホーム厚木妻田【特定施設入居者生活介護（有料老人ホーム（サービス付き高齢者向け住宅））】神奈川県厚木市妻田西三丁目1-14", "url": "https://www.kaigokensaku.mhlw.go.jp/14/index.php?action_kouhyou_detail_004_kani=true&JigyosyoCd=1472902921-00&ServiceCd=&Type=search", "url2": null }, "geometry": { "type": "Point", "coordinates": [ 139.3565898, 35.4630691 ] } },
{ "type": "Feature", "properties": { "内容": "ふるさとホーム厚木上依知【特定施設入居者生活介護（有料老人ホーム（サービス付き高齢者向け住宅））】神奈川県厚木市上依知1465", "url": "https://www.kaigokensaku.mhlw.go.jp/14/index.php?action_kouhyou_detail_004_kani=true&JigyosyoCd=1472902988-00&ServiceCd=&Type=search", "url2": "http://www.vati.co.jp/" }, "geometry": { "type": "Point", "coordinates": [ 139.362881064418019, 35.511707832434041 ] } },
{ "type": "Feature", "properties": { "内容": "小町山グリーンホーム【特定施設入居者生活介護（有料老人ホーム（サービス付き高齢者向け住宅））】神奈川県厚木市小野2240番地1", "url": "https://www.kaigokensaku.mhlw.go.jp/14/index.php?action_kouhyou_detail_004_kani=true&JigyosyoCd=1472902376-00&ServiceCd=&Type=search", "url2": "https://seiryukai1989.com/kygh/" }, "geometry": { "type": "Point", "coordinates": [ 139.313886308181765, 35.436942821848895 ] } },
{ "type": "Feature", "properties": { "内容": "介護付有料老人ホーム「健康倶楽部館　ファンコート厚木」【特定施設入居者生活介護（有料老人ホーム（サービス付き高齢者向け住宅））】神奈川県厚木市上依知181番地", "url": "https://www.kaigokensaku.mhlw.go.jp/14/index.php?action_kouhyou_detail_004_kani=true&JigyosyoCd=1472902343-00&ServiceCd=&Type=search", "url2": "http://www.heiseikai-atsugi.com/" }, "geometry": { "type": "Point", "coordinates": [ 139.364136799999983, 35.516989700000018 ] } },
{ "type": "Feature", "properties": { "内容": "ホームステーション大和【特定施設入居者生活介護（有料老人ホーム（サービス付き高齢者向け住宅））】神奈川県大和市深見台1-9-6", "url": "https://www.kaigokensaku.mhlw.go.jp/14/index.php?action_kouhyou_detail_004_kani=true&JigyosyoCd=1473000733-00&ServiceCd=&Type=search", "url2": "https://www.life-silver.com/" }, "geometry": { "type": "Point", "coordinates": [ 139.4696414, 35.4655427 ] } },
{ "type": "Feature", "properties": { "内容": "センチュリーガーデンズ東大竹【特定施設入居者生活介護（有料老人ホーム（サービス付き高齢者向け住宅））】神奈川県伊勢原市東大竹2-25-1", "url": "https://www.kaigokensaku.mhlw.go.jp/14/index.php?action_kouhyou_detail_004_kani=true&JigyosyoCd=1474000989-00&ServiceCd=&Type=search", "url2": "http://www.century-gdns.com/" }, "geometry": { "type": "Point", "coordinates": [ 139.306590699999987, 35.394713799999977 ] } },
{ "type": "Feature", "properties": { "内容": "ホームステーション相武台【特定施設入居者生活介護（有料老人ホーム（サービス付き高齢者向け住宅））】神奈川県座間市緑が丘6-26-7", "url": "https://www.kaigokensaku.mhlw.go.jp/14/index.php?action_kouhyou_detail_004_kani=true&JigyosyoCd=1474101068-00&ServiceCd=&Type=search", "url2": "http://www.life-silver.com/kaigo/soubudai/" }, "geometry": { "type": "Point", "coordinates": [ 139.405406399999947, 35.4973637 ] } },
{ "type": "Feature", "properties": { "内容": "あやめの郷　座間【特定施設入居者生活介護（有料老人ホーム（サービス付き高齢者向け住宅））】神奈川県座間市緑ケ丘二丁目28番9号", "url": "https://www.kaigokensaku.mhlw.go.jp/14/index.php?action_kouhyou_detail_004_kani=true&JigyosyoCd=1474101761-00&ServiceCd=&Type=search", "url2": "https://d-hlt.co.jp/" }, "geometry": { "type": "Point", "coordinates": [ 139.411808, 35.4877334 ] } },
{ "type": "Feature", "properties": { "内容": "介護付有料老人ホーム　和らぎ【特定施設入居者生活介護（有料老人ホーム（サービス付き高齢者向け住宅））】神奈川県南足柄市中沼114番地", "url": "https://www.kaigokensaku.mhlw.go.jp/14/index.php?action_kouhyou_detail_004_kani=true&JigyosyoCd=1474300496-00&ServiceCd=&Type=search", "url2": "https://www.yawaragi-kaigo.com/" }, "geometry": { "type": "Point", "coordinates": [ 139.113970076443508, 35.308874963458273 ] } },
{ "type": "Feature", "properties": { "内容": "ロイヤルレジデンス綾瀬【特定施設入居者生活介護（有料老人ホーム（サービス付き高齢者向け住宅））】神奈川県綾瀬市深谷上7-18-7", "url": "https://www.kaigokensaku.mhlw.go.jp/14/index.php?action_kouhyou_detail_004_kani=true&JigyosyoCd=1474400916-00&ServiceCd=&Type=search", "url2": "https://syasouken.com/center/ayase/" }, "geometry": { "type": "Point", "coordinates": [ 139.434964199999968, 35.4417054 ] } },
{ "type": "Feature", "properties": { "内容": "ホームステーション寒川倉見【特定施設入居者生活介護（有料老人ホーム（サービス付き高齢者向け住宅））】神奈川県高座郡寒川町倉見422-1", "url": "https://www.kaigokensaku.mhlw.go.jp/14/index.php?action_kouhyou_detail_004_kani=true&JigyosyoCd=1471200475-00&ServiceCd=&Type=search", "url2": "https://www.life-silver.com/life_facility/kanagawa/kurami.html" }, "geometry": { "type": "Point", "coordinates": [ 139.380327699999953, 35.398109 ] } },
{ "type": "Feature", "properties": { "内容": "介護付き有料老人ホーム　グランデュオ　イルカ【特定施設入居者生活介護（有料老人ホーム（サービス付き高齢者向け住宅））】神奈川県足柄上郡大井町金手1065", "url": "https://www.kaigokensaku.mhlw.go.jp/14/index.php?action_kouhyou_detail_004_kani=true&JigyosyoCd=1471400703-00&ServiceCd=&Type=search", "url2": "http://www.liftec.biz/" }, "geometry": { "type": "Point", "coordinates": [ 139.142596297036789, 35.337712345587953 ] } },
{ "type": "Feature", "properties": { "内容": "介護付き有料老人ホーム　グランデュオイルカ　２号館【特定施設入居者生活介護（有料老人ホーム（サービス付き高齢者向け住宅））】神奈川県足柄上郡大井町金子1012-1", "url": "https://www.kaigokensaku.mhlw.go.jp/14/index.php?action_kouhyou_detail_004_kani=true&JigyosyoCd=1471400901-00&ServiceCd=&Type=search", "url2": "http://www.liftec.biz/" }, "geometry": { "type": "Point", "coordinates": [ 139.146593081032734, 35.333920490450048 ] } },
{ "type": "Feature", "properties": { "内容": "特定施設入居者生活介護　ザ・プライム【特定施設入居者生活介護（有料老人ホーム（サービス付き高齢者向け住宅））】神奈川県足柄上郡開成町延沢６９５－１", "url": "https://www.kaigokensaku.mhlw.go.jp/14/index.php?action_kouhyou_detail_004_kani=true&JigyosyoCd=1471400620-00&ServiceCd=&Type=search", "url2": "https://www.ittokai.or.jp/facility/ザ・プライム/" }, "geometry": { "type": "Point", "coordinates": [ 139.121196700000041, 35.3368884 ] } },
{ "type": "Feature", "properties": { "内容": "ホームステーション真鶴【特定施設入居者生活介護（有料老人ホーム（サービス付き高齢者向け住宅））】神奈川県足柄下郡真鶴町真鶴1359-1", "url": "https://www.kaigokensaku.mhlw.go.jp/14/index.php?action_kouhyou_detail_004_kani=true&JigyosyoCd=1471500908-00&ServiceCd=&Type=search", "url2": "https://www.life-silver.com/life_facility/kanagawa/manaduru.html" }, "geometry": { "type": "Point", "coordinates": [ 139.141853, 35.1487775 ] } },
{ "type": "Feature", "properties": { "内容": "ホームステーション湯河原【特定施設入居者生活介護（有料老人ホーム（サービス付き高齢者向け住宅））】神奈川県足柄下郡湯河原町土肥2丁目14-28", "url": "https://www.kaigokensaku.mhlw.go.jp/14/index.php?action_kouhyou_detail_004_kani=true&JigyosyoCd=1471500791-00&ServiceCd=&Type=search", "url2": "https://www.life-silver.com/life_facility/kanagawa/yugawara.html" }, "geometry": { "type": "Point", "coordinates": [ 139.107411500000012, 35.144072 ] } },
{ "type": "Feature", "properties": { "内容": "ホームステーションかねか湯河原【特定施設入居者生活介護（有料老人ホーム（サービス付き高齢者向け住宅））】神奈川県足柄下郡湯河原町福浦吉浜174-1", "url": "https://www.kaigokensaku.mhlw.go.jp/14/index.php?action_kouhyou_detail_004_kani=true&JigyosyoCd=1471500809-00&ServiceCd=&Type=search", "url2": "https://www.life-silver.com/" }, "geometry": { "type": "Point", "coordinates": [ 139.128342500000031, 35.1508798 ] } }
]
}
