{
"type": "FeatureCollection",
"name": "geo_14_地域密着型介護老人福祉施設入所者生活介護",
"crs": { "type": "name", "properties": { "name": "urn:ogc:def:crs:OGC:1.3:CRS84" } },
"features": [
{ "type": "Feature", "properties": { "内容": "特別養護老人ホーム　ちくぶ坂下ホーム【地域密着型介護老人福祉施設入所者生活介護】神奈川県横浜市磯子区坂下町3-22", "url": "https://www.kaigokensaku.mhlw.go.jp/14/index.php?action_kouhyou_detail_004_kani=true&JigyosyoCd=1490700059-00&ServiceCd=540&Type=search", "url2": "https://takigashira.chikubukai.jp/sakashita/" }, "geometry": { "type": "Point", "coordinates": [ 139.628270899999961, 35.4197806 ] } },
{ "type": "Feature", "properties": { "内容": "特別養護老人ホームしょうじゅの里三保サテライト【地域密着型介護老人福祉施設入所者生活介護】神奈川県横浜市緑区三保町2640-220", "url": "https://www.kaigokensaku.mhlw.go.jp/14/index.php?action_kouhyou_detail_004_kani=true&JigyosyoCd=1493300519-00&ServiceCd=540&Type=search", "url2": "http://www.akaedakai.com/satellite" }, "geometry": { "type": "Point", "coordinates": [ 139.527198282586511, 35.508435473877874 ] } },
{ "type": "Feature", "properties": { "内容": "特別養護老人ホームしょうじゅの里三ツ境【地域密着型介護老人福祉施設入所者生活介護】神奈川県横浜市瀬谷区三ツ境７８－１", "url": "https://www.kaigokensaku.mhlw.go.jp/14/index.php?action_kouhyou_detail_004_kani=true&JigyosyoCd=1493400400-00&ServiceCd=540&Type=search", "url2": "https://kenaikai.akaedakai.com/mitsukyo/" }, "geometry": { "type": "Point", "coordinates": [ 139.505210208598299, 35.459997605103986 ] } },
{ "type": "Feature", "properties": { "内容": "クロスハート野七里・栄【地域密着型介護老人福祉施設入所者生活介護】神奈川県横浜市栄区野七里1-2-31", "url": "https://www.kaigokensaku.mhlw.go.jp/14/index.php?action_kouhyou_detail_004_kani=true&JigyosyoCd=1493500100-00&ServiceCd=540&Type=search", "url2": "https://www.shinkoufukushikai.com/care/122/" }, "geometry": { "type": "Point", "coordinates": [ 139.576687499999906, 35.3492275 ] } },
{ "type": "Feature", "properties": { "内容": "特別養護老人ホーム　ハピネス都筑　アネックス【地域密着型介護老人福祉施設入所者生活介護】神奈川県横浜市都筑区池辺町１０３６－１", "url": "https://www.kaigokensaku.mhlw.go.jp/14/index.php?action_kouhyou_detail_004_kani=true&JigyosyoCd=1493800682-00&ServiceCd=540&Type=search", "url2": "https://www.family-wf.jp/tsuzuki-annex" }, "geometry": { "type": "Point", "coordinates": [ 139.559950750377908, 35.525621579467717 ] } },
{ "type": "Feature", "properties": { "内容": "地域密着型特別養護老人ホーム　こむかい【地域密着型介護老人福祉施設入所者生活介護】神奈川県川崎市幸区小向仲野町1-3地域密着型特別養護老人ホームこむかい", "url": "https://www.kaigokensaku.mhlw.go.jp/14/index.php?action_kouhyou_detail_004_kani=true&JigyosyoCd=1495100214-00&ServiceCd=540&Type=search", "url2": "https://www.misasakai.or.jp/shisetsu/minamisaiwai.php" }, "geometry": { "type": "Point", "coordinates": [ 139.694168606082144, 35.550077599587866 ] } },
{ "type": "Feature", "properties": { "内容": "社会福祉法人春日会　地域密着型特別養護老人ホームいせうら【地域密着型介護老人福祉施設入所者生活介護】神奈川県川崎市中原区上平間１２５１－２", "url": "https://www.kaigokensaku.mhlw.go.jp/14/index.php?action_kouhyou_detail_004_kani=true&JigyosyoCd=1495200105-00&ServiceCd=540&Type=search", "url2": "http://kasugakai1.wixsite.com/kasugakai" }, "geometry": { "type": "Point", "coordinates": [ 139.679210799999964, 35.5567243 ] } },
{ "type": "Feature", "properties": { "内容": "社会福祉法人春日会　地域密着型特別養護老人ホーム　せせらぎ【地域密着型介護老人福祉施設入所者生活介護】神奈川県川崎市中原区下小田中6-30-32", "url": "https://www.kaigokensaku.mhlw.go.jp/14/index.php?action_kouhyou_detail_004_kani=true&JigyosyoCd=1495200154-00&ServiceCd=540&Type=search", "url2": "http://kasugakai1.wixsite.com/kasugakai" }, "geometry": { "type": "Point", "coordinates": [ 139.6389696, 35.5694084 ] } },
{ "type": "Feature", "properties": { "内容": "花ハウスすみれ館【地域密着型介護老人福祉施設入所者生活介護】神奈川県川崎市多摩区菅馬場３－２１－１", "url": "https://www.kaigokensaku.mhlw.go.jp/14/index.php?action_kouhyou_detail_004_kani=true&JigyosyoCd=1495400226-00&ServiceCd=540&Type=search", "url2": "http://www.hana-house.org" }, "geometry": { "type": "Point", "coordinates": [ 139.532454700000017, 35.6239607 ] } },
{ "type": "Feature", "properties": { "内容": "特別養護老人ホーム　富士見プラザフォンテーヌ鷺沼【地域密着型介護老人福祉施設入所者生活介護】神奈川県川崎市宮前区土橋3丁目1番6号", "url": "https://www.kaigokensaku.mhlw.go.jp/14/index.php?action_kouhyou_detail_004_kani=true&JigyosyoCd=1495500074-00&ServiceCd=540&Type=search", "url2": "http://www.fujimiplaza.com/" }, "geometry": { "type": "Point", "coordinates": [ 139.573798, 35.581115 ] } },
{ "type": "Feature", "properties": { "内容": "地域密着型介護老人福祉施設風光【地域密着型介護老人福祉施設入所者生活介護】神奈川県川崎市宮前区野川台３丁目７番１号", "url": "https://www.kaigokensaku.mhlw.go.jp/14/index.php?action_kouhyou_detail_004_kani=true&JigyosyoCd=1495500033-00&ServiceCd=540&Type=search", "url2": "http://www.jurakuen.jp/kawasaki/fuko.html" }, "geometry": { "type": "Point", "coordinates": [ 139.604139600000053, 35.5749437 ] } },
{ "type": "Feature", "properties": { "内容": "地域密着型特別養護老人ホーム　フレンド神木二番館【地域密着型介護老人福祉施設入所者生活介護】神奈川県川崎市宮前区神木本町2-15-2", "url": "https://www.kaigokensaku.mhlw.go.jp/14/index.php?action_kouhyou_detail_004_kani=true&JigyosyoCd=1495500280-00&ServiceCd=540&Type=search", "url2": "https://sanshinkai.or.jp/company.html#shiboku2" }, "geometry": { "type": "Point", "coordinates": [ 139.583437499999945, 35.6019452 ] } },
{ "type": "Feature", "properties": { "内容": "地域密着型特別養護老人ホーム　ヴィラージュ虹ヶ丘【地域密着型介護老人福祉施設入所者生活介護】神奈川県川崎市麻生区虹ヶ丘1丁目22番1-2号", "url": "https://www.kaigokensaku.mhlw.go.jp/14/index.php?action_kouhyou_detail_004_kani=true&JigyosyoCd=1495600320-00&ServiceCd=540&Type=search", "url2": "http://www.v-niji.rexw.jp/" }, "geometry": { "type": "Point", "coordinates": [ 139.520321500000023, 35.580056 ] } },
{ "type": "Feature", "properties": { "内容": "リバーサイド田名ホーム　清流さがみ【地域密着型介護老人福祉施設入所者生活介護】神奈川県相模原市中央区田名8511-1", "url": "https://www.kaigokensaku.mhlw.go.jp/14/index.php?action_kouhyou_detail_004_kani=true&JigyosyoCd=1472610151-00&ServiceCd=540&Type=search", "url2": "http://aisenkai-riverside.jp/" }, "geometry": { "type": "Point", "coordinates": [ 139.347137800000041, 35.536284200000011 ] } },
{ "type": "Feature", "properties": { "内容": "リバーサイド田名ホーム清流さがみ【地域密着型介護老人福祉施設入所者生活介護】神奈川県相模原市中央区田名8511-1", "url": "https://www.kaigokensaku.mhlw.go.jp/14/index.php?action_kouhyou_detail_004_kani=true&JigyosyoCd=1492601461-00&ServiceCd=540&Type=search", "url2": "http://aisenkai-riverside.jp/" }, "geometry": { "type": "Point", "coordinates": [ 139.347137800000041, 35.536284200000011 ] } },
{ "type": "Feature", "properties": { "内容": "コミュニティホーム　ピノ【地域密着型介護老人福祉施設入所者生活介護】神奈川県相模原市南区鵜野森1-15-12", "url": "https://www.kaigokensaku.mhlw.go.jp/14/index.php?action_kouhyou_detail_004_kani=true&JigyosyoCd=1492600505-00&ServiceCd=540&Type=search", "url2": "https://sosaykai.org/facility/communityhome-pino/" }, "geometry": { "type": "Point", "coordinates": [ 139.430743092204239, 35.543856310320216 ] } },
{ "type": "Feature", "properties": { "内容": "高齢者福祉総合施設　豊田敬愛ホームユニット【地域密着型介護老人福祉施設入所者生活介護】神奈川県平塚市南豊田85-1", "url": "https://www.kaigokensaku.mhlw.go.jp/14/index.php?action_kouhyou_detail_004_kani=true&JigyosyoCd=1472002623-00&ServiceCd=540&Type=search", "url2": "https://kanagawa‐koureikyo.or.jp/toyoda/" }, "geometry": { "type": "Point", "coordinates": [ 139.3268392, 35.3551052 ] } },
{ "type": "Feature", "properties": { "内容": "特別養護老人ホ-ムれんげの郷アネックス【地域密着型介護老人福祉施設入所者生活介護】神奈川県平塚市公所464-1", "url": "https://www.kaigokensaku.mhlw.go.jp/14/index.php?action_kouhyou_detail_004_kani=true&JigyosyoCd=1492000151-00&ServiceCd=540&Type=search", "url2": "https://www.rengenosato.com" }, "geometry": { "type": "Point", "coordinates": [ 139.302788700000065, 35.3477641 ] } },
{ "type": "Feature", "properties": { "内容": "高根台ホームサテライトたかむら【地域密着型介護老人福祉施設入所者生活介護】神奈川県平塚市高村203-23", "url": "https://www.kaigokensaku.mhlw.go.jp/14/index.php?action_kouhyou_detail_004_kani=true&JigyosyoCd=1492000698-00&ServiceCd=540&Type=search", "url2": "http://www.takanedaihome.or.jp" }, "geometry": { "type": "Point", "coordinates": [ 139.308685200000014, 35.3327077 ] } },
{ "type": "Feature", "properties": { "内容": "地域密着型小規模特別養護老人ホーム　みどりの園鵠沼【地域密着型介護老人福祉施設入所者生活介護】神奈川県藤沢市鵠沼桜が岡2丁目1-16", "url": "https://www.kaigokensaku.mhlw.go.jp/14/index.php?action_kouhyou_detail_004_kani=true&JigyosyoCd=1492200223-00&ServiceCd=540&Type=search", "url2": "https://midorinosono.or.jp/事業者向け情報" }, "geometry": { "type": "Point", "coordinates": [ 139.47933409999996, 35.3280183 ] } },
{ "type": "Feature", "properties": { "内容": "特別養護老人ホームラポール藤沢サテライト城南【地域密着型介護老人福祉施設入所者生活介護】神奈川県藤沢市城南4-9-8", "url": "https://www.kaigokensaku.mhlw.go.jp/14/index.php?action_kouhyou_detail_004_kani=true&JigyosyoCd=1492200165-00&ServiceCd=540&Type=search", "url2": "https://www.rapport.or.jp/" }, "geometry": { "type": "Point", "coordinates": [ 139.461766300000022, 35.347238 ] } },
{ "type": "Feature", "properties": { "内容": "地域密着型特別養護老人ホーム　湘南くすの木　はる【地域密着型介護老人福祉施設入所者生活介護】神奈川県茅ヶ崎市松林3丁目6番3号", "url": "https://www.kaigokensaku.mhlw.go.jp/14/index.php?action_kouhyou_detail_004_kani=true&JigyosyoCd=1492400229-00&ServiceCd=540&Type=search", "url2": "https://www.shonankusunoki.jp/地域密着型特別養護老人ホーム湘南くすの木-はる/" }, "geometry": { "type": "Point", "coordinates": [ 139.424603492590336, 35.345869104968834 ] } },
{ "type": "Feature", "properties": { "内容": "地域密着型小規模特別養護老人ホーム　たんぽぽ【地域密着型介護老人福祉施設入所者生活介護】神奈川県三浦市三崎町諸磯1411-1", "url": "https://www.kaigokensaku.mhlw.go.jp/14/index.php?action_kouhyou_detail_004_kani=true&JigyosyoCd=1492700040-00&ServiceCd=540&Type=search", "url2": "https://www.mkeiseikai.or.jp" }, "geometry": { "type": "Point", "coordinates": [ 139.621359, 35.1512199 ] } },
{ "type": "Feature", "properties": { "内容": "地域密着型特別養護老人ホーム田原の里【地域密着型介護老人福祉施設入所者生活介護】神奈川県秦野市西田原360-1", "url": "https://www.kaigokensaku.mhlw.go.jp/14/index.php?action_kouhyou_detail_004_kani=true&JigyosyoCd=1492800352-00&ServiceCd=540&Type=search", "url2": "https://www.subaru-fukushi.or.jp/" }, "geometry": { "type": "Point", "coordinates": [ 139.214991199999986, 35.3922252 ] } },
{ "type": "Feature", "properties": { "内容": "特別養護老人ホーム　ユニテ　けいわ【地域密着型介護老人福祉施設入所者生活介護】神奈川県厚木市下荻野２１１７－２", "url": "https://www.kaigokensaku.mhlw.go.jp/14/index.php?action_kouhyou_detail_004_kani=true&JigyosyoCd=1492900186-00&ServiceCd=540&Type=search", "url2": "https://k-keiwakai.com/" }, "geometry": { "type": "Point", "coordinates": [ 139.3086042, 35.4884615 ] } },
{ "type": "Feature", "properties": { "内容": "地域密着型特別養護老人ホームきみどり【地域密着型介護老人福祉施設入所者生活介護】神奈川県厚木市戸室1-26-11", "url": "https://www.kaigokensaku.mhlw.go.jp/14/index.php?action_kouhyou_detail_004_kani=true&JigyosyoCd=1492900277-00&ServiceCd=540&Type=search", "url2": "https://www.atsugimidorikai.com/" }, "geometry": { "type": "Point", "coordinates": [ 139.352486900000031, 35.450128 ] } },
{ "type": "Feature", "properties": { "内容": "あつぎポポロ（従来型）【地域密着型介護老人福祉施設入所者生活介護】神奈川県厚木市東町7-2-2", "url": "https://www.kaigokensaku.mhlw.go.jp/14/index.php?action_kouhyou_detail_004_kani=true&JigyosyoCd=1492900426-00&ServiceCd=540&Type=search", "url2": "http://www.tosetsukai.com" }, "geometry": { "type": "Point", "coordinates": [ 139.3692614, 35.4453679 ] } },
{ "type": "Feature", "properties": { "内容": "あつぎポポロ（ユニット型）【地域密着型介護老人福祉施設入所者生活介護】神奈川県厚木市東町7-2-2", "url": "https://www.kaigokensaku.mhlw.go.jp/14/index.php?action_kouhyou_detail_004_kani=true&JigyosyoCd=1492900434-00&ServiceCd=540&Type=search", "url2": "http：//www.tosetsukai.com" }, "geometry": { "type": "Point", "coordinates": [ 139.3692614, 35.4453679 ] } },
{ "type": "Feature", "properties": { "内容": "特別養護老人ホーム　メイサムフレール【地域密着型介護老人福祉施設入所者生活介護】神奈川県厚木市愛甲2193-1", "url": "https://www.kaigokensaku.mhlw.go.jp/14/index.php?action_kouhyou_detail_004_kani=true&JigyosyoCd=1492900491-00&ServiceCd=540&Type=search", "url2": "https://meisam.jp/" }, "geometry": { "type": "Point", "coordinates": [ 139.352953205757132, 35.421794117787321 ] } },
{ "type": "Feature", "properties": { "内容": "特別養護老人ホーム晃風園ぬくもり【地域密着型介護老人福祉施設入所者生活介護】神奈川県大和市深見1736-2", "url": "https://www.kaigokensaku.mhlw.go.jp/14/index.php?action_kouhyou_detail_004_kani=true&JigyosyoCd=1493000150-00&ServiceCd=540&Type=search", "url2": "http://www.kofuen.jp/" }, "geometry": { "type": "Point", "coordinates": [ 139.468734079762271, 35.480637931691724 ] } },
{ "type": "Feature", "properties": { "内容": "潤生園みんなの家南足柄【地域密着型介護老人福祉施設入所者生活介護】神奈川県南足柄市広町530", "url": "https://www.kaigokensaku.mhlw.go.jp/14/index.php?action_kouhyou_detail_004_kani=true&JigyosyoCd=1494300120-00&ServiceCd=540&Type=search", "url2": "https://junseien.jp/tokuyou/" }, "geometry": { "type": "Point", "coordinates": [ 139.099084947885103, 35.317502491094011 ] } },
{ "type": "Feature", "properties": { "内容": "二宮喜楽園【地域密着型介護老人福祉施設入所者生活介護】神奈川県中郡二宮町二宮1442番地1", "url": "https://www.kaigokensaku.mhlw.go.jp/14/index.php?action_kouhyou_detail_004_kani=true&JigyosyoCd=1491300081-00&ServiceCd=540&Type=search", "url2": "http://houyuukai.or.jp/" }, "geometry": { "type": "Point", "coordinates": [ 139.256177834358567, 35.308156373127595 ] } },
{ "type": "Feature", "properties": { "内容": "地域密着型特別養護老人ホーム　まほろばの家【地域密着型介護老人福祉施設入所者生活介護】神奈川県足柄上郡大井町大井中央47番地", "url": "https://www.kaigokensaku.mhlw.go.jp/14/index.php?action_kouhyou_detail_004_kani=true&JigyosyoCd=1491400188-00&ServiceCd=540&Type=search", "url2": "http://www.shofukai.or.jp/tokuyou_mahoroba.html" }, "geometry": { "type": "Point", "coordinates": [ 139.152413568473577, 35.330271378857617 ] } },
{ "type": "Feature", "properties": { "内容": "介護老人福祉施設　メゾン・開成【地域密着型介護老人福祉施設入所者生活介護】神奈川県足柄上郡開成町延沢678", "url": "https://www.kaigokensaku.mhlw.go.jp/14/index.php?action_kouhyou_detail_004_kani=true&JigyosyoCd=1491400089-00&ServiceCd=540&Type=search", "url2": "https://www.ittokai.or.jp/facility/メゾン・開成/" }, "geometry": { "type": "Point", "coordinates": [ 139.120944, 35.3365245 ] } }
]
}
