{
"type": "FeatureCollection",
"name": "geo_14_短期入所療養介護（介護医療院）",
"crs": { "type": "name", "properties": { "name": "urn:ogc:def:crs:OGC:1.3:CRS84" } },
"features": [
{ "type": "Feature", "properties": { "内容": "横浜市総合保健医療センター【短期入所療養介護（介護医療院）】神奈川県横浜市港北区鳥山町１７３５", "url2": "https://www.kaigokensaku.mhlw.go.jp/14/index.php?action_kouhyou_detail_004_kani=true&JigyosyoCd=1470904143-00&ServiceCd=551&Type=search" }, "geometry": { "type": "Point", "coordinates": [ 139.6090021, 35.5096357 ] } },
{ "type": "Feature", "properties": { "内容": "介護医療院湘南の丘【短期入所療養介護（介護医療院）】神奈川県茅ケ崎市赤羽根3685", "url2": "https://www.kaigokensaku.mhlw.go.jp/14/index.php?action_kouhyou_detail_004_kani=true&JigyosyoCd=14B2400018-00&ServiceCd=551&Type=search" }, "geometry": { "type": "Point", "coordinates": [ 139.434137493917888, 35.352882097133921 ] } },
{ "type": "Feature", "properties": { "内容": "医療法人社団　三喜会　鶴巻温泉病院介護医療院【短期入所療養介護（介護医療院）】神奈川県秦野市鶴巻北1-16-1", "url2": "https://www.kaigokensaku.mhlw.go.jp/14/index.php?action_kouhyou_detail_004_kani=true&JigyosyoCd=14B2800019-00&ServiceCd=551&Type=search" }, "geometry": { "type": "Point", "coordinates": [ 139.279665600000044, 35.3829411 ] } },
{ "type": "Feature", "properties": { "内容": "特定医療法人社団研精会　介護医療院箱根リハビリテーション病院【短期入所療養介護（介護医療院）】神奈川県足柄下郡箱根町仙石原1285", "url2": "https://www.kaigokensaku.mhlw.go.jp/14/index.php?action_kouhyou_detail_004_kani=true&JigyosyoCd=14B1500016-00&ServiceCd=551&Type=search" }, "geometry": { "type": "Point", "coordinates": [ 139.021351085961669, 35.263756901601873 ] } }
]
}
