{
"type": "FeatureCollection",
"name": "geo_14_専修学校",
"crs": { "type": "name", "properties": { "name": "urn:ogc:def:crs:EPSG::6668" } },
"features": [
{ "type": "Feature", "properties": { "P29_001": "14201", "P29_002": "H114220120014", "P29_003": "16016", "P29_004": "横須賀市立看護専門学校", "P29_005": "神奈川県横須賀市上町2-36", "P29_006": "3", "P29_007": "0", "P29_008": "00", "P29_009": null }, "geometry": { "type": "Point", "coordinates": [ 139.669198412441574, 35.27201700908163 ] } },
{ "type": "Feature", "properties": { "P29_001": "14203", "P29_002": "H114220310014", "P29_003": "16016", "P29_004": "神奈川県立平塚看護大学校", "P29_005": "神奈川県平塚市諏訪町20-12", "P29_006": "2", "P29_007": "0", "P29_008": "00", "P29_009": null }, "geometry": { "type": "Point", "coordinates": [ 139.333818310266253, 35.334996422214665 ] } },
{ "type": "Feature", "properties": { "P29_001": "14205", "P29_002": "H114220520010", "P29_003": "16016", "P29_004": "藤沢市立看護専門学校", "P29_005": "神奈川県藤沢市藤沢2-6-2", "P29_006": "3", "P29_007": "0", "P29_008": "00", "P29_009": null }, "geometry": { "type": "Point", "coordinates": [ 139.483072889241356, 35.350828149165928 ] } },
{ "type": "Feature", "properties": { "P29_001": "14101", "P29_002": "H114310000018", "P29_003": "16016", "P29_004": "横浜ファッションデザイン専門学校", "P29_005": "神奈川県横浜市鶴見区鶴見中央1-9-5", "P29_006": "4", "P29_007": "0", "P29_008": "00", "P29_009": null }, "geometry": { "type": "Point", "coordinates": [ 139.677118218365962, 35.509458071112476 ] } },
{ "type": "Feature", "properties": { "P29_001": "14101", "P29_002": "H114310000027", "P29_003": "16016", "P29_004": "横浜市医師会聖灯看護専門学校", "P29_005": "神奈川県横浜市鶴見区下野谷町3-88-16", "P29_006": "4", "P29_007": "0", "P29_008": "00", "P29_009": null }, "geometry": { "type": "Point", "coordinates": [ 139.681332967197193, 35.497840697963348 ] } },
{ "type": "Feature", "properties": { "P29_001": "14102", "P29_002": "H114310000045", "P29_003": "16016", "P29_004": "大原簿記情報ビジネス専門学校横浜校", "P29_005": "神奈川県横浜市神奈川区反町1-8-14", "P29_006": "4", "P29_007": "0", "P29_008": "00", "P29_009": null }, "geometry": { "type": "Point", "coordinates": [ 139.629206070057791, 35.474452000955232 ] } },
{ "type": "Feature", "properties": { "P29_001": "14102", "P29_002": "H114310000054", "P29_003": "16016", "P29_004": "駿台予備学校横浜校", "P29_005": "神奈川県横浜市神奈川区鶴屋町2-23-7", "P29_006": "4", "P29_007": "0", "P29_008": "00", "P29_009": null }, "geometry": { "type": "Point", "coordinates": [ 139.621380693009314, 35.46882069742496 ] } },
{ "type": "Feature", "properties": { "P29_001": "14102", "P29_002": "H114310000063", "P29_003": "16016", "P29_004": "横浜調理師専門学校", "P29_005": "神奈川県横浜市神奈川区鶴屋町3-31-4", "P29_006": "4", "P29_007": "0", "P29_008": "00", "P29_009": null }, "geometry": { "type": "Point", "coordinates": [ 139.620271873096101, 35.46856562728852 ] } },
{ "type": "Feature", "properties": { "P29_001": "14104", "P29_002": "H114310000072", "P29_003": "16016", "P29_004": "横浜医療秘書専門学校", "P29_005": "神奈川県横浜市中区長者町4-9-10", "P29_006": "4", "P29_007": "0", "P29_008": "00", "P29_009": null }, "geometry": { "type": "Point", "coordinates": [ 139.633531464582973, 35.44102250537442 ] } },
{ "type": "Feature", "properties": { "P29_001": "14102", "P29_002": "H114310000081", "P29_003": "16016", "P29_004": "大原法律公務員専門学校横浜校", "P29_005": "神奈川県横浜市神奈川区反町1-10-1", "P29_006": "4", "P29_007": "0", "P29_008": "00", "P29_009": null }, "geometry": { "type": "Point", "coordinates": [ 139.628896082049835, 35.474766469958972 ] } },
{ "type": "Feature", "properties": { "P29_001": "14102", "P29_002": "H114310000090", "P29_003": "16016", "P29_004": "横浜日建工科専門学校", "P29_005": "神奈川県横浜市神奈川区台町17-5", "P29_006": "4", "P29_007": "0", "P29_008": "00", "P29_009": null }, "geometry": { "type": "Point", "coordinates": [ 139.616645343499073, 35.469249205582123 ] } },
{ "type": "Feature", "properties": { "P29_001": "14102", "P29_002": "H114310000107", "P29_003": "16016", "P29_004": "大原医療秘書福祉保育専門学校横浜校", "P29_005": "神奈川県横浜市神奈川区桐畑3-7", "P29_006": "4", "P29_007": "0", "P29_008": "00", "P29_009": null }, "geometry": { "type": "Point", "coordinates": [ 139.628336787456874, 35.473752271933321 ] } },
{ "type": "Feature", "properties": { "P29_001": "14102", "P29_002": "H114310000116", "P29_003": "16016", "P29_004": "横浜リゾート＆スポーツ専門学校", "P29_005": "神奈川県横浜市神奈川区西神奈川1-19-2", "P29_006": "4", "P29_007": "0", "P29_008": "00", "P29_009": null }, "geometry": { "type": "Point", "coordinates": [ 139.631988251248487, 35.480523833338424 ] } },
{ "type": "Feature", "properties": { "P29_001": "14102", "P29_002": "H114310000125", "P29_003": "16016", "P29_004": "横浜ビューティー＆ブライダル専門学校", "P29_005": "神奈川県横浜市神奈川区西神奈川1-19-6", "P29_006": "4", "P29_007": "0", "P29_008": "00", "P29_009": null }, "geometry": { "type": "Point", "coordinates": [ 139.632376271865752, 35.480653552543842 ] } },
{ "type": "Feature", "properties": { "P29_001": "14102", "P29_002": "H114310000134", "P29_003": "16016", "P29_004": "横浜公務員＆ＩＴ会計専門学校", "P29_005": "神奈川県横浜市神奈川区台町9-5", "P29_006": "4", "P29_007": "0", "P29_008": "00", "P29_009": null }, "geometry": { "type": "Point", "coordinates": [ 139.624177266094989, 35.470079235122746 ] } },
{ "type": "Feature", "properties": { "P29_001": "14102", "P29_002": "H114310000143", "P29_003": "16016", "P29_004": "横浜医療専門学校", "P29_005": "神奈川県横浜市神奈川区金港町9-12", "P29_006": "4", "P29_007": "0", "P29_008": "00", "P29_009": null }, "geometry": { "type": "Point", "coordinates": [ 139.627008149838503, 35.470243650458819 ] } },
{ "type": "Feature", "properties": { "P29_001": "14102", "P29_002": "H114310000152", "P29_003": "16016", "P29_004": "横浜こども専門学校", "P29_005": "神奈川県横浜市神奈川区二ツ谷町1-19", "P29_006": "4", "P29_007": "0", "P29_008": "00", "P29_009": null }, "geometry": { "type": "Point", "coordinates": [ 139.630859985957045, 35.476212208759293 ] } },
{ "type": "Feature", "properties": { "P29_001": "14102", "P29_002": "H114310000161", "P29_003": "16016", "P29_004": "情報科学専門学校", "P29_005": "神奈川県横浜市神奈川区鶴屋町2-17相鉄岩崎学園ビル", "P29_006": "4", "P29_007": "0", "P29_008": "00", "P29_009": null }, "geometry": { "type": "Point", "coordinates": [ 139.62227396532225, 35.468164538185931 ] } },
{ "type": "Feature", "properties": { "P29_001": "14102", "P29_002": "H114310000170", "P29_003": "16016", "P29_004": "横浜スイーツ＆カフェ専門学校", "P29_005": "神奈川県横浜市神奈川区西神奈川1-7-5", "P29_006": "4", "P29_007": "0", "P29_008": "00", "P29_009": null }, "geometry": { "type": "Point", "coordinates": [ 139.632076311561349, 35.47909893323132 ] } },
{ "type": "Feature", "properties": { "P29_001": "14102", "P29_002": "H114310000189", "P29_003": "16016", "P29_004": "横浜中央看護専門学校", "P29_005": "神奈川県横浜市神奈川区新町11-1", "P29_006": "4", "P29_007": "0", "P29_008": "00", "P29_009": null }, "geometry": { "type": "Point", "coordinates": [ 139.63946687860161, 35.480353731070757 ] } },
{ "type": "Feature", "properties": { "P29_001": "14103", "P29_002": "H114310000198", "P29_003": "16016", "P29_004": "河合塾横浜校", "P29_005": "神奈川県横浜市西区北幸2-11-6", "P29_006": "4", "P29_007": "0", "P29_008": "00", "P29_009": null }, "geometry": { "type": "Point", "coordinates": [ 139.615948870271382, 35.465509822305577 ] } },
{ "type": "Feature", "properties": { "P29_001": "14103", "P29_002": "H114310000205", "P29_003": "16016", "P29_004": "グレッグ外語専門学校横浜校", "P29_005": "神奈川県横浜市西区南幸2-4-3", "P29_006": "4", "P29_007": "0", "P29_008": "00", "P29_009": null }, "geometry": { "type": "Point", "coordinates": [ 139.617612379002992, 35.462621923734702 ] } },
{ "type": "Feature", "properties": { "P29_001": "14103", "P29_002": "H114310000214", "P29_003": "16016", "P29_004": "横浜デザイン学院", "P29_005": "神奈川県横浜市西区中央1-33-6", "P29_006": "4", "P29_007": "0", "P29_008": "00", "P29_009": null }, "geometry": { "type": "Point", "coordinates": [ 139.61853325616994, 35.45664275116058 ] } },
{ "type": "Feature", "properties": { "P29_001": "14103", "P29_002": "H114310000223", "P29_003": "16016", "P29_004": "横浜経理専門学校", "P29_005": "神奈川県横浜市西区高島2-2-11", "P29_006": "4", "P29_007": "0", "P29_008": "00", "P29_009": null }, "geometry": { "type": "Point", "coordinates": [ 139.622811218139987, 35.460112621496748 ] } },
{ "type": "Feature", "properties": { "P29_001": "14103", "P29_002": "H114310000232", "P29_003": "16016", "P29_004": "横浜歯科医療専門学校", "P29_005": "神奈川県横浜市西区高島1-2-15", "P29_006": "4", "P29_007": "0", "P29_008": "00", "P29_009": null }, "geometry": { "type": "Point", "coordinates": [ 139.625258668087469, 35.461021719233621 ] } },
{ "type": "Feature", "properties": { "P29_001": "14103", "P29_002": "H114310000241", "P29_003": "16016", "P29_004": "岩谷学園テクノビジネス横浜保育専門学校", "P29_005": "神奈川県横浜市西区平沼1-38-10", "P29_006": "4", "P29_007": "0", "P29_008": "00", "P29_009": null }, "geometry": { "type": "Point", "coordinates": [ 139.620445724612779, 35.461404948747443 ] } },
{ "type": "Feature", "properties": { "P29_001": "14103", "P29_002": "H114310000250", "P29_003": "16016", "P29_004": "横浜ｆカレッジ", "P29_005": "神奈川県横浜市西区北幸1-2-7", "P29_006": "4", "P29_007": "0", "P29_008": "00", "P29_009": null }, "geometry": { "type": "Point", "coordinates": [ 139.620198750354291, 35.467761741338045 ] } },
{ "type": "Feature", "properties": { "P29_001": "14103", "P29_002": "H114310000269", "P29_003": "16016", "P29_004": "アーツカレッジヨコハマ", "P29_005": "神奈川県横浜市西区浅間町2-105-8", "P29_006": "4", "P29_007": "0", "P29_008": "00", "P29_009": null }, "geometry": { "type": "Point", "coordinates": [ 139.609675740307978, 35.46355696893341 ] } },
{ "type": "Feature", "properties": { "P29_001": "14103", "P29_002": "H114310000278", "P29_003": "16016", "P29_004": "国際フード製菓専門学校", "P29_005": "神奈川県横浜市西区北幸2-9-6", "P29_006": "4", "P29_007": "0", "P29_008": "00", "P29_009": null }, "geometry": { "type": "Point", "coordinates": [ 139.615553728944661, 35.466423653075495 ] } },
{ "type": "Feature", "properties": { "P29_001": "14103", "P29_002": "H114310000287", "P29_003": "16016", "P29_004": "専門学校横浜ミュージックスクール", "P29_005": "神奈川県横浜市西区楠町5-6", "P29_006": "4", "P29_007": "0", "P29_008": "00", "P29_009": null }, "geometry": { "type": "Point", "coordinates": [ 139.613340790535972, 35.466583336362547 ] } },
{ "type": "Feature", "properties": { "P29_001": "14103", "P29_002": "H114310000296", "P29_003": "16016", "P29_004": "岩谷学園アーティスティックＢ横浜美容専門学校", "P29_005": "神奈川県横浜市西区平沼1-38-13", "P29_006": "4", "P29_007": "0", "P29_008": "00", "P29_009": null }, "geometry": { "type": "Point", "coordinates": [ 139.619867478607375, 35.461639307927882 ] } },
{ "type": "Feature", "properties": { "P29_001": "14103", "P29_002": "H114310000303", "P29_003": "16016", "P29_004": "岩谷学園高等専修学校", "P29_005": "神奈川県横浜市西区平沼1-38-19", "P29_006": "4", "P29_007": "0", "P29_008": "00", "P29_009": null }, "geometry": { "type": "Point", "coordinates": [ 139.619942270511132, 35.461589886637498 ] } },
{ "type": "Feature", "properties": { "P29_001": "14104", "P29_002": "H114310000312", "P29_003": "16016", "P29_004": "横浜ＹＭＣＡ学院専門学校", "P29_005": "神奈川県横浜市中区常盤町1-7", "P29_006": "4", "P29_007": "0", "P29_008": "00", "P29_009": null }, "geometry": { "type": "Point", "coordinates": [ 139.638924944758372, 35.444601044221109 ] } },
{ "type": "Feature", "properties": { "P29_001": "14104", "P29_002": "H114310000321", "P29_003": "16016", "P29_004": "あずま工科専門学校", "P29_005": "神奈川県横浜市中区初音町1-2-2", "P29_006": "4", "P29_007": "0", "P29_008": "00", "P29_009": null }, "geometry": { "type": "Point", "coordinates": [ 139.625071636475184, 35.4423964540998 ] } },
{ "type": "Feature", "properties": { "P29_001": "14105", "P29_002": "H114310000330", "P29_003": "16016", "P29_004": "地域医療機能推進機構横浜中央病院附属看護専門学校", "P29_005": "神奈川県横浜市南区中村町3-209-1", "P29_006": "0", "P29_007": "0", "P29_008": "00", "P29_009": null }, "geometry": { "type": "Point", "coordinates": [ 139.628194518696574, 35.431270420909563 ] } },
{ "type": "Feature", "properties": { "P29_001": "14106", "P29_002": "H114310000358", "P29_003": "16016", "P29_004": "聖ヶ丘保育専門学校", "P29_005": "神奈川県横浜市保土ケ谷区常盤台66-18", "P29_006": "4", "P29_007": "0", "P29_008": "00", "P29_009": null }, "geometry": { "type": "Point", "coordinates": [ 139.588721853089737, 35.477165495412748 ] } },
{ "type": "Feature", "properties": { "P29_001": "14106", "P29_002": "H114310000367", "P29_003": "16016", "P29_004": "横浜栄養専門学校", "P29_005": "神奈川県横浜市保土ケ谷区今井町1447-1", "P29_006": "4", "P29_007": "0", "P29_008": "00", "P29_009": null }, "geometry": { "type": "Point", "coordinates": [ 139.558656593636528, 35.44077377843184 ] } },
{ "type": "Feature", "properties": { "P29_001": "14109", "P29_002": "H114310000376", "P29_003": "16016", "P29_004": "横浜理容美容専門学校", "P29_005": "神奈川県横浜市港北区樽町2-6-11", "P29_006": "4", "P29_007": "0", "P29_008": "00", "P29_009": null }, "geometry": { "type": "Point", "coordinates": [ 139.638944929747481, 35.532648380254315 ] } },
{ "type": "Feature", "properties": { "P29_001": "14109", "P29_002": "H114310000394", "P29_003": "16016", "P29_004": "東京綜合写真専門学校", "P29_005": "神奈川県横浜市港北区箕輪町2-2-32", "P29_006": "4", "P29_007": "0", "P29_008": "00", "P29_009": null }, "geometry": { "type": "Point", "coordinates": [ 139.64426799247434, 35.54734912901133 ] } },
{ "type": "Feature", "properties": { "P29_001": "14109", "P29_002": "H114310000401", "P29_003": "16016", "P29_004": "横浜高等教育専門学校", "P29_005": "神奈川県横浜市港北区篠原台町36-37", "P29_006": "4", "P29_007": "0", "P29_008": "00", "P29_009": null }, "geometry": { "type": "Point", "coordinates": [ 139.627450961254937, 35.493143611480342 ] } },
{ "type": "Feature", "properties": { "P29_001": "14109", "P29_002": "H114310000410", "P29_003": "16016", "P29_004": "横浜医療情報専門学校", "P29_005": "神奈川県横浜市港北区新横浜2-4-10", "P29_006": "4", "P29_007": "0", "P29_008": "00", "P29_009": null }, "geometry": { "type": "Point", "coordinates": [ 139.616121318996306, 35.509000124424368 ] } },
{ "type": "Feature", "properties": { "P29_001": "14109", "P29_002": "H114310000429", "P29_003": "16016", "P29_004": "横浜デジタルアーツ専門学校", "P29_005": "神奈川県横浜市港北区新横浜3-22-17", "P29_006": "4", "P29_007": "0", "P29_008": "00", "P29_009": null }, "geometry": { "type": "Point", "coordinates": [ 139.618621841348983, 35.512570470275136 ] } },
{ "type": "Feature", "properties": { "P29_001": "14109", "P29_002": "H114310000438", "P29_003": "16016", "P29_004": "呉竹鍼灸柔整専門学校", "P29_005": "神奈川県横浜市港北区新横浜2-7-24", "P29_006": "4", "P29_007": "0", "P29_008": "00", "P29_009": null }, "geometry": { "type": "Point", "coordinates": [ 139.613234758477347, 35.507807555910368 ] } },
{ "type": "Feature", "properties": { "P29_001": "14109", "P29_002": "H114310000465", "P29_003": "16016", "P29_004": "横浜実践看護専門学校", "P29_005": "神奈川県横浜市港北区新横浜2-4-18", "P29_006": "4", "P29_007": "0", "P29_008": "00", "P29_009": null }, "geometry": { "type": "Point", "coordinates": [ 139.616482566899464, 35.508856907195401 ] } },
{ "type": "Feature", "properties": { "P29_001": "14109", "P29_002": "H114310000474", "P29_003": "16016", "P29_004": "野田鎌田学園横浜高等専修学校", "P29_005": "神奈川県横浜市港北区北新横浜1-4-1", "P29_006": "4", "P29_007": "0", "P29_008": "00", "P29_009": null }, "geometry": { "type": "Point", "coordinates": [ 139.613351574871672, 35.517603463101885 ] } },
{ "type": "Feature", "properties": { "P29_001": "14110", "P29_002": "H114310000492", "P29_003": "16016", "P29_004": "横浜ＹＭＣＡスポーツ専門学校", "P29_005": "神奈川県横浜市戸塚区上倉田町769-24", "P29_006": "4", "P29_007": "0", "P29_008": "00", "P29_009": null }, "geometry": { "type": "Point", "coordinates": [ 139.53852253905913, 35.398876178969708 ] } },
{ "type": "Feature", "properties": { "P29_001": "14110", "P29_002": "H114310000508", "P29_003": "16016", "P29_004": "横浜リハビリテーション専門学校", "P29_005": "神奈川県横浜市戸塚区品濃町550-1", "P29_006": "4", "P29_007": "0", "P29_008": "00", "P29_009": null }, "geometry": { "type": "Point", "coordinates": [ 139.559948307761147, 35.431077247285131 ] } },
{ "type": "Feature", "properties": { "P29_001": "14110", "P29_002": "H114310000526", "P29_003": "16016", "P29_004": "横浜保育福祉専門学校", "P29_005": "神奈川県横浜市戸塚区品濃町550-8", "P29_006": "4", "P29_007": "0", "P29_008": "00", "P29_009": null }, "geometry": { "type": "Point", "coordinates": [ 139.560300717921052, 35.431139308613467 ] } },
{ "type": "Feature", "properties": { "P29_001": "14111", "P29_002": "H114310000544", "P29_003": "16016", "P29_004": "横浜市病院協会看護専門学校", "P29_005": "神奈川県横浜市港南区港南台3-3-1", "P29_006": "4", "P29_007": "0", "P29_008": "00", "P29_009": null }, "geometry": { "type": "Point", "coordinates": [ 139.579446232564266, 35.374328576528256 ] } },
{ "type": "Feature", "properties": { "P29_001": "14112", "P29_002": "H114310000553", "P29_003": "16016", "P29_004": "専門学校日産横浜自動車大学校", "P29_005": "神奈川県横浜市旭区市沢町910", "P29_006": "4", "P29_007": "0", "P29_008": "00", "P29_009": null }, "geometry": { "type": "Point", "coordinates": [ 139.559140857618388, 35.457293863517165 ] } },
{ "type": "Feature", "properties": { "P29_001": "14112", "P29_002": "H114310000562", "P29_003": "16016", "P29_004": "横浜システム工学院専門学校", "P29_005": "神奈川県横浜市旭区東希望が丘128-4", "P29_006": "4", "P29_007": "0", "P29_008": "00", "P29_009": null }, "geometry": { "type": "Point", "coordinates": [ 139.513027151468975, 35.463832573172425 ] } },
{ "type": "Feature", "properties": { "P29_001": "14113", "P29_002": "H114310000571", "P29_003": "16016", "P29_004": "イムス横浜国際看護専門学校", "P29_005": "神奈川県横浜市緑区長津田6-20-24", "P29_006": "4", "P29_007": "0", "P29_008": "00", "P29_009": null }, "geometry": { "type": "Point", "coordinates": [ 139.501483620062714, 35.529917873750996 ] } },
{ "type": "Feature", "properties": { "P29_001": "14109", "P29_002": "H114310000599", "P29_003": "16016", "P29_004": "横浜芸術高等専修学校", "P29_005": "神奈川県横浜市港北区大豆戸町608-3", "P29_006": "4", "P29_007": "0", "P29_008": "00", "P29_009": null }, "geometry": { "type": "Point", "coordinates": [ 139.624305216251031, 35.512933917100945 ] } },
{ "type": "Feature", "properties": { "P29_001": "14131", "P29_002": "H114313000012", "P29_003": "16016", "P29_004": "外語ビジネス専門学校", "P29_005": "神奈川県川崎市川崎区駅前本町22-9", "P29_006": "4", "P29_007": "0", "P29_008": "00", "P29_009": null }, "geometry": { "type": "Point", "coordinates": [ 139.700839279333081, 35.533925532185023 ] } },
{ "type": "Feature", "properties": { "P29_001": "14131", "P29_002": "H114313000021", "P29_003": "16016", "P29_004": "神奈川ビューティー＆ビジネス専門学校", "P29_005": "神奈川県川崎市川崎区渡田向町15-5", "P29_006": "4", "P29_007": "0", "P29_008": "00", "P29_009": null }, "geometry": { "type": "Point", "coordinates": [ 139.70334850190423, 35.520424836493468 ] } },
{ "type": "Feature", "properties": { "P29_001": "14131", "P29_002": "H114313000030", "P29_003": "16016", "P29_004": "日本溶接構造専門学校", "P29_005": "神奈川県川崎市川崎区本町2-11-19", "P29_006": "4", "P29_007": "0", "P29_008": "00", "P29_009": null }, "geometry": { "type": "Point", "coordinates": [ 139.70669201745784, 35.535166100292514 ] } },
{ "type": "Feature", "properties": { "P29_001": "14131", "P29_002": "H114313000049", "P29_003": "16016", "P29_004": "米山ファッション・ビジネス専門学校", "P29_005": "神奈川県川崎市川崎区南町15-2", "P29_006": "4", "P29_007": "0", "P29_008": "00", "P29_009": null }, "geometry": { "type": "Point", "coordinates": [ 139.700698080128717, 35.526802089897622 ] } },
{ "type": "Feature", "properties": { "P29_001": "14135", "P29_002": "H114313000067", "P29_003": "16016", "P29_004": "ＹＭＣＡ国際ビジネス専門学校", "P29_005": "神奈川県川崎市多摩区登戸3032-2", "P29_006": "4", "P29_007": "0", "P29_008": "00", "P29_009": null }, "geometry": { "type": "Point", "coordinates": [ 139.569274543235792, 35.617798958888443 ] } },
{ "type": "Feature", "properties": { "P29_001": "14136", "P29_002": "H114313000085", "P29_003": "16016", "P29_004": "高津看護専門学校", "P29_005": "神奈川県川崎市宮前区土橋4-2-6", "P29_006": "4", "P29_007": "0", "P29_008": "00", "P29_009": null }, "geometry": { "type": "Point", "coordinates": [ 139.571351473086281, 35.587060162543402 ] } },
{ "type": "Feature", "properties": { "P29_001": "14151", "P29_002": "H114315000017", "P29_003": "16016", "P29_004": "神奈川経済専門学校", "P29_005": "神奈川県相模原市緑区東橋本2-33-5", "P29_006": "4", "P29_007": "0", "P29_008": "00", "P29_009": null }, "geometry": { "type": "Point", "coordinates": [ 139.351013645334376, 35.594950875115771 ] } },
{ "type": "Feature", "properties": { "P29_001": "14152", "P29_002": "H114315000026", "P29_003": "16016", "P29_004": "相模原調理師専門学校", "P29_005": "神奈川県相模原市中央区中央5-8-1", "P29_006": "4", "P29_007": "0", "P29_008": "00", "P29_009": null }, "geometry": { "type": "Point", "coordinates": [ 139.36657207625953, 35.571306233200552 ] } },
{ "type": "Feature", "properties": { "P29_001": "14152", "P29_002": "H114315000035", "P29_003": "16016", "P29_004": "相模原ビジネス公務員専門学校", "P29_005": "神奈川県相模原市中央区相模原5-3-4", "P29_006": "4", "P29_007": "0", "P29_008": "00", "P29_009": null }, "geometry": { "type": "Point", "coordinates": [ 139.373071058092734, 35.577600337536175 ] } },
{ "type": "Feature", "properties": { "P29_001": "14153", "P29_002": "H114315000044", "P29_003": "16016", "P29_004": "医療ビジネス観光福祉専門学校", "P29_005": "神奈川県相模原市南区上鶴間本町3-18-27", "P29_006": "4", "P29_007": "0", "P29_008": "00", "P29_009": null }, "geometry": { "type": "Point", "coordinates": [ 139.443696736746233, 35.541318224797642 ] } },
{ "type": "Feature", "properties": { "P29_001": "14153", "P29_002": "H114315000053", "P29_003": "16016", "P29_004": "神奈川柔整鍼灸専門学校", "P29_005": "神奈川県相模原市南区松が枝町7-5", "P29_006": "4", "P29_007": "0", "P29_008": "00", "P29_009": null }, "geometry": { "type": "Point", "coordinates": [ 139.427965345815693, 35.516692058018833 ] } },
{ "type": "Feature", "properties": { "P29_001": "14153", "P29_002": "H114315000062", "P29_003": "16016", "P29_004": "相模原看護専門学校", "P29_005": "神奈川県相模原市南区新磯野4-1-1", "P29_006": "4", "P29_007": "0", "P29_008": "00", "P29_009": null }, "geometry": { "type": "Point", "coordinates": [ 139.404187173335771, 35.510558478739199 ] } },
{ "type": "Feature", "properties": { "P29_001": "14201", "P29_002": "H114320100025", "P29_003": "16016", "P29_004": "ヨコスカ調理製菓専門学校", "P29_005": "神奈川県横須賀市汐入町2-9", "P29_006": "4", "P29_007": "0", "P29_008": "00", "P29_009": null }, "geometry": { "type": "Point", "coordinates": [ 139.660307651151953, 35.281094828968314 ] } },
{ "type": "Feature", "properties": { "P29_001": "14201", "P29_002": "H114320100034", "P29_003": "16016", "P29_004": "神奈川衛生学園専門学校", "P29_005": "神奈川県横須賀市佐野町2-34", "P29_006": "4", "P29_007": "0", "P29_008": "00", "P29_009": null }, "geometry": { "type": "Point", "coordinates": [ 139.666830271287267, 35.266247348693923 ] } },
{ "type": "Feature", "properties": { "P29_001": "14203", "P29_002": "H114320300014", "P29_003": "16016", "P29_004": "湘南歯科衛生士専門学校", "P29_005": "神奈川県平塚市八重咲町1-6", "P29_006": "4", "P29_007": "0", "P29_008": "00", "P29_009": null }, "geometry": { "type": "Point", "coordinates": [ 139.350810238653366, 35.327376883888995 ] } },
{ "type": "Feature", "properties": { "P29_001": "14203", "P29_002": "H114320300023", "P29_003": "16016", "P29_004": "神奈川社会福祉専門学校", "P29_005": "神奈川県平塚市立野町1-1", "P29_006": "4", "P29_007": "0", "P29_008": "00", "P29_009": null }, "geometry": { "type": "Point", "coordinates": [ 139.344210109776441, 35.332635160796571 ] } },
{ "type": "Feature", "properties": { "P29_001": "14203", "P29_002": "H114320300032", "P29_003": "16016", "P29_004": "湘南平塚看護専門学校", "P29_005": "神奈川県平塚市富士見町5-17", "P29_006": "4", "P29_007": "0", "P29_008": "00", "P29_009": null }, "geometry": { "type": "Point", "coordinates": [ 139.335613874429981, 35.337019633622177 ] } },
{ "type": "Feature", "properties": { "P29_001": "14203", "P29_002": "H114320300041", "P29_003": "16016", "P29_004": "日本ヒューマンセレモニー専門学校", "P29_005": "神奈川県平塚市八重咲町7-30", "P29_006": "4", "P29_007": "0", "P29_008": "00", "P29_009": null }, "geometry": { "type": "Point", "coordinates": [ 139.348638262671727, 35.32673161036633 ] } },
{ "type": "Feature", "properties": { "P29_001": "14203", "P29_002": "H114320300050", "P29_003": "16016", "P29_004": "湘南ウェディング専門学校", "P29_005": "神奈川県平塚市代官町4-3", "P29_006": "4", "P29_007": "0", "P29_008": "00", "P29_009": null }, "geometry": { "type": "Point", "coordinates": [ 139.352915568802416, 35.327687195594159 ] } },
{ "type": "Feature", "properties": { "P29_001": "14204", "P29_002": "H114320400013", "P29_003": "16016", "P29_004": "鎌倉早見美容芸術専門学校", "P29_005": "神奈川県鎌倉市小町1-2-16", "P29_006": "4", "P29_007": "0", "P29_008": "00", "P29_009": null }, "geometry": { "type": "Point", "coordinates": [ 139.55078761461445, 35.317815078639129 ] } },
{ "type": "Feature", "properties": { "P29_001": "14205", "P29_002": "H114320500021", "P29_003": "16016", "P29_004": "日本ガーデンデザイン専門学校", "P29_005": "神奈川県藤沢市大鋸1218-1", "P29_006": "4", "P29_007": "0", "P29_008": "00", "P29_009": null }, "geometry": { "type": "Point", "coordinates": [ 139.493680879520468, 35.358191806323546 ] } },
{ "type": "Feature", "properties": { "P29_001": "14205", "P29_002": "H114320500030", "P29_003": "16016", "P29_004": "湘南看護専門学校", "P29_005": "神奈川県藤沢市大庭5062-3", "P29_006": "4", "P29_007": "0", "P29_008": "00", "P29_009": null }, "geometry": { "type": "Point", "coordinates": [ 139.445831572176957, 35.358799047088297 ] } },
{ "type": "Feature", "properties": { "P29_001": "14206", "P29_002": "H114320600011", "P29_003": "16016", "P29_004": "崎村調理師専門学校", "P29_005": "神奈川県小田原市城山2-1-9", "P29_006": "4", "P29_007": "0", "P29_008": "00", "P29_009": null }, "geometry": { "type": "Point", "coordinates": [ 139.151972899058109, 35.256961010879792 ] } },
{ "type": "Feature", "properties": { "P29_001": "14206", "P29_002": "H114320600020", "P29_003": "16016", "P29_004": "小澤高等看護学院", "P29_005": "神奈川県小田原市本町1-1-17", "P29_006": "4", "P29_007": "0", "P29_008": "00", "P29_009": null }, "geometry": { "type": "Point", "coordinates": [ 139.158643938340134, 35.251634584874566 ] } },
{ "type": "Feature", "properties": { "P29_001": "14206", "P29_002": "H114320600048", "P29_003": "16016", "P29_004": "おだわら看護専門学校", "P29_005": "神奈川県小田原市久野115-2", "P29_006": "4", "P29_007": "0", "P29_008": "00", "P29_009": null }, "geometry": { "type": "Point", "coordinates": [ 139.150180457625339, 35.268135917684681 ] } },
{ "type": "Feature", "properties": { "P29_001": "14207", "P29_002": "H114320700010", "P29_003": "16016", "P29_004": "茅ヶ崎看護専門学校", "P29_005": "神奈川県茅ヶ崎市今宿390", "P29_006": "4", "P29_007": "0", "P29_008": "00", "P29_009": null }, "geometry": { "type": "Point", "coordinates": [ 139.384403689619347, 35.334537518655594 ] } },
{ "type": "Feature", "properties": { "P29_001": "14207", "P29_002": "H114320700029", "P29_003": "16016", "P29_004": "茅ヶ崎リハビリテーション専門学校", "P29_005": "神奈川県茅ヶ崎市南湖1-6-11", "P29_006": "4", "P29_007": "0", "P29_008": "00", "P29_009": null }, "geometry": { "type": "Point", "coordinates": [ 139.391121310247144, 35.328452625233879 ] } },
{ "type": "Feature", "properties": { "P29_001": "14211", "P29_002": "H114321100014", "P29_003": "16016", "P29_004": "アイム湘南理容美容専門学校", "P29_005": "神奈川県秦野市尾尻536-1", "P29_006": "4", "P29_007": "0", "P29_008": "00", "P29_009": null }, "geometry": { "type": "Point", "coordinates": [ 139.22735949502453, 35.362318832810928 ] } },
{ "type": "Feature", "properties": { "P29_001": "14212", "P29_002": "H114321200013", "P29_003": "16016", "P29_004": "専門学校神奈川総合大学校", "P29_005": "神奈川県厚木市恩名1-17-18", "P29_006": "4", "P29_007": "0", "P29_008": "00", "P29_009": null }, "geometry": { "type": "Point", "coordinates": [ 139.353664305848298, 35.436989204055678 ] } },
{ "type": "Feature", "properties": { "P29_001": "14212", "P29_002": "H114321200031", "P29_003": "16016", "P29_004": "厚木総合専門学校", "P29_005": "神奈川県厚木市中町3-4-11", "P29_006": "4", "P29_007": "0", "P29_008": "00", "P29_009": null }, "geometry": { "type": "Point", "coordinates": [ 139.362070940960649, 35.440066636844541 ] } },
{ "type": "Feature", "properties": { "P29_001": "14212", "P29_002": "H114321200040", "P29_003": "16016", "P29_004": "厚木看護専門学校", "P29_005": "神奈川県厚木市松枝2-6-5", "P29_006": "4", "P29_007": "0", "P29_008": "00", "P29_009": null }, "geometry": { "type": "Point", "coordinates": [ 139.357499559794775, 35.450816575179481 ] } },
{ "type": "Feature", "properties": { "P29_001": "14212", "P29_002": "H114321200068", "P29_003": "16016", "P29_004": "ＹＭＣＡ健康福祉専門学校", "P29_005": "神奈川県厚木市中町4-16-19", "P29_006": "4", "P29_007": "0", "P29_008": "00", "P29_009": null }, "geometry": { "type": "Point", "coordinates": [ 139.360970207257708, 35.43911958964906 ] } },
{ "type": "Feature", "properties": { "P29_001": "14213", "P29_002": "H114321300012", "P29_003": "16016", "P29_004": "大和商業高等専修学校", "P29_005": "神奈川県大和市深見東1-1-9", "P29_006": "4", "P29_007": "0", "P29_008": "00", "P29_009": null }, "geometry": { "type": "Point", "coordinates": [ 139.465376788636604, 35.476414103165482 ] } },
{ "type": "Feature", "properties": { "P29_001": "14213", "P29_002": "H114321300021", "P29_003": "16016", "P29_004": "柏木実業専門学校", "P29_005": "神奈川県大和市深見東1-1-9", "P29_006": "4", "P29_007": "0", "P29_008": "00", "P29_009": null }, "geometry": { "type": "Point", "coordinates": [ 139.465306845697398, 35.476614489232738 ] } },
{ "type": "Feature", "properties": { "P29_001": "14215", "P29_002": "H114321800017", "P29_003": "16016", "P29_004": "湘央医学技術専門学校", "P29_005": "神奈川県綾瀬市小園1424-4", "P29_006": "4", "P29_007": "0", "P29_008": "00", "P29_009": null }, "geometry": { "type": "Point", "coordinates": [ 139.408030021973872, 35.454816141813815 ] } },
{ "type": "Feature", "properties": { "P29_001": "14218", "P29_002": "H114321800026", "P29_003": "16016", "P29_004": "湘央生命科学技術専門学校", "P29_005": "神奈川県綾瀬市小園1424-4", "P29_006": "4", "P29_007": "0", "P29_008": "00", "P29_009": null }, "geometry": { "type": "Point", "coordinates": [ 139.407861259511719, 35.454309446375461 ] } },
{ "type": "Feature", "properties": { "P29_001": "14218", "P29_002": "H114321800035", "P29_003": "16016", "P29_004": "生蘭高等専修学校", "P29_005": "神奈川県綾瀬市小園1520", "P29_006": "4", "P29_007": "0", "P29_008": "00", "P29_009": null }, "geometry": { "type": "Point", "coordinates": [ 139.406667172995299, 35.450739112331746 ] } },
{ "type": "Feature", "properties": { "P29_001": "14104", "P29_002": "H114210010018", "P29_003": "16016", "P29_004": "神奈川県立衛生看護専門学校", "P29_005": "神奈川県横浜市中区根岸町2-85-2", "P29_006": "2", "P29_007": "0", "P29_008": "00", "P29_009": null }, "geometry": { "type": "Point", "coordinates": [ 139.642265621411866, 35.418058288189428 ] } },
{ "type": "Feature", "properties": { "P29_001": "14112", "P29_002": "H114210010027", "P29_003": "16016", "P29_004": "神奈川県立よこはま看護専門学校", "P29_005": "神奈川県横浜市旭区中尾1-5-1", "P29_006": "2", "P29_007": "0", "P29_008": "00", "P29_009": null }, "geometry": { "type": "Point", "coordinates": [ 139.521336893102102, 35.468065325356804 ] } },
{ "type": "Feature", "properties": { "P29_001": "14102", "P29_002": "H114310000036", "P29_003": "16016", "P29_004": "浅野工学専門学校", "P29_005": "神奈川県横浜市神奈川区子安台1-3-1", "P29_006": "4", "P29_007": "0", "P29_008": "00", "P29_009": null }, "geometry": { "type": "Point", "coordinates": [ 139.660022647515291, 35.490738599568004 ] } },
{ "type": "Feature", "properties": { "P29_001": "14105", "P29_002": "H114310000349", "P29_003": "16016", "P29_004": "横浜テクノオート専門学校", "P29_005": "神奈川県横浜市南区中村町5-315", "P29_006": "4", "P29_007": "0", "P29_008": "00", "P29_009": null }, "geometry": { "type": "Point", "coordinates": [ 139.622008860953201, 35.429519011049713 ] } },
{ "type": "Feature", "properties": { "P29_001": "14109", "P29_002": "H114310000385", "P29_003": "16016", "P29_004": "新横浜歯科衛生士・歯科技工士専門学校", "P29_005": "神奈川県横浜市港北区新横浜2-5-8", "P29_006": "4", "P29_007": "0", "P29_008": "00", "P29_009": null }, "geometry": { "type": "Point", "coordinates": [ 139.615469026242238, 35.509573615057143 ] } },
{ "type": "Feature", "properties": { "P29_001": "14109", "P29_002": "H114310000456", "P29_003": "16016", "P29_004": "労働者健康安全機構横浜労災看護専門学校", "P29_005": "神奈川県横浜市港北区小机町3211", "P29_006": "4", "P29_007": "0", "P29_008": "00", "P29_009": null }, "geometry": { "type": "Point", "coordinates": [ 139.610071434847185, 35.511351933400057 ] } },
{ "type": "Feature", "properties": { "P29_001": "14110", "P29_002": "H114310000483", "P29_003": "16016", "P29_004": "湘南医療福祉専門学校", "P29_005": "神奈川県横浜市戸塚区川上町84-1", "P29_006": "4", "P29_007": "0", "P29_008": "00", "P29_009": null }, "geometry": { "type": "Point", "coordinates": [ 139.554484565088075, 35.42986604477499 ] } },
{ "type": "Feature", "properties": { "P29_001": "14110", "P29_002": "H114310000517", "P29_003": "16016", "P29_004": "国立病院機構横浜医療センター附属横浜看護学校", "P29_005": "神奈川県横浜市戸塚区原宿3-60-2", "P29_006": "0", "P29_007": "0", "P29_008": "00", "P29_009": null }, "geometry": { "type": "Point", "coordinates": [ 139.506378907200116, 35.379180200789186 ] } },
{ "type": "Feature", "properties": { "P29_001": "14110", "P29_002": "H114310000535", "P29_003": "16016", "P29_004": "横浜未来看護専門学校", "P29_005": "神奈川県横浜市戸塚区矢部町365-2", "P29_006": "4", "P29_007": "0", "P29_008": "00", "P29_009": null }, "geometry": { "type": "Point", "coordinates": [ 139.536257228085219, 35.405631141928161 ] } },
{ "type": "Feature", "properties": { "P29_001": "14117", "P29_002": "H114310000580", "P29_003": "16016", "P29_004": "たまプラーザ看護学校", "P29_005": "神奈川県横浜市青葉区新石川4-20-17", "P29_006": "4", "P29_007": "0", "P29_008": "00", "P29_009": null }, "geometry": { "type": "Point", "coordinates": [ 139.565815397906874, 35.570038843925957 ] } },
{ "type": "Feature", "properties": { "P29_001": "14136", "P29_002": "H114313000076", "P29_003": "16016", "P29_004": "聖マリアンナ医科大学看護専門学校", "P29_005": "神奈川県川崎市宮前区菅生2-16-1", "P29_006": "4", "P29_007": "0", "P29_008": "00", "P29_009": null }, "geometry": { "type": "Point", "coordinates": [ 139.549999492628501, 35.599084352505663 ] } },
{ "type": "Feature", "properties": { "P29_001": "14201", "P29_002": "H114320100016", "P29_003": "16016", "P29_004": "横須賀法律行政専門学校", "P29_005": "神奈川県横須賀市若松町2-31", "P29_006": "4", "P29_007": "0", "P29_008": "00", "P29_009": null }, "geometry": { "type": "Point", "coordinates": [ 139.670622424613498, 35.27768796470771 ] } },
{ "type": "Feature", "properties": { "P29_001": "14205", "P29_002": "H114320500012", "P29_003": "16016", "P29_004": "専門学校国際新堀芸術学院", "P29_005": "神奈川県藤沢市藤沢143-13", "P29_006": "4", "P29_007": "0", "P29_008": "00", "P29_009": null }, "geometry": { "type": "Point", "coordinates": [ 139.489866407739441, 35.340866901155159 ] } },
{ "type": "Feature", "properties": { "P29_001": "14206", "P29_002": "H114320600039", "P29_003": "16016", "P29_004": "積善会看護専門学校", "P29_005": "神奈川県小田原市曽我岸148", "P29_006": "4", "P29_007": "0", "P29_008": "00", "P29_009": null }, "geometry": { "type": "Point", "coordinates": [ 139.180357459140964, 35.301616043000813 ] } },
{ "type": "Feature", "properties": { "P29_001": "14210", "P29_002": "H114321000015", "P29_003": "16016", "P29_004": "日本さかな専門学校", "P29_005": "神奈川県三浦市三崎5-255-10", "P29_006": "4", "P29_007": "0", "P29_008": "00", "P29_009": null }, "geometry": { "type": "Point", "coordinates": [ 139.608590553844124, 35.142702104503762 ] } },
{ "type": "Feature", "properties": { "P29_001": "14214", "P29_002": "H114321400011", "P29_003": "16016", "P29_004": "国際総合健康専門学校", "P29_005": "神奈川県伊勢原市善波1160-1", "P29_006": "4", "P29_007": "0", "P29_008": "00", "P29_009": null }, "geometry": { "type": "Point", "coordinates": [ 139.259762038626093, 35.387277885061295 ] } }
]
}
