{
"type": "FeatureCollection",
"name": "geo_14_訪問リハビリテーション",
"crs": { "type": "name", "properties": { "name": "urn:ogc:def:crs:OGC:1.3:CRS84" } },
"features": [
{ "type": "Feature", "properties": { "内容": "平和病院【訪問リハビリテーション】神奈川県横浜市鶴見区東寺尾中台２９－１", "url": "https://www.kaigokensaku.mhlw.go.jp/14/index.php?action_kouhyou_detail_004_kani=true&JigyosyoCd=1410100065-00&ServiceCd=140&Type=search", "url2": "http://www.heiwakai.com" }, "geometry": { "type": "Point", "coordinates": [ 139.665496800000028, 35.5066901 ] } },
{ "type": "Feature", "properties": { "内容": "ハートクリニック【訪問リハビリテーション】神奈川県横浜市鶴見区豊岡町11番15号PATIO7-A101号室", "url": "https://www.kaigokensaku.mhlw.go.jp/14/index.php?action_kouhyou_detail_004_kani=true&JigyosyoCd=1410110015-00&ServiceCd=140&Type=search", "url2": "http://www.htc1021.com" }, "geometry": { "type": "Point", "coordinates": [ 139.672407300000032, 35.5085898 ] } },
{ "type": "Feature", "properties": { "内容": "佐々木病院【訪問リハビリテーション】神奈川県横浜市鶴見区下末吉1-13-8", "url": "https://www.kaigokensaku.mhlw.go.jp/14/index.php?action_kouhyou_detail_004_kani=true&JigyosyoCd=1410100362-00&ServiceCd=140&Type=search", "url2": null }, "geometry": { "type": "Point", "coordinates": [ 139.670774, 35.518916 ] } },
{ "type": "Feature", "properties": { "内容": "汐田総合病院【訪問リハビリテーション】神奈川県横浜市鶴見区矢向１－６－２０", "url": "https://www.kaigokensaku.mhlw.go.jp/14/index.php?action_kouhyou_detail_004_kani=true&JigyosyoCd=1410102798-00&ServiceCd=140&Type=search", "url2": "http://www.ushioda.or.jp/" }, "geometry": { "type": "Point", "coordinates": [ 139.678092200000037, 35.5296979 ] } },
{ "type": "Feature", "properties": { "内容": "うしおだ診療所【訪問リハビリテーション】神奈川県横浜市鶴見区本町通1-16-1", "url": "https://www.kaigokensaku.mhlw.go.jp/14/index.php?action_kouhyou_detail_004_kani=true&JigyosyoCd=1410104513-00&ServiceCd=140&Type=search", "url2": "http://www.ushioda-clinic.jp/" }, "geometry": { "type": "Point", "coordinates": [ 139.679784599999948, 35.5023601 ] } },
{ "type": "Feature", "properties": { "内容": "ふれあい鶴見ホスピタル【訪問リハビリテーション】神奈川県横浜市鶴見区東寺尾4-4-22", "url": "https://www.kaigokensaku.mhlw.go.jp/14/index.php?action_kouhyou_detail_004_kani=true&JigyosyoCd=1410105197-00&ServiceCd=140&Type=search", "url2": "http://www.fureai-g.or.jp/tsu/" }, "geometry": { "type": "Point", "coordinates": [ 139.658689200000026, 35.496219 ] } },
{ "type": "Feature", "properties": { "内容": "医療法人社団協友会　横浜鶴見リハビリテーション病院【訪問リハビリテーション】神奈川県横浜市鶴見区下野谷町4-145-1", "url": "https://www.kaigokensaku.mhlw.go.jp/14/index.php?action_kouhyou_detail_004_kani=true&JigyosyoCd=1410110536-00&ServiceCd=140&Type=search", "url2": "https://yt-reha.jp/" }, "geometry": { "type": "Point", "coordinates": [ 139.6822803, 35.4977831 ] } },
{ "type": "Feature", "properties": { "内容": "吉野整形外科【訪問リハビリテーション】神奈川県横浜市神奈川区大口通56-5大口メディカルセンター　1F", "url": "https://www.kaigokensaku.mhlw.go.jp/14/index.php?action_kouhyou_detail_004_kani=true&JigyosyoCd=1410204719-00&ServiceCd=140&Type=search", "url2": "http://www.yoshino-seikei.jp/" }, "geometry": { "type": "Point", "coordinates": [ 139.644962699999951, 35.4912053 ] } },
{ "type": "Feature", "properties": { "内容": "医療法人社団武蔵野会介護老人保健施設牧野ケアセンター【訪問リハビリテーション】神奈川県横浜市神奈川区菅田町1481-1", "url": "https://www.kaigokensaku.mhlw.go.jp/14/index.php?action_kouhyou_detail_004_kani=true&JigyosyoCd=1450280057-00&ServiceCd=140&Type=search", "url2": "https://makino-care.jp/" }, "geometry": { "type": "Point", "coordinates": [ 139.583654700000011, 35.498708 ] } },
{ "type": "Feature", "properties": { "内容": "古川病院【訪問リハビリテーション】神奈川県横浜市神奈川区子安通2-286", "url": "https://www.kaigokensaku.mhlw.go.jp/14/index.php?action_kouhyou_detail_004_kani=true&JigyosyoCd=1410200071-00&ServiceCd=140&Type=search", "url2": "http://furukawa-hospital.com/" }, "geometry": { "type": "Point", "coordinates": [ 139.655634042804223, 35.486088725091591 ] } },
{ "type": "Feature", "properties": { "内容": "神奈川脳神経外科クリニック【訪問リハビリテーション】神奈川県横浜市神奈川区西神奈川1-20-7ビューサイト横浜2F", "url": "https://www.kaigokensaku.mhlw.go.jp/14/index.php?action_kouhyou_detail_004_kani=true&JigyosyoCd=1410204511-00&ServiceCd=140&Type=search", "url2": "https://kanagawa-nsclinic.com/rihabiri/call" }, "geometry": { "type": "Point", "coordinates": [ 139.632316599999967, 35.4801146 ] } },
{ "type": "Feature", "properties": { "内容": "新横浜リハビリテーション病院【訪問リハビリテーション】神奈川県横浜市神奈川区菅田町2628-4", "url": "https://www.kaigokensaku.mhlw.go.jp/14/index.php?action_kouhyou_detail_004_kani=true&JigyosyoCd=1410204925-00&ServiceCd=140&Type=search", "url2": "http://www.syr-h.com/" }, "geometry": { "type": "Point", "coordinates": [ 139.59715940000001, 35.4977235 ] } },
{ "type": "Feature", "properties": { "内容": "反町整形外科【訪問リハビリテーション】神奈川県横浜市神奈川区反町3-18-2スタイリオ横浜反町3F", "url": "https://www.kaigokensaku.mhlw.go.jp/14/index.php?action_kouhyou_detail_004_kani=true&JigyosyoCd=1410210237-00&ServiceCd=140&Type=search", "url2": "http://www.tanmachi-seikei.com/access.html" }, "geometry": { "type": "Point", "coordinates": [ 139.6256163, 35.4746918 ] } },
{ "type": "Feature", "properties": { "内容": "社会福祉法人恩賜財団済生会支部神奈川県済生会東神奈川リハビリテーション病院【訪問リハビリテーション】神奈川県横浜市神奈川区西神奈川1-13-10", "url": "https://www.kaigokensaku.mhlw.go.jp/14/index.php?action_kouhyou_detail_004_kani=true&JigyosyoCd=1410210328-00&ServiceCd=140&Type=search", "url2": "https://www.higashikanagawa.saiseikai.or.jp" }, "geometry": { "type": "Point", "coordinates": [ 139.6307123, 35.480565 ] } },
{ "type": "Feature", "properties": { "内容": "医療法人社団ゆうま会　つよし在宅クリニック【訪問リハビリテーション】神奈川県横浜市神奈川区新町14-1タナカビル5階", "url": "https://www.kaigokensaku.mhlw.go.jp/14/index.php?action_kouhyou_detail_004_kani=true&JigyosyoCd=1410210567-00&ServiceCd=140&Type=search", "url2": "https://yuumakai.com/tsuyoshi_zaitaku/" }, "geometry": { "type": "Point", "coordinates": [ 139.6404291, 35.4811038 ] } },
{ "type": "Feature", "properties": { "内容": "介護老人保健施設リハリゾートわかたけ【訪問リハビリテーション】神奈川県横浜市神奈川区菅田町１８２６", "url": "https://www.kaigokensaku.mhlw.go.jp/14/index.php?action_kouhyou_detail_004_kani=true&JigyosyoCd=1450280008-00&ServiceCd=140&Type=search", "url2": "https://wakatake.net" }, "geometry": { "type": "Point", "coordinates": [ 139.588004899999987, 35.5004371 ] } },
{ "type": "Feature", "properties": { "内容": "医療法人明和会亀田病院【訪問リハビリテーション】神奈川県横浜市西区御所山町77番地", "url": "https://www.kaigokensaku.mhlw.go.jp/14/index.php?action_kouhyou_detail_004_kani=true&JigyosyoCd=1410300970-00&ServiceCd=140&Type=search", "url2": "http://www.kameda-hp.jp" }, "geometry": { "type": "Point", "coordinates": [ 139.62343450000003, 35.4554925 ] } },
{ "type": "Feature", "properties": { "内容": "医療法人社団　愛友会　介護老人保健施設　ハートケア横浜【訪問リハビリテーション】神奈川県横浜市西区高島１－４－１８", "url": "https://www.kaigokensaku.mhlw.go.jp/14/index.php?action_kouhyou_detail_004_kani=true&JigyosyoCd=1450380006-00&ServiceCd=140&Type=search", "url2": "https://www.hcyokohama.jp" }, "geometry": { "type": "Point", "coordinates": [ 139.624512099999947, 35.4595559 ] } },
{ "type": "Feature", "properties": { "内容": "医療法人回生会　ふれあい横浜ホスピタル【訪問リハビリテーション】神奈川県横浜市中区万代町2-3-3", "url": "https://www.kaigokensaku.mhlw.go.jp/14/index.php?action_kouhyou_detail_004_kani=true&JigyosyoCd=1410401638-00&ServiceCd=140&Type=search", "url2": "http://www.fureai-g.or.jp/kaiseikai/" }, "geometry": { "type": "Point", "coordinates": [ 139.635523, 35.4422246 ] } },
{ "type": "Feature", "properties": { "内容": "医療法人博生会　本牧病院付属クリニック【訪問リハビリテーション】神奈川県横浜市中区本牧三之谷8－9", "url": "https://www.kaigokensaku.mhlw.go.jp/14/index.php?action_kouhyou_detail_004_kani=true&JigyosyoCd=1410405522-00&ServiceCd=140&Type=search", "url2": "https://honmoku-hospital.or.jp" }, "geometry": { "type": "Point", "coordinates": [ 139.666125599999987, 35.4215408 ] } },
{ "type": "Feature", "properties": { "内容": "横濱　松宮整形外科リハビリテーションクリニック【訪問リハビリテーション】神奈川県横浜市中区曙町2-19-1新井ビル1階", "url": "https://www.kaigokensaku.mhlw.go.jp/14/index.php?action_kouhyou_detail_004_kani=true&JigyosyoCd=1410410407-00&ServiceCd=140&Type=search", "url2": "https://matsumiya-clinic.com" }, "geometry": { "type": "Point", "coordinates": [ 139.629727300000013, 35.4408388 ] } },
{ "type": "Feature", "properties": { "内容": "医療法人社団オハナ　長者町ファミリークリニック【訪問リハビリテーション】神奈川県横浜市中区長者町３－７－５YS長者町ビル１F", "url": "https://www.kaigokensaku.mhlw.go.jp/14/index.php?action_kouhyou_detail_004_kani=true&JigyosyoCd=1410406579-00&ServiceCd=140&Type=search", "url2": "http://www.choja-family-clinic.com/" }, "geometry": { "type": "Point", "coordinates": [ 139.6338257306885, 35.439830233728806 ] } },
{ "type": "Feature", "properties": { "内容": "石川町整形外科【訪問リハビリテーション】神奈川県横浜市中区吉浜町1番地2パークスクエア横浜2F", "url": "https://www.kaigokensaku.mhlw.go.jp/14/index.php?action_kouhyou_detail_004_kani=true&JigyosyoCd=1410406678-00&ServiceCd=140&Type=search", "url2": "http://www.ishi-seikei.com" }, "geometry": { "type": "Point", "coordinates": [ 139.64338650000002, 35.4396 ] } },
{ "type": "Feature", "properties": { "内容": "医療法人佐藤病院【訪問リハビリテーション】神奈川県横浜市南区南太田1-10-3", "url": "https://www.kaigokensaku.mhlw.go.jp/14/index.php?action_kouhyou_detail_004_kani=true&JigyosyoCd=1410500215-00&ServiceCd=140&Type=search", "url2": "https://www.satohospital.com/" }, "geometry": { "type": "Point", "coordinates": [ 139.614799299999959, 35.4357281 ] } },
{ "type": "Feature", "properties": { "内容": "介護老人保健施設レストア横浜【訪問リハビリテーション】神奈川県横浜市南区六ッ川3-5-1", "url": "https://www.kaigokensaku.mhlw.go.jp/14/index.php?action_kouhyou_detail_004_kani=true&JigyosyoCd=1450580019-00&ServiceCd=140&Type=search", "url2": "https://restore-y.jp/" }, "geometry": { "type": "Point", "coordinates": [ 139.581439499999988, 35.4209326 ] } },
{ "type": "Feature", "properties": { "内容": "医療法人社団明芳会　イムス横浜狩場脳神経外科病院【訪問リハビリテーション】神奈川県横浜市保土ヶ谷区狩場町218番地の9", "url": "https://www.kaigokensaku.mhlw.go.jp/14/index.php?action_kouhyou_detail_004_kani=true&JigyosyoCd=1410603381-00&ServiceCd=140&Type=search", "url2": "http://www.karibanouge.com/" }, "geometry": { "type": "Point", "coordinates": [ 139.57649, 35.4336753 ] } },
{ "type": "Feature", "properties": { "内容": "横浜権太坂中央クリニック　訪問リハビリテーション【訪問リハビリテーション】神奈川県横浜市保土ヶ谷区権太坂3丁目8番16号ロピア権太坂店2階", "url": "https://www.kaigokensaku.mhlw.go.jp/14/index.php?action_kouhyou_detail_004_kani=true&JigyosyoCd=1410610642-00&ServiceCd=140&Type=search", "url2": "https://www.chuoh-cl.jp/" }, "geometry": { "type": "Point", "coordinates": [ 139.575711, 35.4355848 ] } },
{ "type": "Feature", "properties": { "内容": "介護老人保健施設　けいあいの郷　西谷【訪問リハビリテーション】神奈川県横浜市保土ヶ谷区西谷町1018-2", "url": "https://www.kaigokensaku.mhlw.go.jp/14/index.php?action_kouhyou_detail_004_kani=true&JigyosyoCd=1450680041-00&ServiceCd=140&Type=search", "url2": "http://keiainosato-nishiya.jp/" }, "geometry": { "type": "Point", "coordinates": [ 139.565087299999959, 35.4805416 ] } },
{ "type": "Feature", "properties": { "内容": "横山医院【訪問リハビリテーション】神奈川県横浜市保土ヶ谷区峰岡町2-118", "url": "https://www.kaigokensaku.mhlw.go.jp/14/index.php?action_kouhyou_detail_004_kani=true&JigyosyoCd=1410603480-00&ServiceCd=140&Type=search", "url2": "http://clinic-yokoyama.com/" }, "geometry": { "type": "Point", "coordinates": [ 139.596565212083419, 35.461750285816329 ] } },
{ "type": "Feature", "properties": { "内容": "河原整形外科【訪問リハビリテーション】神奈川県横浜市磯子区杉田1-1-1らびすた新杉田１階", "url": "https://www.kaigokensaku.mhlw.go.jp/14/index.php?action_kouhyou_detail_004_kani=true&JigyosyoCd=1410703025-00&ServiceCd=140&Type=search", "url2": "http://kawahara-seikei.net" }, "geometry": { "type": "Point", "coordinates": [ 139.619102700000013, 35.385729 ] } },
{ "type": "Feature", "properties": { "内容": "介護老人保健施設ほのぼの【訪問リハビリテーション】神奈川県横浜市磯子区氷取沢町５０", "url": "https://www.kaigokensaku.mhlw.go.jp/14/index.php?action_kouhyou_detail_004_kani=true&JigyosyoCd=1450780031-00&ServiceCd=140&Type=search", "url2": "https://rouken-honobono.jp/" }, "geometry": { "type": "Point", "coordinates": [ 139.6097509, 35.3655169 ] } },
{ "type": "Feature", "properties": { "内容": "医療法人光陽会　磯子中央病院【訪問リハビリテーション】神奈川県横浜市磯子区磯子2-20-45", "url": "https://www.kaigokensaku.mhlw.go.jp/14/index.php?action_kouhyou_detail_004_kani=true&JigyosyoCd=1410701052-00&ServiceCd=140&Type=search", "url2": "http://www.isogohp.jp/" }, "geometry": { "type": "Point", "coordinates": [ 139.62146580000001, 35.4072075 ] } },
{ "type": "Feature", "properties": { "内容": "やそだ整形外科リウマチクリニック【訪問リハビリテーション】神奈川県横浜市磯子区洋光台６－７－２７", "url": "https://www.kaigokensaku.mhlw.go.jp/14/index.php?action_kouhyou_detail_004_kani=true&JigyosyoCd=1410702399-00&ServiceCd=140&Type=search", "url2": "http://www.yasoda-clinic.com" }, "geometry": { "type": "Point", "coordinates": [ 139.596280100000058, 35.3726999 ] } },
{ "type": "Feature", "properties": { "内容": "関東病院【訪問リハビリテーション】神奈川県横浜市磯子区森1-16-26", "url": "https://www.kaigokensaku.mhlw.go.jp/14/index.php?action_kouhyou_detail_004_kani=true&JigyosyoCd=1410710012-00&ServiceCd=140&Type=search", "url2": "http://www.kantohospital.cleans.jp/" }, "geometry": { "type": "Point", "coordinates": [ 139.614464, 35.3963476 ] } },
{ "type": "Feature", "properties": { "内容": "康心会汐見台病院【訪問リハビリテーション】神奈川県横浜市磯子区汐見台1-6-5", "url": "https://www.kaigokensaku.mhlw.go.jp/14/index.php?action_kouhyou_detail_004_kani=true&JigyosyoCd=1410710137-00&ServiceCd=140&Type=search", "url2": "https://www.fg-kshp.jp/" }, "geometry": { "type": "Point", "coordinates": [ 139.607890700000013, 35.4014022 ] } },
{ "type": "Feature", "properties": { "内容": "洋光台中央整形外科クリニック【訪問リハビリテーション】神奈川県横浜市磯子区洋光台3-1-37", "url": "https://www.kaigokensaku.mhlw.go.jp/14/index.php?action_kouhyou_detail_004_kani=true&JigyosyoCd=1410710178-00&ServiceCd=140&Type=search", "url2": "https://ycos-clinic.com/" }, "geometry": { "type": "Point", "coordinates": [ 139.5943565, 35.3795036 ] } },
{ "type": "Feature", "properties": { "内容": "横浜磯子介護老人保健施設【訪問リハビリテーション】神奈川県横浜市磯子区森1-16-3", "url": "https://www.kaigokensaku.mhlw.go.jp/14/index.php?action_kouhyou_detail_004_kani=true&JigyosyoCd=1450780015-00&ServiceCd=140&Type=search", "url2": null }, "geometry": { "type": "Point", "coordinates": [ 139.614667700000012, 35.3962569 ] } },
{ "type": "Feature", "properties": { "内容": "横浜市立脳卒中・神経脊椎センター介護老人保健施設　コスモス【訪問リハビリテーション】神奈川県横浜市磯子区滝頭1-2-1", "url": "https://www.kaigokensaku.mhlw.go.jp/14/index.php?action_kouhyou_detail_004_kani=true&JigyosyoCd=1470701184-00&ServiceCd=140&Type=search", "url2": "http://cosmos.jinai.jp/" }, "geometry": { "type": "Point", "coordinates": [ 139.6178079, 35.4220441 ] } },
{ "type": "Feature", "properties": { "内容": "介護老人保健施設ひとりざわ【訪問リハビリテーション】神奈川県横浜市磯子区氷取沢町93-1", "url": "https://www.kaigokensaku.mhlw.go.jp/14/index.php?action_kouhyou_detail_004_kani=true&JigyosyoCd=1450780023-00&ServiceCd=140&Type=search", "url2": "http://www.kokorocare.net/" }, "geometry": { "type": "Point", "coordinates": [ 139.608203900000035, 35.3640044 ] } },
{ "type": "Feature", "properties": { "内容": "小谷クリニック【訪問リハビリテーション】神奈川県横浜市金沢区柴町349-1", "url": "https://www.kaigokensaku.mhlw.go.jp/14/index.php?action_kouhyou_detail_004_kani=true&JigyosyoCd=1410802272-00&ServiceCd=140&Type=search", "url2": "http://www.kodani.jp/" }, "geometry": { "type": "Point", "coordinates": [ 139.638779099999965, 35.345479799999985 ] } },
{ "type": "Feature", "properties": { "内容": "介護老人保健施設　こもれび【訪問リハビリテーション】神奈川県横浜市金沢区釜利谷東5-1-30", "url": "https://www.kaigokensaku.mhlw.go.jp/14/index.php?action_kouhyou_detail_004_kani=true&JigyosyoCd=1450880005-00&ServiceCd=140&Type=search", "url2": "http://www.keisuikai.or.jp/komorebi/" }, "geometry": { "type": "Point", "coordinates": [ 139.6061105, 35.3506009 ] } },
{ "type": "Feature", "properties": { "内容": "介護老人保健施設ふるさと【訪問リハビリテーション】神奈川県横浜市金沢区柴町391-10", "url": "https://www.kaigokensaku.mhlw.go.jp/14/index.php?action_kouhyou_detail_004_kani=true&JigyosyoCd=1450880039-00&ServiceCd=140&Type=search", "url2": "http://www.keisuikai.or.jp/furusato/" }, "geometry": { "type": "Point", "coordinates": [ 139.635485, 35.3425274 ] } },
{ "type": "Feature", "properties": { "内容": "医療法人社団協友会　金沢文庫病院【訪問リハビリテーション】神奈川県横浜市金沢区釜利谷東2-6-22", "url": "https://www.kaigokensaku.mhlw.go.jp/14/index.php?action_kouhyou_detail_004_kani=true&JigyosyoCd=1410801654-00&ServiceCd=140&Type=search", "url2": "https://www.kanabun-hp.jp/" }, "geometry": { "type": "Point", "coordinates": [ 139.613889699999959, 35.3440711 ] } },
{ "type": "Feature", "properties": { "内容": "介護老人保健施設能見台パートリア【訪問リハビリテーション】神奈川県横浜市金沢区能見台東10-1", "url": "https://www.kaigokensaku.mhlw.go.jp/14/index.php?action_kouhyou_detail_004_kani=true&JigyosyoCd=1450880013-00&ServiceCd=140&Type=search", "url2": "http://www.kowakai-patria.com/" }, "geometry": { "type": "Point", "coordinates": [ 139.62435450000001, 35.3574854 ] } },
{ "type": "Feature", "properties": { "内容": "社会福祉法人　恩賜財団　済生会支部神奈川県済生会　若草病院【訪問リハビリテーション】神奈川県横浜市金沢区平潟町12-1", "url": "https://www.kaigokensaku.mhlw.go.jp/14/index.php?action_kouhyou_detail_004_kani=true&JigyosyoCd=1410800102-00&ServiceCd=140&Type=search", "url2": "http://www.wakakusa.saiseikai.or.jp/" }, "geometry": { "type": "Point", "coordinates": [ 139.6310439, 35.333079 ] } },
{ "type": "Feature", "properties": { "内容": "医療法人社団協友会横浜なみきリハビリテーション病院【訪問リハビリテーション】神奈川県横浜市金沢区並木２－８－１", "url": "https://www.kaigokensaku.mhlw.go.jp/14/index.php?action_kouhyou_detail_004_kani=true&JigyosyoCd=1410803767-00&ServiceCd=140&Type=search", "url2": "http://www.ynrh.jp/" }, "geometry": { "type": "Point", "coordinates": [ 139.637968099999966, 35.3626969 ] } },
{ "type": "Feature", "properties": { "内容": "大倉山記念病院【訪問リハビリテーション】神奈川県横浜市港北区樽町1-1-23", "url": "https://www.kaigokensaku.mhlw.go.jp/14/index.php?action_kouhyou_detail_004_kani=true&JigyosyoCd=1410907352-00&ServiceCd=140&Type=search", "url2": "http://www.omh.or.jp" }, "geometry": { "type": "Point", "coordinates": [ 139.633435299999974, 35.5255543 ] } },
{ "type": "Feature", "properties": { "内容": "介護老人保健施設ウェルケア新吉田【訪問リハビリテーション】神奈川県横浜市港北区新吉田町6028-1", "url": "https://www.kaigokensaku.mhlw.go.jp/14/index.php?action_kouhyou_detail_004_kani=true&JigyosyoCd=1450980011-00&ServiceCd=140&Type=search", "url2": "https://welcare.or.jp" }, "geometry": { "type": "Point", "coordinates": [ 139.60357, 35.539267700000039 ] } },
{ "type": "Feature", "properties": { "内容": "みずほクリニック港北【訪問リハビリテーション】神奈川県横浜市港北区新横浜2-4-17新横浜千歳観光第2ビル6F", "url": "https://www.kaigokensaku.mhlw.go.jp/14/index.php?action_kouhyou_detail_004_kani=true&JigyosyoCd=1410911297-00&ServiceCd=140&Type=search", "url2": "https://shuhokai.or.jp/mizuho-clinic/rehabili/" }, "geometry": { "type": "Point", "coordinates": [ 139.616701500000033, 35.5088401 ] } },
{ "type": "Feature", "properties": { "内容": "新横浜介護老人保健施設　カメリア【訪問リハビリテーション】神奈川県横浜市港北区新羽町4076-5", "url": "https://www.kaigokensaku.mhlw.go.jp/14/index.php?action_kouhyou_detail_004_kani=true&JigyosyoCd=1450980029-00&ServiceCd=140&Type=search", "url2": "http://www.camellia-kanei.or.jp/" }, "geometry": { "type": "Point", "coordinates": [ 139.601935799999978, 35.529320100000014 ] } },
{ "type": "Feature", "properties": { "内容": "医療法人社団哺育会　介護老人保健施設　ナーシングプラザ港北【訪問リハビリテーション】神奈川県横浜市港北区新吉田町３１７０", "url": "https://www.kaigokensaku.mhlw.go.jp/14/index.php?action_kouhyou_detail_004_kani=true&JigyosyoCd=1450980045-00&ServiceCd=140&Type=search", "url2": "http://www.np-kouhoku.jp" }, "geometry": { "type": "Point", "coordinates": [ 139.606396200000063, 35.5345696 ] } },
{ "type": "Feature", "properties": { "内容": "日吉本町クリニック【訪問リハビリテーション】神奈川県横浜市港北区日吉本町4-10-50ココファン日吉1階", "url": "https://www.kaigokensaku.mhlw.go.jp/14/index.php?action_kouhyou_detail_004_kani=true&JigyosyoCd=1410907386-00&ServiceCd=140&Type=search", "url2": "https://www.yamamoto-kinen.or.jp/hiyoshi_honcho/" }, "geometry": { "type": "Point", "coordinates": [ 139.635134230688436, 35.545639715034071 ] } },
{ "type": "Feature", "properties": { "内容": "くにもとライフサポートクリニック【訪問リハビリテーション】神奈川県横浜市港北区樽町4-4-44", "url": "https://www.kaigokensaku.mhlw.go.jp/14/index.php?action_kouhyou_detail_004_kani=true&JigyosyoCd=1410910315-00&ServiceCd=140&Type=search", "url2": "http://www.kunimoto-lsc.com" }, "geometry": { "type": "Point", "coordinates": [ 139.637883500000044, 35.5280017 ] } },
{ "type": "Feature", "properties": { "内容": "ささき整形外科【訪問リハビリテーション】神奈川県横浜市港北区菊名1-8-12", "url": "https://www.kaigokensaku.mhlw.go.jp/14/index.php?action_kouhyou_detail_004_kani=true&JigyosyoCd=1410910422-00&ServiceCd=140&Type=search", "url2": "https://www.sasakiseikei.jp" }, "geometry": { "type": "Point", "coordinates": [ 139.631211600000029, 35.4996298 ] } },
{ "type": "Feature", "properties": { "内容": "介護老人保健施設うらら【訪問リハビリテーション】神奈川県横浜市戸塚区深谷町１４１２－１１", "url": "https://www.kaigokensaku.mhlw.go.jp/14/index.php?action_kouhyou_detail_004_kani=true&JigyosyoCd=1451080050-00&ServiceCd=140&Type=search", "url2": "http://www.kenyoukai.or.jp/urara/" }, "geometry": { "type": "Point", "coordinates": [ 139.494713300000058, 35.3895831 ] } },
{ "type": "Feature", "properties": { "内容": "医療法人積愛会　千の星・よこはま【訪問リハビリテーション】神奈川県横浜市戸塚区柏尾町1434-3", "url": "https://www.kaigokensaku.mhlw.go.jp/14/index.php?action_kouhyou_detail_004_kani=true&JigyosyoCd=1451080076-00&ServiceCd=140&Type=search", "url2": "http://www.y-maiokahp.or.jp/sennohoshi-y/" }, "geometry": { "type": "Point", "coordinates": [ 139.552436399999976, 35.4112565 ] } },
{ "type": "Feature", "properties": { "内容": "医療法人財団　明理会　東戸塚記念病院【訪問リハビリテーション】神奈川県横浜市戸塚区品濃町548-7", "url": "https://www.kaigokensaku.mhlw.go.jp/14/index.php?action_kouhyou_detail_004_kani=true&JigyosyoCd=1411004670-00&ServiceCd=140&Type=search", "url2": "https://www.higashi-totsuka.com" }, "geometry": { "type": "Point", "coordinates": [ 139.559335499999946, 35.4317196 ] } },
{ "type": "Feature", "properties": { "内容": "平成横浜病院【訪問リハビリテーション】神奈川県横浜市戸塚区戸塚町550番地", "url": "https://www.kaigokensaku.mhlw.go.jp/14/index.php?action_kouhyou_detail_004_kani=true&JigyosyoCd=1411010016-00&ServiceCd=140&Type=search", "url2": "http://www.yokohamahp.jp" }, "geometry": { "type": "Point", "coordinates": [ 139.530543699999953, 35.3890834 ] } },
{ "type": "Feature", "properties": { "内容": "医療生協かながわ生活協同組合　戸塚病院【訪問リハビリテーション】神奈川県横浜市戸塚区汲沢町1025-6", "url": "https://www.kaigokensaku.mhlw.go.jp/14/index.php?action_kouhyou_detail_004_kani=true&JigyosyoCd=1411001940-00&ServiceCd=140&Type=search", "url2": "https://totsuka-hp.jp/" }, "geometry": { "type": "Point", "coordinates": [ 139.515642, 35.3901719 ] } },
{ "type": "Feature", "properties": { "内容": "医療法人社団　明芳会　イムス横浜東戸塚総合リハビリテーション病院【訪問リハビリテーション】神奈川県横浜市戸塚区川上町６９０－２", "url": "https://www.kaigokensaku.mhlw.go.jp/14/index.php?action_kouhyou_detail_004_kani=true&JigyosyoCd=1411002740-00&ServiceCd=140&Type=search", "url2": "http://www.ims.gr.jp/shintotsuka/" }, "geometry": { "type": "Point", "coordinates": [ 139.544272800000044, 35.4344468 ] } },
{ "type": "Feature", "properties": { "内容": "ふれあい東戸塚ホスピタル【訪問リハビリテーション】神奈川県横浜市戸塚区上品濃16-8", "url": "https://www.kaigokensaku.mhlw.go.jp/14/index.php?action_kouhyou_detail_004_kani=true&JigyosyoCd=1411005024-00&ServiceCd=140&Type=search", "url2": "http://www.fureai-g.or.jp/ht-hosp/" }, "geometry": { "type": "Point", "coordinates": [ 139.548108500000012, 35.4388657 ] } },
{ "type": "Feature", "properties": { "内容": "ヒューマンライフケア横浜【訪問リハビリテーション】神奈川県横浜市戸塚区戸塚町1800-3", "url": "https://www.kaigokensaku.mhlw.go.jp/14/index.php?action_kouhyou_detail_004_kani=true&JigyosyoCd=1451080019-00&ServiceCd=140&Type=search", "url2": "http://yokohamamirai-hcs.com/" }, "geometry": { "type": "Point", "coordinates": [ 139.517516699999987, 35.38193480000001 ] } },
{ "type": "Feature", "properties": { "内容": "医療法人社団協友会　介護老人保健施設　ハートケア横浜小雀【訪問リハビリテーション】神奈川県横浜市戸塚区小雀町２２４８－１", "url": "https://www.kaigokensaku.mhlw.go.jp/14/index.php?action_kouhyou_detail_004_kani=true&JigyosyoCd=1451080035-00&ServiceCd=140&Type=search", "url2": "https://www.hc-kosuzume.jp/" }, "geometry": { "type": "Point", "coordinates": [ 139.505926199999976, 35.3717219 ] } },
{ "type": "Feature", "properties": { "内容": "介護老人保健施設リハパーク舞岡　訪問リハビリテーション【訪問リハビリテーション】神奈川県横浜市戸塚区舞岡町3048-4", "url": "https://www.kaigokensaku.mhlw.go.jp/14/index.php?action_kouhyou_detail_004_kani=true&JigyosyoCd=1471003945-00&ServiceCd=140&Type=search", "url2": "https://www.shinzen-fukushi.jp/rehapark/" }, "geometry": { "type": "Point", "coordinates": [ 139.5550019, 35.4048477 ] } },
{ "type": "Feature", "properties": { "内容": "医療法人横浜博萌会　西横浜国際総合病院【訪問リハビリテーション】神奈川県横浜市戸塚区汲沢町56番地", "url": "https://www.kaigokensaku.mhlw.go.jp/14/index.php?action_kouhyou_detail_004_kani=true&JigyosyoCd=1411003458-00&ServiceCd=140&Type=search", "url2": "https://www.nishiyokohama.or.jp/homecare/" }, "geometry": { "type": "Point", "coordinates": [ 139.514344899999969, 35.3847755 ] } },
{ "type": "Feature", "properties": { "内容": "横浜東邦病院【訪問リハビリテーション】神奈川県横浜市港南区最戸1-3-16", "url": "https://www.kaigokensaku.mhlw.go.jp/14/index.php?action_kouhyou_detail_004_kani=true&JigyosyoCd=1413110475-00&ServiceCd=140&Type=search", "url2": "http://www.yokohama-toho.jp/zaitaku" }, "geometry": { "type": "Point", "coordinates": [ 139.5977126, 35.4144092 ] } },
{ "type": "Feature", "properties": { "内容": "医療法人社団　成仁会　長田病院【訪問リハビリテーション】神奈川県横浜市港南区丸山台２－２－１０", "url": "https://www.kaigokensaku.mhlw.go.jp/14/index.php?action_kouhyou_detail_004_kani=true&JigyosyoCd=1413103314-00&ServiceCd=140&Type=search", "url2": "http://www.osadahp.jp/category/" }, "geometry": { "type": "Point", "coordinates": [ 139.571662899999978, 35.3994937 ] } },
{ "type": "Feature", "properties": { "内容": "かず整形外科クリニック【訪問リハビリテーション】神奈川県横浜市港南区丸山台2-26-17", "url": "https://www.kaigokensaku.mhlw.go.jp/14/index.php?action_kouhyou_detail_004_kani=true&JigyosyoCd=1413110434-00&ServiceCd=140&Type=search", "url2": "http://www.kazz-seikei.com/" }, "geometry": { "type": "Point", "coordinates": [ 139.567229200000043, 35.3974375 ] } },
{ "type": "Feature", "properties": { "内容": "みずほクリニック【訪問リハビリテーション】神奈川県横浜市港南区日野7-3-30日栄食品ビル2階", "url": "https://www.kaigokensaku.mhlw.go.jp/14/index.php?action_kouhyou_detail_004_kani=true&JigyosyoCd=1413110418-00&ServiceCd=140&Type=search", "url2": "https://shuhokai.or.jp/" }, "geometry": { "type": "Point", "coordinates": [ 139.581840699999987, 35.3885257 ] } },
{ "type": "Feature", "properties": { "内容": "医療法人社団明芳会横浜旭中央総合病院【訪問リハビリテーション】神奈川県横浜市旭区若葉台4-20-1", "url": "https://www.kaigokensaku.mhlw.go.jp/14/index.php?action_kouhyou_detail_004_kani=true&JigyosyoCd=1413202520-00&ServiceCd=140&Type=search", "url2": "http://www.ims-yokohama-asahi.jp/" }, "geometry": { "type": "Point", "coordinates": [ 139.497675100000038, 35.5073385 ] } },
{ "type": "Feature", "properties": { "内容": "医療法人社団東京石心会新緑脳神経外科【訪問リハビリテーション】神奈川県横浜市旭区市沢町574‐1", "url": "https://www.kaigokensaku.mhlw.go.jp/14/index.php?action_kouhyou_detail_004_kani=true&JigyosyoCd=1413204591-00&ServiceCd=140&Type=search", "url2": "https://www.syck.jp/" }, "geometry": { "type": "Point", "coordinates": [ 139.562540600000034, 35.4553223 ] } },
{ "type": "Feature", "properties": { "内容": "あさひ本宿クリニック　訪問リハビリテーション【訪問リハビリテーション】神奈川県横浜市旭区本宿町90番30", "url": "https://www.kaigokensaku.mhlw.go.jp/14/index.php?action_kouhyou_detail_004_kani=true&JigyosyoCd=1413204609-00&ServiceCd=140&Type=search", "url2": "https://genkimura-group.jp/overview/misatomakotokai/asahi-honjuku-clinic/" }, "geometry": { "type": "Point", "coordinates": [ 139.539703700000018, 35.4664652 ] } },
{ "type": "Feature", "properties": { "内容": "医療法人社団恵生会　介護老人保健施設　リハセンターさわやか【訪問リハビリテーション】神奈川県横浜市旭区白根町932-1", "url": "https://www.kaigokensaku.mhlw.go.jp/14/index.php?action_kouhyou_detail_004_kani=true&JigyosyoCd=1453280021-00&ServiceCd=140&Type=search", "url2": "http://www.med-keiseikai.or.jp/riha/" }, "geometry": { "type": "Point", "coordinates": [ 139.548932599999944, 35.4984558 ] } },
{ "type": "Feature", "properties": { "内容": "医療法人社団協友会介護老人保健施設ハートケア左近山【訪問リハビリテーション】神奈川県横浜市旭区市沢町９７１－１", "url": "https://www.kaigokensaku.mhlw.go.jp/14/index.php?action_kouhyou_detail_004_kani=true&JigyosyoCd=1453280062-00&ServiceCd=140&Type=search", "url2": "https://hcsakonyama.jp/" }, "geometry": { "type": "Point", "coordinates": [ 139.56110190000004, 35.4543613 ] } },
{ "type": "Feature", "properties": { "内容": "横浜新緑総合病院【訪問リハビリテーション】神奈川県横浜市緑区十日市場町1726-7", "url": "https://www.kaigokensaku.mhlw.go.jp/14/index.php?action_kouhyou_detail_004_kani=true&JigyosyoCd=1413304920-00&ServiceCd=140&Type=search", "url2": "http://www.shinmidori.com" }, "geometry": { "type": "Point", "coordinates": [ 139.509079792070821, 35.524740923277875 ] } },
{ "type": "Feature", "properties": { "内容": "医療法人社団　鴨居病院【訪問リハビリテーション】神奈川県横浜市緑区鴨居５－２７－１０", "url": "https://www.kaigokensaku.mhlw.go.jp/14/index.php?action_kouhyou_detail_004_kani=true&JigyosyoCd=1413305687-00&ServiceCd=140&Type=search", "url2": "https://kamoibyouin.or.jp/" }, "geometry": { "type": "Point", "coordinates": [ 139.563261900000043, 35.505346900000035 ] } },
{ "type": "Feature", "properties": { "内容": "神田整形外科【訪問リハビリテーション】神奈川県横浜市緑区鴨居1-4-6ベテル1F-2F", "url": "https://www.kaigokensaku.mhlw.go.jp/14/index.php?action_kouhyou_detail_004_kani=true&JigyosyoCd=1413310190-00&ServiceCd=140&Type=search", "url2": "https://kanda-seikei-kamoi.com/" }, "geometry": { "type": "Point", "coordinates": [ 139.570028099999945, 35.5101448 ] } },
{ "type": "Feature", "properties": { "内容": "裕香整形外科【訪問リハビリテーション】神奈川県横浜市緑区長津田3-1-43", "url": "https://www.kaigokensaku.mhlw.go.jp/14/index.php?action_kouhyou_detail_004_kani=true&JigyosyoCd=1413310406-00&ServiceCd=140&Type=search", "url2": "http://yukaortho.jp" }, "geometry": { "type": "Point", "coordinates": [ 139.4950964, 35.5346012 ] } },
{ "type": "Feature", "properties": { "内容": "医療法人社団　桜栄会　横浜セラトピア【訪問リハビリテーション】神奈川県横浜市緑区北八朔町1323", "url": "https://www.kaigokensaku.mhlw.go.jp/14/index.php?action_kouhyou_detail_004_kani=true&JigyosyoCd=1453380037-00&ServiceCd=140&Type=search", "url2": "https://www.oueikai.or.jp/" }, "geometry": { "type": "Point", "coordinates": [ 139.5410104, 35.5253269 ] } },
{ "type": "Feature", "properties": { "内容": "介護老人保健施設　フォーシーズンズヴィラいりどり【訪問リハビリテーション】神奈川県横浜市緑区三保町867", "url": "https://www.kaigokensaku.mhlw.go.jp/14/index.php?action_kouhyou_detail_004_kani=true&JigyosyoCd=1453380045-00&ServiceCd=140&Type=search", "url2": "https://www.4seasons-v.jp/" }, "geometry": { "type": "Point", "coordinates": [ 139.52366440000003, 35.506898 ] } },
{ "type": "Feature", "properties": { "内容": "医療法人社団恵生会　竹山病院【訪問リハビリテーション】神奈川県横浜市緑区竹山3-1-9", "url": "https://www.kaigokensaku.mhlw.go.jp/14/index.php?action_kouhyou_detail_004_kani=true&JigyosyoCd=1413304029-00&ServiceCd=140&Type=search", "url2": "https://www.med-keiseikai.or.jp/take/" }, "geometry": { "type": "Point", "coordinates": [ 139.5621205, 35.4959313 ] } },
{ "type": "Feature", "properties": { "内容": "ながつた脳神経外科【訪問リハビリテーション】神奈川県横浜市緑区長津田5-5-13長津田メディカルスクエア６階", "url": "https://www.kaigokensaku.mhlw.go.jp/14/index.php?action_kouhyou_detail_004_kani=true&JigyosyoCd=1413310430-00&ServiceCd=140&Type=search", "url2": "https://nagatsuta.clinic" }, "geometry": { "type": "Point", "coordinates": [ 139.52887960000001, 35.5199253 ] } },
{ "type": "Feature", "properties": { "内容": "介護老人保健施設　みどりの杜【訪問リハビリテーション】神奈川県横浜市緑区西八朔町99-1介護老人保健施設みどりの杜", "url": "https://www.kaigokensaku.mhlw.go.jp/14/index.php?action_kouhyou_detail_004_kani=true&JigyosyoCd=1453380011-00&ServiceCd=140&Type=search", "url2": "http://www.midorinokaze.biz" }, "geometry": { "type": "Point", "coordinates": [ 139.5313701, 35.5267968 ] } },
{ "type": "Feature", "properties": { "内容": "医療法人社団三喜会　介護老人保健施設　ライフプラザ新緑【訪問リハビリテーション】神奈川県横浜市緑区長津田町5708番地", "url": "https://www.kaigokensaku.mhlw.go.jp/14/index.php?action_kouhyou_detail_004_kani=true&JigyosyoCd=1453380029-00&ServiceCd=140&Type=search", "url2": "https://www.sankikai.or.jp/life-shinmidori/houmon.html" }, "geometry": { "type": "Point", "coordinates": [ 139.482561799999985, 35.5120419 ] } },
{ "type": "Feature", "properties": { "内容": "二宮整形外科【訪問リハビリテーション】神奈川県横浜市緑区中山4丁目31番23号ル・チードビル203号", "url": "https://www.kaigokensaku.mhlw.go.jp/14/index.php?action_kouhyou_detail_004_kani=true&JigyosyoCd=1413304623-00&ServiceCd=140&Type=search", "url2": "https://ninomiya-seikeigeka.clinic/" }, "geometry": { "type": "Point", "coordinates": [ 139.540378736045341, 35.513918986388177 ] } },
{ "type": "Feature", "properties": { "内容": "長田整形外科【訪問リハビリテーション】神奈川県横浜市緑区長津田5-5-13長津田メディカルスクエア2F", "url": "https://www.kaigokensaku.mhlw.go.jp/14/index.php?action_kouhyou_detail_004_kani=true&JigyosyoCd=1413306347-00&ServiceCd=140&Type=search", "url2": "https://nagataseikei.com" }, "geometry": { "type": "Point", "coordinates": [ 139.496867551589958, 35.53136898774158 ] } },
{ "type": "Feature", "properties": { "内容": "瀬谷みなみだい整形外科【訪問リハビリテーション】神奈川県横浜市瀬谷区瀬谷1-23-4Yビル　1F", "url": "https://www.kaigokensaku.mhlw.go.jp/14/index.php?action_kouhyou_detail_004_kani=true&JigyosyoCd=1413403136-00&ServiceCd=140&Type=search", "url2": "https://seyaminamidaiseikeigeka.com/" }, "geometry": { "type": "Point", "coordinates": [ 139.492332199999964, 35.4666929 ] } },
{ "type": "Feature", "properties": { "内容": "医療法人社団　哺育会　横浜相原病院【訪問リハビリテーション】神奈川県横浜市瀬谷区阿久和南２－３－１２", "url": "https://www.kaigokensaku.mhlw.go.jp/14/index.php?action_kouhyou_detail_004_kani=true&JigyosyoCd=1413403151-00&ServiceCd=140&Type=search", "url2": "http://www.yokohama-aihara.jp" }, "geometry": { "type": "Point", "coordinates": [ 139.5034068, 35.4464898 ] } },
{ "type": "Feature", "properties": { "内容": "ケアポート・田谷【訪問リハビリテーション】神奈川県横浜市栄区田谷町2030-3", "url": "https://www.kaigokensaku.mhlw.go.jp/14/index.php?action_kouhyou_detail_004_kani=true&JigyosyoCd=1453585008-00&ServiceCd=140&Type=search", "url2": "http://care-net.biz/14/taya" }, "geometry": { "type": "Point", "coordinates": [ 139.517381, 35.372735 ] } },
{ "type": "Feature", "properties": { "内容": "野村医院【訪問リハビリテーション】神奈川県横浜市栄区笠間5-31-24", "url": "https://www.kaigokensaku.mhlw.go.jp/14/index.php?action_kouhyou_detail_004_kani=true&JigyosyoCd=1413501319-00&ServiceCd=140&Type=search", "url2": "https://www.nomura-med.jp/" }, "geometry": { "type": "Point", "coordinates": [ 139.542551300000014, 35.3608261 ] } },
{ "type": "Feature", "properties": { "内容": "医療法人社団　協友会　介護老人保健施設　リハビリポート横浜【訪問リハビリテーション】神奈川県横浜市栄区公田町１０５０－２", "url": "https://www.kaigokensaku.mhlw.go.jp/14/index.php?action_kouhyou_detail_004_kani=true&JigyosyoCd=1453580001-00&ServiceCd=140&Type=search", "url2": "https://rp-yokohama.jp/" }, "geometry": { "type": "Point", "coordinates": [ 139.561780499999941, 35.3499079 ] } },
{ "type": "Feature", "properties": { "内容": "横浜いずみ介護老人保健施設【訪問リハビリテーション】神奈川県横浜市泉区上飯田町3873-1", "url": "https://www.kaigokensaku.mhlw.go.jp/14/index.php?action_kouhyou_detail_004_kani=true&JigyosyoCd=1453680022-00&ServiceCd=140&Type=search", "url2": "http://jkknet.or.jp/izuro/" }, "geometry": { "type": "Point", "coordinates": [ 139.4838095, 35.4310225 ] } },
{ "type": "Feature", "properties": { "内容": "医療法人横浜未来ヘルスケアシステム　戸塚共立いずみ野病院【訪問リハビリテーション】神奈川県横浜市泉区和泉中央北1-40-34", "url": "https://www.kaigokensaku.mhlw.go.jp/14/index.php?action_kouhyou_detail_004_kani=true&JigyosyoCd=1413601648-00&ServiceCd=140&Type=search", "url2": null }, "geometry": { "type": "Point", "coordinates": [ 139.50084480000001, 35.4222502 ] } },
{ "type": "Feature", "properties": { "内容": "山手台クリニック【訪問リハビリテーション】神奈川県横浜市泉区領家3-2-4山手台IKプラザ2階", "url": "https://www.kaigokensaku.mhlw.go.jp/14/index.php?action_kouhyou_detail_004_kani=true&JigyosyoCd=1413610029-00&ServiceCd=140&Type=search", "url2": "http://unimedico.jp/yamate-dental/" }, "geometry": { "type": "Point", "coordinates": [ 139.522685799999977, 35.418196 ] } },
{ "type": "Feature", "properties": { "内容": "緑園ゆきひろ整形外科【訪問リハビリテーション】神奈川県横浜市泉区緑園3-11-5", "url": "https://www.kaigokensaku.mhlw.go.jp/14/index.php?action_kouhyou_detail_004_kani=true&JigyosyoCd=1413610185-00&ServiceCd=140&Type=search", "url2": "http://www.yukihiro-seikei.com/homon.html" }, "geometry": { "type": "Point", "coordinates": [ 139.521905699999934, 35.4406896 ] } },
{ "type": "Feature", "properties": { "内容": "みずほクリニック緑園都市【訪問リハビリテーション】神奈川県横浜市泉区緑園7-1-13第2ゼフィール1階", "url": "https://www.kaigokensaku.mhlw.go.jp/14/index.php?action_kouhyou_detail_004_kani=true&JigyosyoCd=1413610235-00&ServiceCd=140&Type=search", "url2": "http://shuhokai.or.jp/mizuho-clinic/" }, "geometry": { "type": "Point", "coordinates": [ 139.5264109, 35.4464734 ] } },
{ "type": "Feature", "properties": { "内容": "医療法人社団　純正会　介護老人保健施設　エスポワール和泉【訪問リハビリテーション】神奈川県横浜市泉区和泉町2604-1", "url": "https://www.kaigokensaku.mhlw.go.jp/14/index.php?action_kouhyou_detail_004_kani=true&JigyosyoCd=1453680048-00&ServiceCd=140&Type=search", "url2": null }, "geometry": { "type": "Point", "coordinates": [ 139.490098, 35.4073806 ] } },
{ "type": "Feature", "properties": { "内容": "横浜いずみ台病院【訪問リハビリテーション】神奈川県横浜市泉区和泉町7838", "url": "https://www.kaigokensaku.mhlw.go.jp/14/index.php?action_kouhyou_detail_004_kani=true&JigyosyoCd=1413600814-00&ServiceCd=140&Type=search", "url2": "https://izumidai.net/izumidai-hp" }, "geometry": { "type": "Point", "coordinates": [ 139.4981884, 35.435966299999983 ] } },
{ "type": "Feature", "properties": { "内容": "介護老人保健施設　きららの里【訪問リハビリテーション】神奈川県横浜市泉区中田町3462-4", "url": "https://www.kaigokensaku.mhlw.go.jp/14/index.php?action_kouhyou_detail_004_kani=true&JigyosyoCd=1453680055-00&ServiceCd=140&Type=search", "url2": "http://www.kenyoukai.or.jp" }, "geometry": { "type": "Point", "coordinates": [ 139.5020849, 35.4250424 ] } },
{ "type": "Feature", "properties": { "内容": "介護老人保健施設　リハリゾート青葉【訪問リハビリテーション】神奈川県横浜市青葉区奈良4-6-13", "url": "https://www.kaigokensaku.mhlw.go.jp/14/index.php?action_kouhyou_detail_004_kani=true&JigyosyoCd=1453780046-00&ServiceCd=140&Type=search", "url2": "https://wakatake.net/" }, "geometry": { "type": "Point", "coordinates": [ 139.48268250000001, 35.5504997 ] } },
{ "type": "Feature", "properties": { "内容": "田園都市整形外科クリニック【訪問リハビリテーション】神奈川県横浜市青葉区松風台１３－５ライムライト松風台３－１Ｆ", "url": "https://www.kaigokensaku.mhlw.go.jp/14/index.php?action_kouhyou_detail_004_kani=true&JigyosyoCd=1413702990-00&ServiceCd=140&Type=search", "url2": null }, "geometry": { "type": "Point", "coordinates": [ 139.511917899999958, 35.5460956 ] } },
{ "type": "Feature", "properties": { "内容": "医療法人社団明芳会横浜新都市脳神経外科病院【訪問リハビリテーション】神奈川県横浜市青葉区荏田町433番地", "url": "https://www.kaigokensaku.mhlw.go.jp/14/index.php?action_kouhyou_detail_004_kani=true&JigyosyoCd=1413700903-00&ServiceCd=140&Type=search", "url2": "https://www.yokohama-shintoshi.jp/" }, "geometry": { "type": "Point", "coordinates": [ 139.558564199999978, 35.5601429 ] } },
{ "type": "Feature", "properties": { "内容": "横浜総合病院【訪問リハビリテーション】神奈川県横浜市青葉区鉄町2201-5", "url": "https://www.kaigokensaku.mhlw.go.jp/14/index.php?action_kouhyou_detail_004_kani=true&JigyosyoCd=1413701026-00&ServiceCd=140&Type=search", "url2": "https://www.yokoso.or.jp" }, "geometry": { "type": "Point", "coordinates": [ 139.526923267042577, 35.57001633023922 ] } },
{ "type": "Feature", "properties": { "内容": "医療法人社団　博慈会　青葉さわい病院【訪問リハビリテーション】神奈川県横浜市青葉区元石川町4300", "url": "https://www.kaigokensaku.mhlw.go.jp/14/index.php?action_kouhyou_detail_004_kani=true&JigyosyoCd=1413702917-00&ServiceCd=140&Type=search", "url2": "https://aoba-sawai.or.jp/chiiki" }, "geometry": { "type": "Point", "coordinates": [ 139.538662299999942, 35.5726352 ] } },
{ "type": "Feature", "properties": { "内容": "江田記念病院【訪問リハビリテーション】神奈川県横浜市青葉区あざみ野南1-1", "url": "https://www.kaigokensaku.mhlw.go.jp/14/index.php?action_kouhyou_detail_004_kani=true&JigyosyoCd=1413703162-00&ServiceCd=140&Type=search", "url2": "https://www.ims.gr.jp/edakinen/" }, "geometry": { "type": "Point", "coordinates": [ 139.5547333, 35.5631365 ] } },
{ "type": "Feature", "properties": { "内容": "緑協和病院【訪問リハビリテーション】神奈川県横浜市青葉区奈良町1802", "url": "https://www.kaigokensaku.mhlw.go.jp/14/index.php?action_kouhyou_detail_004_kani=true&JigyosyoCd=1413710522-00&ServiceCd=140&Type=search", "url2": null }, "geometry": { "type": "Point", "coordinates": [ 139.480259100000012, 35.565702700000017 ] } },
{ "type": "Feature", "properties": { "内容": "医療法人社団協友会介護老人保健施設横浜あおばの里【訪問リハビリテーション】神奈川県横浜市青葉区鉄町1375", "url": "https://www.kaigokensaku.mhlw.go.jp/14/index.php?action_kouhyou_detail_004_kani=true&JigyosyoCd=1453780020-00&ServiceCd=140&Type=search", "url2": "https://www.aobanosato.com/service/visit.php/" }, "geometry": { "type": "Point", "coordinates": [ 139.524758099999985, 35.5635917 ] } },
{ "type": "Feature", "properties": { "内容": "さとう内科クリニック【訪問リハビリテーション】神奈川県横浜市青葉区藤が丘1-28-20ファミーユ２階", "url": "https://www.kaigokensaku.mhlw.go.jp/14/index.php?action_kouhyou_detail_004_kani=true&JigyosyoCd=1413710373-00&ServiceCd=140&Type=search", "url2": "http://sato-naika-clinic.jp/" }, "geometry": { "type": "Point", "coordinates": [ 139.528614299999958, 35.5453666 ] } },
{ "type": "Feature", "properties": { "内容": "介護老人保健施設　プラチナ・ヴィラ青葉台【訪問リハビリテーション】神奈川県横浜市青葉区鴨志田町75-1", "url": "https://www.kaigokensaku.mhlw.go.jp/14/index.php?action_kouhyou_detail_004_kani=true&JigyosyoCd=1453780072-00&ServiceCd=140&Type=search", "url2": "https://www.platinum-villa.jp/aobadai.html" }, "geometry": { "type": "Point", "coordinates": [ 139.5116956, 35.5603238 ] } },
{ "type": "Feature", "properties": { "内容": "あおば整形外科【訪問リハビリテーション】神奈川県横浜市青葉区しらとり台１－１２グリーングラスビル", "url": "https://www.kaigokensaku.mhlw.go.jp/14/index.php?action_kouhyou_detail_004_kani=true&JigyosyoCd=1413702263-00&ServiceCd=140&Type=search", "url2": "http://www.aoba.cc/aoba/index.html" }, "geometry": { "type": "Point", "coordinates": [ 139.516479299999986, 35.538989 ] } },
{ "type": "Feature", "properties": { "内容": "ピュアライフメディカルクリニック【訪問リハビリテーション】神奈川県横浜市都筑区茅ヶ崎中央7-19センター南ビジネスビル３F", "url": "https://www.kaigokensaku.mhlw.go.jp/14/index.php?action_kouhyou_detail_004_kani=true&JigyosyoCd=1413802832-00&ServiceCd=140&Type=search", "url2": "http://www.pure-life.jp/" }, "geometry": { "type": "Point", "coordinates": [ 139.5746524, 35.5432529 ] } },
{ "type": "Feature", "properties": { "内容": "東山田ヒルズクリニック【訪問リハビリテーション】神奈川県横浜市都筑区東山田町1357", "url": "https://www.kaigokensaku.mhlw.go.jp/14/index.php?action_kouhyou_detail_004_kani=true&JigyosyoCd=1413801263-00&ServiceCd=140&Type=search", "url2": null }, "geometry": { "type": "Point", "coordinates": [ 139.603887399999962, 35.5601099 ] } },
{ "type": "Feature", "properties": { "内容": "医療法人健水会　荏田介護老人保健施設　あすなろ【訪問リハビリテーション】神奈川県横浜市都筑区荏田南町4247", "url": "https://www.kaigokensaku.mhlw.go.jp/14/index.php?action_kouhyou_detail_004_kani=true&JigyosyoCd=1450980052-00&ServiceCd=140&Type=search", "url2": "http://kensuikai-asunaro.or.jp/" }, "geometry": { "type": "Point", "coordinates": [ 139.564999100000023, 35.555303700000039 ] } },
{ "type": "Feature", "properties": { "内容": "センター北　ねがみクリニック【訪問リハビリテーション】神奈川県横浜市都筑区中川中央１−３３−１９", "url": "https://www.kaigokensaku.mhlw.go.jp/14/index.php?action_kouhyou_detail_004_kani=true&JigyosyoCd=1413800877-00&ServiceCd=140&Type=search", "url2": "http://www.negamiclini.com" }, "geometry": { "type": "Point", "coordinates": [ 139.578472499999975, 35.5558584 ] } },
{ "type": "Feature", "properties": { "内容": "介護老人保健施設　若葉が丘【訪問リハビリテーション】神奈川県横浜市都筑区川和町2674-1", "url": "https://www.kaigokensaku.mhlw.go.jp/14/index.php?action_kouhyou_detail_004_kani=true&JigyosyoCd=1453880036-00&ServiceCd=140&Type=search", "url2": null }, "geometry": { "type": "Point", "coordinates": [ 139.548282699999987, 35.5383838 ] } },
{ "type": "Feature", "properties": { "内容": "水野クリニック【訪問リハビリテーション】神奈川県横浜市都筑区南山田町4258", "url": "https://www.kaigokensaku.mhlw.go.jp/14/index.php?action_kouhyou_detail_004_kani=true&JigyosyoCd=1413800711-00&ServiceCd=140&Type=search", "url2": "https://katsujinkai.cl.com/rehabilitation/" }, "geometry": { "type": "Point", "coordinates": [ 139.597524600000042, 35.5501142 ] } },
{ "type": "Feature", "properties": { "内容": "笠井整形外科【訪問リハビリテーション】神奈川県横浜市都筑区荏田南３－３７－１５横浜青葉クリニックセンター１F", "url": "https://www.kaigokensaku.mhlw.go.jp/14/index.php?action_kouhyou_detail_004_kani=true&JigyosyoCd=1413801883-00&ServiceCd=140&Type=search", "url2": "https://kasai-seikei.com/index.html" }, "geometry": { "type": "Point", "coordinates": [ 139.5520496, 35.5423315 ] } },
{ "type": "Feature", "properties": { "内容": "介護老人保健施設　都筑シニアセンター【訪問リハビリテーション】神奈川県横浜市都筑区東山田町1357", "url": "https://www.kaigokensaku.mhlw.go.jp/14/index.php?action_kouhyou_detail_004_kani=true&JigyosyoCd=1453880002-00&ServiceCd=140&Type=search", "url2": "http://www.tuduki-senior-c.com" }, "geometry": { "type": "Point", "coordinates": [ 139.603886399999965, 35.5601286 ] } },
{ "type": "Feature", "properties": { "内容": "川崎南部訪問リハビリテーション【訪問リハビリテーション】神奈川県川崎市川崎区田町2-9-2", "url": "https://www.kaigokensaku.mhlw.go.jp/14/index.php?action_kouhyou_detail_004_kani=true&JigyosyoCd=1475002901-00&ServiceCd=140&Type=search", "url2": null }, "geometry": { "type": "Point", "coordinates": [ 134.977372, 34.6477587 ] } },
{ "type": "Feature", "properties": { "内容": "医療法人社団慶友会　第一病院【訪問リハビリテーション】神奈川県川崎市川崎区元木２－７－２", "url": "https://www.kaigokensaku.mhlw.go.jp/14/index.php?action_kouhyou_detail_004_kani=true&JigyosyoCd=1415001532-00&ServiceCd=140&Type=search", "url2": "http://www.daiichi-hosp.jp" }, "geometry": { "type": "Point", "coordinates": [ 139.697724, 35.5227375 ] } },
{ "type": "Feature", "properties": { "内容": "馬嶋病院【訪問リハビリテーション】神奈川県川崎市川崎区日進町24番地15", "url": "https://www.kaigokensaku.mhlw.go.jp/14/index.php?action_kouhyou_detail_004_kani=true&JigyosyoCd=1415000153-00&ServiceCd=140&Type=search", "url2": "http://majima-hospital.or.jp/" }, "geometry": { "type": "Point", "coordinates": [ 139.6939549, 35.5243956 ] } },
{ "type": "Feature", "properties": { "内容": "川崎協同病院【訪問リハビリテーション】神奈川県川崎市川崎区桜本2-1-5", "url": "https://www.kaigokensaku.mhlw.go.jp/14/index.php?action_kouhyou_detail_004_kani=true&JigyosyoCd=1415001409-00&ServiceCd=140&Type=search", "url2": "https://www.kawasaki-kyodo.jp/" }, "geometry": { "type": "Point", "coordinates": [ 139.721852399999989, 35.5221033 ] } },
{ "type": "Feature", "properties": { "内容": "医療法人啓和会　野末整形外科歯科内科【訪問リハビリテーション】神奈川県川崎市川崎区小田５－１－３", "url": "https://www.kaigokensaku.mhlw.go.jp/14/index.php?action_kouhyou_detail_004_kani=true&JigyosyoCd=1415002712-00&ServiceCd=140&Type=search", "url2": "http://www.keiwa-kai.or.jp/" }, "geometry": { "type": "Point", "coordinates": [ 139.703199300000051, 35.5117172 ] } },
{ "type": "Feature", "properties": { "内容": "医療法人社団ＥＴＨＯＳアルトクリニック【訪問リハビリテーション】神奈川県川崎市川崎区渡田３−４−１２", "url": "https://www.kaigokensaku.mhlw.go.jp/14/index.php?action_kouhyou_detail_004_kani=true&JigyosyoCd=1415010814-00&ServiceCd=140&Type=search", "url2": "https://alt-clinic.net/" }, "geometry": { "type": "Point", "coordinates": [ 139.7039728, 35.5188849 ] } },
{ "type": "Feature", "properties": { "内容": "社会医療法人財団石心会川崎幸病院【訪問リハビリテーション】神奈川県川崎市幸区大宮町31-27", "url": "https://www.kaigokensaku.mhlw.go.jp/14/index.php?action_kouhyou_detail_004_kani=true&JigyosyoCd=1415101126-00&ServiceCd=140&Type=search", "url2": "http://saiwaihp.jp/" }, "geometry": { "type": "Point", "coordinates": [ 139.692309980694517, 35.528498169956237 ] } },
{ "type": "Feature", "properties": { "内容": "川崎地域ケア病院【訪問リハビリテーション】神奈川県川崎市幸区戸手1-9-13", "url": "https://www.kaigokensaku.mhlw.go.jp/14/index.php?action_kouhyou_detail_004_kani=true&JigyosyoCd=1415101928-00&ServiceCd=140&Type=search", "url2": null }, "geometry": { "type": "Point", "coordinates": [ 139.691768300000035, 35.5462146 ] } },
{ "type": "Feature", "properties": { "内容": "医療法人社団　青木整形外科【訪問リハビリテーション】神奈川県川崎市幸区幸町4-18", "url": "https://www.kaigokensaku.mhlw.go.jp/14/index.php?action_kouhyou_detail_004_kani=true&JigyosyoCd=1415110283-00&ServiceCd=140&Type=search", "url2": "https://www.aokiseikei.com/" }, "geometry": { "type": "Point", "coordinates": [ 139.695551600000044, 35.5354885 ] } },
{ "type": "Feature", "properties": { "内容": "いきいきクリニック【訪問リハビリテーション】神奈川県川崎市幸区南幸町二丁目34番地2川崎クリスチャンセンター1F", "url": "https://www.kaigokensaku.mhlw.go.jp/14/index.php?action_kouhyou_detail_004_kani=true&JigyosyoCd=1415102603-00&ServiceCd=140&Type=search", "url2": "http://ikiiki.missionjapan.org" }, "geometry": { "type": "Point", "coordinates": [ 139.69081319999998, 35.5338526 ] } },
{ "type": "Feature", "properties": { "内容": "神奈川県川崎市幸区下平間１５２番地３イリヤコート新川崎１階【訪問リハビリテーション】神奈川県川崎市幸区下平間152-3イリヤコート１階", "url": "https://www.kaigokensaku.mhlw.go.jp/14/index.php?action_kouhyou_detail_004_kani=true&JigyosyoCd=1415110259-00&ServiceCd=140&Type=search", "url2": "http://www.kikuchi-eye.com/" }, "geometry": { "type": "Point", "coordinates": [ 139.6784956, 35.5507009 ] } },
{ "type": "Feature", "properties": { "内容": "メディ在宅クリニック【訪問リハビリテーション】神奈川県川崎市幸区矢上2-7", "url": "https://www.kaigokensaku.mhlw.go.jp/14/index.php?action_kouhyou_detail_004_kani=true&JigyosyoCd=1415110374-00&ServiceCd=140&Type=search", "url2": null }, "geometry": { "type": "Point", "coordinates": [ 139.6586294, 35.5565872 ] } },
{ "type": "Feature", "properties": { "内容": "介護老人保健施設　千の風・川崎【訪問リハビリテーション】神奈川県川崎市幸区小向町15-25", "url": "https://www.kaigokensaku.mhlw.go.jp/14/index.php?action_kouhyou_detail_004_kani=true&JigyosyoCd=1455180013-00&ServiceCd=140&Type=search", "url2": "http://www.kenjin.or.jp/sennokaze/kawasaki/index.html" }, "geometry": { "type": "Point", "coordinates": [ 139.69597060000001, 35.5479005 ] } },
{ "type": "Feature", "properties": { "内容": "島脳神経外科整形外科医院【訪問リハビリテーション】神奈川県川崎市中原区井田杉山町29-10", "url": "https://www.kaigokensaku.mhlw.go.jp/14/index.php?action_kouhyou_detail_004_kani=true&JigyosyoCd=1415201926-00&ServiceCd=140&Type=search", "url2": "http://www.shima-clinic.com/original4.html" }, "geometry": { "type": "Point", "coordinates": [ 139.644199699999945, 35.5674504 ] } },
{ "type": "Feature", "properties": { "内容": "はなまるクリニック【訪問リハビリテーション】神奈川県川崎市中原区小杉町2丁目313番地ポンルテェール小杉1階", "url": "https://www.kaigokensaku.mhlw.go.jp/14/index.php?action_kouhyou_detail_004_kani=true&JigyosyoCd=1415210935-00&ServiceCd=140&Type=search", "url2": "http://www.hanamaru-cl.jp/" }, "geometry": { "type": "Point", "coordinates": [ 139.656888891569764, 35.581809741645358 ] } },
{ "type": "Feature", "properties": { "内容": "介護老人保健施設　樹の丘【訪問リハビリテーション】神奈川県川崎市高津区久地4-19-1", "url": "https://www.kaigokensaku.mhlw.go.jp/14/index.php?action_kouhyou_detail_004_kani=true&JigyosyoCd=1455380019-00&ServiceCd=140&Type=search", "url2": "https://www.kawasaki-coop.jp/" }, "geometry": { "type": "Point", "coordinates": [ 139.593575635581942, 35.609128630133924 ] } },
{ "type": "Feature", "properties": { "内容": "介護老人保健施設　たかつ【訪問リハビリテーション】神奈川県川崎市高津区子母口498-2", "url": "https://www.kaigokensaku.mhlw.go.jp/14/index.php?action_kouhyou_detail_004_kani=true&JigyosyoCd=1455380001-00&ServiceCd=140&Type=search", "url2": "https://sounkai.com" }, "geometry": { "type": "Point", "coordinates": [ 139.6324727, 35.5724079 ] } },
{ "type": "Feature", "properties": { "内容": "川崎高津診療所【訪問リハビリテーション】神奈川県川崎市高津区溝口4-1-3T・Iビルディング４F", "url": "https://www.kaigokensaku.mhlw.go.jp/14/index.php?action_kouhyou_detail_004_kani=true&JigyosyoCd=1415303102-00&ServiceCd=140&Type=search", "url2": "https://kt-clinic.jp" }, "geometry": { "type": "Point", "coordinates": [ 139.612061, 35.6034463 ] } },
{ "type": "Feature", "properties": { "内容": "医療法人社団神天会　登戸内科・脳神経クリニック【訪問リハビリテーション】神奈川県川崎市多摩区登戸新町434番地", "url": "https://www.kaigokensaku.mhlw.go.jp/14/index.php?action_kouhyou_detail_004_kani=true&JigyosyoCd=1415410097-00&ServiceCd=140&Type=search", "url2": "https://noborito-cl.com" }, "geometry": { "type": "Point", "coordinates": [ 139.5685707, 35.6221277 ] } },
{ "type": "Feature", "properties": { "内容": "介護老人保健施設三田あすみの丘【訪問リハビリテーション】神奈川県川崎市多摩区三田1丁目14番2号", "url": "https://www.kaigokensaku.mhlw.go.jp/14/index.php?action_kouhyou_detail_004_kani=true&JigyosyoCd=1455480033-00&ServiceCd=140&Type=search", "url2": "https://misasakai.ecat.jp/catalog/products/detail?id=9" }, "geometry": { "type": "Point", "coordinates": [ 139.543644699999987, 35.6111519 ] } },
{ "type": "Feature", "properties": { "内容": "大串整形外科【訪問リハビリテーション】神奈川県川崎市多摩区登戸1801番地1瑞穂第一ビル2階", "url": "https://www.kaigokensaku.mhlw.go.jp/14/index.php?action_kouhyou_detail_004_kani=true&JigyosyoCd=1415402755-00&ServiceCd=140&Type=search", "url2": "http://www.okushi-seikei.jp" }, "geometry": { "type": "Point", "coordinates": [ 139.562171600000056, 35.6189727 ] } },
{ "type": "Feature", "properties": { "内容": "たまふれあいクリニック【訪問リハビリテーション】神奈川県川崎市多摩区登戸1763ライフガーデン向ヶ丘2階", "url": "https://www.kaigokensaku.mhlw.go.jp/14/index.php?action_kouhyou_detail_004_kani=true&JigyosyoCd=1415410535-00&ServiceCd=140&Type=search", "url2": "https://tama-fureai.com/service/homevisit-rehabilitation/" }, "geometry": { "type": "Point", "coordinates": [ 139.5607688, 35.6199375 ] } },
{ "type": "Feature", "properties": { "内容": "風の道クリニック訪問リハビリテーション【訪問リハビリテーション】神奈川県川崎市宮前区野川３１３４－５", "url": "https://www.kaigokensaku.mhlw.go.jp/14/index.php?action_kouhyou_detail_004_kani=true&JigyosyoCd=1415502083-00&ServiceCd=140&Type=search", "url2": "http://www.jurakuen.jp/" }, "geometry": { "type": "Point", "coordinates": [ 139.604139600000053, 35.5749437 ] } },
{ "type": "Feature", "properties": { "内容": "川本整形外科【訪問リハビリテーション】神奈川県川崎市宮前区宮前平２－１－３", "url": "https://www.kaigokensaku.mhlw.go.jp/14/index.php?action_kouhyou_detail_004_kani=true&JigyosyoCd=1415502158-00&ServiceCd=140&Type=search", "url2": "https://kawamoto-ortho.com/" }, "geometry": { "type": "Point", "coordinates": [ 139.583902299999977, 35.5856254 ] } },
{ "type": "Feature", "properties": { "内容": "SOL整形外科スポーツクリニック【訪問リハビリテーション】神奈川県川崎市宮前区東有馬５-１-２メディカルプラザＤ東有馬3F、2F", "url": "https://www.kaigokensaku.mhlw.go.jp/14/index.php?action_kouhyou_detail_004_kani=true&JigyosyoCd=1415510482-00&ServiceCd=140&Type=search", "url2": "https://sol-clinic.jp" }, "geometry": { "type": "Point", "coordinates": [ 139.591700362565604, 35.570979999332401 ] } },
{ "type": "Feature", "properties": { "内容": "老人保健施設　レストア川崎【訪問リハビリテーション】神奈川県川崎市宮前区犬蔵2-25-9", "url": "https://www.kaigokensaku.mhlw.go.jp/14/index.php?action_kouhyou_detail_004_kani=true&JigyosyoCd=1455580041-00&ServiceCd=140&Type=search", "url2": "https://restore-k.jp/" }, "geometry": { "type": "Point", "coordinates": [ 139.559948400000025, 35.5861285 ] } },
{ "type": "Feature", "properties": { "内容": "宮崎台　新田整形外科【訪問リハビリテーション】神奈川県川崎市宮前区宮崎2-10-2第二隆祥ビル4.5F", "url": "https://www.kaigokensaku.mhlw.go.jp/14/index.php?action_kouhyou_detail_004_kani=true&JigyosyoCd=1415510359-00&ServiceCd=140&Type=search", "url2": "https://miyazakidai-nitta-seikei.com/" }, "geometry": { "type": "Point", "coordinates": [ 139.592887100000013, 35.5876469 ] } },
{ "type": "Feature", "properties": { "内容": "介護老人保健施設　プラチナ・ヴィラ宮前【訪問リハビリテーション】神奈川県川崎市宮前区南野川3丁目23番1号", "url": "https://www.kaigokensaku.mhlw.go.jp/14/index.php?action_kouhyou_detail_004_kani=true&JigyosyoCd=1455580030-00&ServiceCd=140&Type=search", "url2": "http://www.t-group.net/" }, "geometry": { "type": "Point", "coordinates": [ 139.612457648548883, 35.569709398620439 ] } },
{ "type": "Feature", "properties": { "内容": "新百合ヶ丘介護老人保健施設　つくしの里【訪問リハビリテーション】神奈川県川崎市麻生区上麻生3-14-20", "url": "https://www.kaigokensaku.mhlw.go.jp/14/index.php?action_kouhyou_detail_004_kani=true&JigyosyoCd=1455680012-00&ServiceCd=140&Type=search", "url2": "reimeikai.care" }, "geometry": { "type": "Point", "coordinates": [ 139.501794199999949, 35.5984748 ] } },
{ "type": "Feature", "properties": { "内容": "たま日吉台病院【訪問リハビリテーション】神奈川県川崎市麻生区王禅寺1105番地", "url": "https://www.kaigokensaku.mhlw.go.jp/14/index.php?action_kouhyou_detail_004_kani=true&JigyosyoCd=1415600671-00&ServiceCd=140&Type=search", "url2": "https://tamahiyoshi.or.jp" }, "geometry": { "type": "Point", "coordinates": [ 139.526142099999987, 35.5867428 ] } },
{ "type": "Feature", "properties": { "内容": "医療法人社団　総生会　麻生リハビリ総合病院【訪問リハビリテーション】神奈川県川崎市麻生区上麻生6-23-50", "url": "https://www.kaigokensaku.mhlw.go.jp/14/index.php?action_kouhyou_detail_004_kani=true&JigyosyoCd=1415601513-00&ServiceCd=140&Type=search", "url2": "https://www.souseikai.net/asao-reha-hosp" }, "geometry": { "type": "Point", "coordinates": [ 139.4972479, 35.5848055 ] } },
{ "type": "Feature", "properties": { "内容": "渡辺クリニック【訪問リハビリテーション】神奈川県川崎市麻生区上麻生７－２２－１１", "url": "https://www.kaigokensaku.mhlw.go.jp/14/index.php?action_kouhyou_detail_004_kani=true&JigyosyoCd=1415602610-00&ServiceCd=140&Type=search", "url2": "https://watanabeclinic.com/" }, "geometry": { "type": "Point", "coordinates": [ 139.502937111639397, 35.57833769999705 ] } },
{ "type": "Feature", "properties": { "内容": "リスホームケアクリニック【訪問リハビリテーション】神奈川県川崎市麻生区千代ヶ丘5-7-1ヴェルシャンブル204", "url": "https://www.kaigokensaku.mhlw.go.jp/14/index.php?action_kouhyou_detail_004_kani=true&JigyosyoCd=1415610217-00&ServiceCd=140&Type=search", "url2": "http://www.unimedico.jp/lishomecare/" }, "geometry": { "type": "Point", "coordinates": [ 139.507426500000065, 35.6147171 ] } },
{ "type": "Feature", "properties": { "内容": "医療法人社団　三成会　新百合ヶ丘総合病院【訪問リハビリテーション】神奈川県川崎市麻生区古沢字都古255", "url": "https://www.kaigokensaku.mhlw.go.jp/14/index.php?action_kouhyou_detail_004_kani=true&JigyosyoCd=1415602545-00&ServiceCd=140&Type=search", "url2": "https://www.shinyuri-hospital.com" }, "geometry": { "type": "Point", "coordinates": [ 139.499122306915297, 35.604084603930886 ] } },
{ "type": "Feature", "properties": { "内容": "広瀬病院【訪問リハビリテーション】神奈川県相模原市緑区久保沢2-3-16", "url": "https://www.kaigokensaku.mhlw.go.jp/14/index.php?action_kouhyou_detail_004_kani=true&JigyosyoCd=1412608222-00&ServiceCd=140&Type=search", "url2": "http://www.hirose-hospital.com/" }, "geometry": { "type": "Point", "coordinates": [ 139.300529800000049, 35.5940844 ] } },
{ "type": "Feature", "properties": { "内容": "晃友脳神経外科眼科病院【訪問リハビリテーション】神奈川県相模原市緑区大島1605-1晃友脳神経外科眼科病院", "url": "https://www.kaigokensaku.mhlw.go.jp/14/index.php?action_kouhyou_detail_004_kani=true&JigyosyoCd=1412608214-00&ServiceCd=140&Type=search", "url2": "http://www.koyuu.com/noge/" }, "geometry": { "type": "Point", "coordinates": [ 139.3229976, 35.5748697 ] } },
{ "type": "Feature", "properties": { "内容": "老人保健施設　なごみの里【訪問リハビリテーション】神奈川県相模原市緑区牧野8110-2", "url": "https://www.kaigokensaku.mhlw.go.jp/14/index.php?action_kouhyou_detail_004_kani=true&JigyosyoCd=1451780006-00&ServiceCd=140&Type=search", "url2": "http://www.fujino-hp.or.jp/nagomi/index.htm" }, "geometry": { "type": "Point", "coordinates": [ 139.133264100000019, 35.5920842 ] } },
{ "type": "Feature", "properties": { "内容": "医療社団貴人会　はしもと南口クリニック【訪問リハビリテーション】神奈川県相模原市緑区橋本1-17-20塚田クリニックハウス1階", "url": "https://www.kaigokensaku.mhlw.go.jp/14/index.php?action_kouhyou_detail_004_kani=true&JigyosyoCd=1412610541-00&ServiceCd=140&Type=search", "url2": "hashimoto-minamiguchi-cl.coｍ" }, "geometry": { "type": "Point", "coordinates": [ 139.343138399999987, 35.5900068 ] } },
{ "type": "Feature", "properties": { "内容": "医療法人財団　明理会　介護老人保健施設　相模原ロイヤルケアセンター【訪問リハビリテーション】神奈川県相模原市緑区大島380-1", "url": "https://www.kaigokensaku.mhlw.go.jp/14/index.php?action_kouhyou_detail_004_kani=true&JigyosyoCd=1452680080-00&ServiceCd=140&Type=search", "url2": "https://www.ims.gr.jp/sagamihara_royal/" }, "geometry": { "type": "Point", "coordinates": [ 139.310501499999987, 35.5820734 ] } },
{ "type": "Feature", "properties": { "内容": "医療法人財団明理会　相原病院【訪問リハビリテーション】神奈川県相模原市緑区相原5-12-6", "url": "https://www.kaigokensaku.mhlw.go.jp/14/index.php?action_kouhyou_detail_004_kani=true&JigyosyoCd=1412604528-00&ServiceCd=140&Type=search", "url2": "https://imsgroup.jp/aihara-hp/" }, "geometry": { "type": "Point", "coordinates": [ 139.316919699999971, 35.598730700000026 ] } },
{ "type": "Feature", "properties": { "内容": "医療法人社団悠心会　森田病院【訪問リハビリテーション】神奈川県相模原市緑区三ヶ木627", "url": "https://www.kaigokensaku.mhlw.go.jp/14/index.php?action_kouhyou_detail_004_kani=true&JigyosyoCd=1412606911-00&ServiceCd=140&Type=search", "url2": "https://moritahp.com/home_medical/#02" }, "geometry": { "type": "Point", "coordinates": [ 139.231114, 35.5902048 ] } },
{ "type": "Feature", "properties": { "内容": "相和会介護老人保健施設　青葉の郷【訪問リハビリテーション】神奈川県相模原市中央区青葉3-36-1", "url": "https://www.kaigokensaku.mhlw.go.jp/14/index.php?action_kouhyou_detail_004_kani=true&JigyosyoCd=1452680049-00&ServiceCd=140&Type=search", "url2": "http://www.sowa.or.jp/aoba/" }, "geometry": { "type": "Point", "coordinates": [ 139.389740800000027, 35.548782 ] } },
{ "type": "Feature", "properties": { "内容": "介護老人保健施設のどか【訪問リハビリテーション】神奈川県相模原市南区新磯野5-36-1", "url": "https://www.kaigokensaku.mhlw.go.jp/14/index.php?action_kouhyou_detail_004_kani=true&JigyosyoCd=1452680023-00&ServiceCd=140&Type=search", "url2": "https://www.smg-net.com/nodoka/" }, "geometry": { "type": "Point", "coordinates": [ 139.4020395, 35.5128457 ] } },
{ "type": "Feature", "properties": { "内容": "あおき整形外科【訪問リハビリテーション】神奈川県相模原市南区上鶴間本町４−４８−２４相模大野メディカルヴィレッジA棟", "url": "https://www.kaigokensaku.mhlw.go.jp/14/index.php?action_kouhyou_detail_004_kani=true&JigyosyoCd=1412608198-00&ServiceCd=140&Type=search", "url2": "https://www.aoki-op.jp/" }, "geometry": { "type": "Point", "coordinates": [ 139.442676, 35.5315253 ] } },
{ "type": "Feature", "properties": { "内容": "第二湘南グリーン介護老人保健施設【訪問リハビリテーション】神奈川県横須賀市太田和５－８５－１", "url": "https://www.kaigokensaku.mhlw.go.jp/14/index.php?action_kouhyou_detail_004_kani=true&JigyosyoCd=1451980028-00&ServiceCd=140&Type=search", "url2": "ｈｔｔｐ：//www.yokosukagreen.com/soukoukai/" }, "geometry": { "type": "Point", "coordinates": [ 139.653157400000026, 35.2322627 ] } },
{ "type": "Feature", "properties": { "内容": "めぐみケアクリニック【訪問リハビリテーション】神奈川県横須賀市久里浜1-11-7", "url": "https://www.kaigokensaku.mhlw.go.jp/14/index.php?action_kouhyou_detail_004_kani=true&JigyosyoCd=1411907302-00&ServiceCd=140&Type=search", "url2": "https://kurihama-megumi.com/" }, "geometry": { "type": "Point", "coordinates": [ 139.6991256, 35.2313267 ] } },
{ "type": "Feature", "properties": { "内容": "白ゆり総合リハケアクリニック【訪問リハビリテーション】神奈川県横須賀市野比2-2-6", "url": "https://www.kaigokensaku.mhlw.go.jp/14/index.php?action_kouhyou_detail_004_kani=true&JigyosyoCd=1411907534-00&ServiceCd=140&Type=search", "url2": "http://www.shirayuri-c.com" }, "geometry": { "type": "Point", "coordinates": [ 139.684844099999964, 35.2105098 ] } },
{ "type": "Feature", "properties": { "内容": "黒坂整形外科医院【訪問リハビリテーション】神奈川県横須賀市港が丘２－２１－４", "url": "https://www.kaigokensaku.mhlw.go.jp/14/index.php?action_kouhyou_detail_004_kani=true&JigyosyoCd=1411910025-00&ServiceCd=140&Type=search", "url2": null }, "geometry": { "type": "Point", "coordinates": [ 139.6280051, 35.2985785 ] } },
{ "type": "Feature", "properties": { "内容": "サンライズファミリークリニック【訪問リハビリテーション】神奈川県横須賀市武1-28-5", "url": "https://www.kaigokensaku.mhlw.go.jp/14/index.php?action_kouhyou_detail_004_kani=true&JigyosyoCd=1411911064-00&ServiceCd=140&Type=search", "url2": "http://www.unimedico.jp/sunrise/" }, "geometry": { "type": "Point", "coordinates": [ 139.6512121, 35.2274244 ] } },
{ "type": "Feature", "properties": { "内容": "介護老人保健施設　衣笠ろうけん【訪問リハビリテーション】神奈川県横須賀市小矢部2-23-1", "url": "https://www.kaigokensaku.mhlw.go.jp/14/index.php?action_kouhyou_detail_004_kani=true&JigyosyoCd=1451980002-00&ServiceCd=140&Type=search", "url2": "https://www.kinugasa.or.jp/care/roken/" }, "geometry": { "type": "Point", "coordinates": [ 139.66201209999997, 35.2553271 ] } },
{ "type": "Feature", "properties": { "内容": "介護老人保健施設　ハートケア湘南・芦名【訪問リハビリテーション】神奈川県横須賀市芦名１－１６－１２", "url": "https://www.kaigokensaku.mhlw.go.jp/14/index.php?action_kouhyou_detail_004_kani=true&JigyosyoCd=1451980036-00&ServiceCd=140&Type=search", "url2": "https://www.hc-ashina.jp/" }, "geometry": { "type": "Point", "coordinates": [ 139.603902799999986, 35.2290849 ] } },
{ "type": "Feature", "properties": { "内容": "介護老人保健施設　ソレイユカーマ【訪問リハビリテーション】神奈川県横須賀市西浦賀５－３２－１", "url": "https://www.kaigokensaku.mhlw.go.jp/14/index.php?action_kouhyou_detail_004_kani=true&JigyosyoCd=1451980044-00&ServiceCd=140&Type=search", "url2": "https://soleil-kama.jp/" }, "geometry": { "type": "Point", "coordinates": [ 139.7207577, 35.234379200000035 ] } },
{ "type": "Feature", "properties": { "内容": "介護老人保健施設　野比苑【訪問リハビリテーション】神奈川県横須賀市野比1－41－1", "url": "https://www.kaigokensaku.mhlw.go.jp/14/index.php?action_kouhyou_detail_004_kani=true&JigyosyoCd=1451980069-00&ServiceCd=140&Type=search", "url2": "https://nobien.jp" }, "geometry": { "type": "Point", "coordinates": [ 139.689732400000025, 35.2185893 ] } },
{ "type": "Feature", "properties": { "内容": "久里浜在宅クリニック【訪問リハビリテーション】神奈川県横須賀市久里浜1-10-5", "url": "https://www.kaigokensaku.mhlw.go.jp/14/index.php?action_kouhyou_detail_004_kani=true&JigyosyoCd=1411910728-00&ServiceCd=140&Type=search", "url2": "http://www.kurihamazaitaku.com" }, "geometry": { "type": "Point", "coordinates": [ 139.6996931, 35.2311258 ] } },
{ "type": "Feature", "properties": { "内容": "よこすか浦賀病院【訪問リハビリテーション】神奈川県横須賀市西浦賀1-11-1", "url": "https://www.kaigokensaku.mhlw.go.jp/14/index.php?action_kouhyou_detail_004_kani=true&JigyosyoCd=1411910280-00&ServiceCd=140&Type=search", "url2": "http://www.uraga-hp.com/" }, "geometry": { "type": "Point", "coordinates": [ 139.7208583, 35.2389505 ] } },
{ "type": "Feature", "properties": { "内容": "介護老人保健施設フィオーレ湘南真田【訪問リハビリテーション】神奈川県平塚市真田三丁目１番１号", "url": "https://www.kaigokensaku.mhlw.go.jp/14/index.php?action_kouhyou_detail_004_kani=true&JigyosyoCd=1452080059-00&ServiceCd=140&Type=search", "url2": "http://www.shofukai.or.jp/" }, "geometry": { "type": "Point", "coordinates": [ 139.2834057, 35.3728112 ] } },
{ "type": "Feature", "properties": { "内容": "介護老人保健施設なでしこの里リハビリひらつか【訪問リハビリテーション】神奈川県平塚市東八幡4丁目19番3号", "url": "https://www.kaigokensaku.mhlw.go.jp/14/index.php?action_kouhyou_detail_004_kani=true&JigyosyoCd=1452080060-00&ServiceCd=140&Type=search", "url2": "https://www.tomei.or.jp/fukushi/nadeshiko/" }, "geometry": { "type": "Point", "coordinates": [ 139.359251431889163, 35.350114332221992 ] } },
{ "type": "Feature", "properties": { "内容": "介護老人保健施設　社会福祉法人　恩賜財団済生会湘南苑【訪問リハビリテーション】神奈川県平塚市立野町37-1", "url": "https://www.kaigokensaku.mhlw.go.jp/14/index.php?action_kouhyou_detail_004_kani=true&JigyosyoCd=1452080000-00&ServiceCd=140&Type=search", "url2": "www.hiratsuka.saiseikai.or.jp/shonanen/" }, "geometry": { "type": "Point", "coordinates": [ 139.339624400000048, 35.33283 ] } },
{ "type": "Feature", "properties": { "内容": "ふれあい平塚ホスピタル【訪問リハビリテーション】神奈川県平塚市袖ケ浜1-12ふれあい平塚ホスピタル", "url": "https://www.kaigokensaku.mhlw.go.jp/14/index.php?action_kouhyou_detail_004_kani=true&JigyosyoCd=1412003549-00&ServiceCd=140&Type=search", "url2": "https://www.fureai-g.or.jp/fhh/" }, "geometry": { "type": "Point", "coordinates": [ 139.352796300000023, 35.3195538 ] } },
{ "type": "Feature", "properties": { "内容": "くらた病院【訪問リハビリテーション】神奈川県平塚市東真土４－５－２６", "url": "https://www.kaigokensaku.mhlw.go.jp/14/index.php?action_kouhyou_detail_004_kani=true&JigyosyoCd=1412003010-00&ServiceCd=140&Type=search", "url2": "https://www.kuratakai.or.jp/" }, "geometry": { "type": "Point", "coordinates": [ 139.352644599999962, 35.3606468 ] } },
{ "type": "Feature", "properties": { "内容": "介護老人保健施設かまくら【訪問リハビリテーション】神奈川県鎌倉市上町屋字谷戸750", "url": "https://www.kaigokensaku.mhlw.go.jp/14/index.php?action_kouhyou_detail_004_kani=true&JigyosyoCd=1452180032-00&ServiceCd=140&Type=search", "url2": "http://www.s-aishinkai.jp" }, "geometry": { "type": "Point", "coordinates": [ 139.522089, 35.336987 ] } },
{ "type": "Feature", "properties": { "内容": "介護老人保健施設　リハビリケア湘南かまくら【訪問リハビリテーション】神奈川県鎌倉市山崎1202-1", "url": "https://www.kaigokensaku.mhlw.go.jp/14/index.php?action_kouhyou_detail_004_kani=true&JigyosyoCd=1452180050-00&ServiceCd=140&Type=search", "url2": "https://www.tokushukai.or.jp/introduction/facility/ns-shonan" }, "geometry": { "type": "Point", "coordinates": [ 139.5276426, 35.34189 ] } },
{ "type": "Feature", "properties": { "内容": "鎌倉リハビリテーション聖テレジア病院【訪問リハビリテーション】神奈川県鎌倉市腰越1-2-1", "url": "https://www.kaigokensaku.mhlw.go.jp/14/index.php?action_kouhyou_detail_004_kani=true&JigyosyoCd=1412100857-00&ServiceCd=140&Type=search", "url2": "https://www.st-therese-hp.jp/" }, "geometry": { "type": "Point", "coordinates": [ 139.500528199999962, 35.3074278 ] } },
{ "type": "Feature", "properties": { "内容": "大船中央病院【訪問リハビリテーション】神奈川県鎌倉市大船6-2-24", "url": "https://www.kaigokensaku.mhlw.go.jp/14/index.php?action_kouhyou_detail_004_kani=true&JigyosyoCd=1412100865-00&ServiceCd=140&Type=search", "url2": "http://www.ofunachuohp.net/" }, "geometry": { "type": "Point", "coordinates": [ 139.538237699999968, 35.3515883 ] } },
{ "type": "Feature", "properties": { "内容": "ふれあい鎌倉ホスピタル【訪問リハビリテーション】神奈川県鎌倉市御成町9-5", "url": "https://www.kaigokensaku.mhlw.go.jp/14/index.php?action_kouhyou_detail_004_kani=true&JigyosyoCd=1412100972-00&ServiceCd=140&Type=search", "url2": "http://www.fureai-g.or.jp/kamakura-hp/" }, "geometry": { "type": "Point", "coordinates": [ 139.548958800000037, 35.3176673 ] } },
{ "type": "Feature", "properties": { "内容": "鎌倉ヒロ病院【訪問リハビリテーション】神奈川県鎌倉市材木座1-7-22", "url": "https://www.kaigokensaku.mhlw.go.jp/14/index.php?action_kouhyou_detail_004_kani=true&JigyosyoCd=1412104719-00&ServiceCd=140&Type=search", "url2": "https://kamakurahilo.jp" }, "geometry": { "type": "Point", "coordinates": [ 139.551616200000012, 35.313036 ] } },
{ "type": "Feature", "properties": { "内容": "医療法人南浜会鈴木病院【訪問リハビリテーション】神奈川県鎌倉市腰越1-1-1", "url": "https://www.kaigokensaku.mhlw.go.jp/14/index.php?action_kouhyou_detail_004_kani=true&JigyosyoCd=1412100600-00&ServiceCd=140&Type=search", "url2": "https://www.suzuki-hp.ne.jp/sinryo/houmon/houmonriha" }, "geometry": { "type": "Point", "coordinates": [ 139.501434900000049, 35.3070233 ] } },
{ "type": "Feature", "properties": { "内容": "医療法人　湘和会　湘南記念病院【訪問リハビリテーション】神奈川県鎌倉市笛田2-2-60", "url": "https://www.kaigokensaku.mhlw.go.jp/14/index.php?action_kouhyou_detail_004_kani=true&JigyosyoCd=1412102754-00&ServiceCd=140&Type=search", "url2": "http://www.syonankinenhp.or.jp/departments/rehabilitation3" }, "geometry": { "type": "Point", "coordinates": [ 139.517241799999965, 35.3294602 ] } },
{ "type": "Feature", "properties": { "内容": "介護老人保健施設ガーデニア・ごしょみ【訪問リハビリテーション】神奈川県藤沢市獺郷218番地", "url": "https://www.kaigokensaku.mhlw.go.jp/14/index.php?action_kouhyou_detail_004_kani=true&JigyosyoCd=1452280030-00&ServiceCd=140&Type=search", "url2": "https://gardenia.or.jp/" }, "geometry": { "type": "Point", "coordinates": [ 139.4102787, 35.3964817 ] } },
{ "type": "Feature", "properties": { "内容": "介護老人保健施設　清流苑【訪問リハビリテーション】神奈川県藤沢市高谷116-1", "url": "https://www.kaigokensaku.mhlw.go.jp/14/index.php?action_kouhyou_detail_004_kani=true&JigyosyoCd=1452280014-00&ServiceCd=140&Type=search", "url2": "http://www.fhp.or.jp/seiryuen/index.php" }, "geometry": { "type": "Point", "coordinates": [ 139.5033573, 35.3332202 ] } },
{ "type": "Feature", "properties": { "内容": "クローバーホスピタル【訪問リハビリテーション】神奈川県藤沢市鵠沼石上3-3-6", "url": "https://www.kaigokensaku.mhlw.go.jp/14/index.php?action_kouhyou_detail_004_kani=true&JigyosyoCd=1412206845-00&ServiceCd=140&Type=search", "url2": "http://cloverhospital.jp/clinic/rehabilitation/" }, "geometry": { "type": "Point", "coordinates": [ 139.4877136, 35.331156 ] } },
{ "type": "Feature", "properties": { "内容": "かわしま神経内科クリニック【訪問リハビリテーション】神奈川県藤沢市鵠沼松が岡5-13-17", "url": "https://www.kaigokensaku.mhlw.go.jp/14/index.php?action_kouhyou_detail_004_kani=true&JigyosyoCd=1412207249-00&ServiceCd=140&Type=search", "url2": "http://kawashimaclinic.com" }, "geometry": { "type": "Point", "coordinates": [ 139.470692423942523, 35.323107579770195 ] } },
{ "type": "Feature", "properties": { "内容": "湘南太平台病院【訪問リハビリテーション】神奈川県藤沢市辻堂太平台2-13-27", "url": "https://www.kaigokensaku.mhlw.go.jp/14/index.php?action_kouhyou_detail_004_kani=true&JigyosyoCd=1412207223-00&ServiceCd=140&Type=search", "url2": "https://shonan-taiheidai.or.jp/" }, "geometry": { "type": "Point", "coordinates": [ 139.4674465, 35.3346412 ] } },
{ "type": "Feature", "properties": { "内容": "医療法人社団平郁会　湘南ライフタウン診療所【訪問リハビリテーション】神奈川県藤沢市大庭5526-2藤沢エデンの園B1F", "url": "https://www.kaigokensaku.mhlw.go.jp/14/index.php?action_kouhyou_detail_004_kani=true&JigyosyoCd=1412212348-00&ServiceCd=140&Type=search", "url2": "https://www.heiikukai.com/clinic/lifetown/" }, "geometry": { "type": "Point", "coordinates": [ 139.448415899999986, 35.3669161 ] } },
{ "type": "Feature", "properties": { "内容": "湘南わかば苑【訪問リハビリテーション】神奈川県藤沢市石川591番地", "url": "https://www.kaigokensaku.mhlw.go.jp/14/index.php?action_kouhyou_detail_004_kani=true&JigyosyoCd=1452280022-00&ServiceCd=140&Type=search", "url2": "http://www.swg.or.jp/wakabaen/index.html" }, "geometry": { "type": "Point", "coordinates": [ 139.453044699999964, 35.370118300000016 ] } },
{ "type": "Feature", "properties": { "内容": "介護老人保健施設ケアパーク湘南台【訪問リハビリテーション】神奈川県藤沢市円行991番地", "url": "https://www.kaigokensaku.mhlw.go.jp/14/index.php?action_kouhyou_detail_004_kani=true&JigyosyoCd=1452280048-00&ServiceCd=140&Type=search", "url2": "http://www.muratakai.or.jp/rcpark/index.html" }, "geometry": { "type": "Point", "coordinates": [ 139.460163200000011, 35.3870609 ] } },
{ "type": "Feature", "properties": { "内容": "老健リハビリセンター　クローバーヴィラ【訪問リハビリテーション】神奈川県藤沢市鵠沼神明3-1-1", "url": "https://www.kaigokensaku.mhlw.go.jp/14/index.php?action_kouhyou_detail_004_kani=true&JigyosyoCd=1452280063-00&ServiceCd=140&Type=search", "url2": "http://clover-villa.jp/" }, "geometry": { "type": "Point", "coordinates": [ 139.46903640000005, 35.338844 ] } },
{ "type": "Feature", "properties": { "内容": "藤沢在宅クリニック【訪問リハビリテーション】神奈川県藤沢市南藤沢17-16秋山ビルⅡ201号室", "url": "https://www.kaigokensaku.mhlw.go.jp/14/index.php?action_kouhyou_detail_004_kani=true&JigyosyoCd=1412210508-00&ServiceCd=140&Type=search", "url2": "http://fujizai.jp/" }, "geometry": { "type": "Point", "coordinates": [ 139.4908034, 35.336434900000022 ] } },
{ "type": "Feature", "properties": { "内容": "間中病院【訪問リハビリテーション】神奈川県小田原市本町4-1-26", "url": "https://www.kaigokensaku.mhlw.go.jp/14/index.php?action_kouhyou_detail_004_kani=true&JigyosyoCd=1412300143-00&ServiceCd=140&Type=search", "url2": "https://www.manaka-hp.jp/" }, "geometry": { "type": "Point", "coordinates": [ 139.157419800000014, 35.2470748 ] } },
{ "type": "Feature", "properties": { "内容": "吉田整形外科医院【訪問リハビリテーション】神奈川県小田原市扇町4-7-15", "url": "https://www.kaigokensaku.mhlw.go.jp/14/index.php?action_kouhyou_detail_004_kani=true&JigyosyoCd=1412302982-00&ServiceCd=140&Type=search", "url2": "https://jin-yoshidaseikei.jp/" }, "geometry": { "type": "Point", "coordinates": [ 139.160621200000037, 35.2706838 ] } },
{ "type": "Feature", "properties": { "内容": "小林病院【訪問リハビリテーション】神奈川県小田原市栄町1-14-18", "url": "https://www.kaigokensaku.mhlw.go.jp/14/index.php?action_kouhyou_detail_004_kani=true&JigyosyoCd=1412300036-00&ServiceCd=140&Type=search", "url2": "http://www.kobayashihp.or.jp/" }, "geometry": { "type": "Point", "coordinates": [ 139.158645805557285, 35.253716282578878 ] } },
{ "type": "Feature", "properties": { "内容": "杏林堂クリニック【訪問リハビリテーション】神奈川県小田原市酒匂3-9-12杏林堂クリニック内", "url": "https://www.kaigokensaku.mhlw.go.jp/14/index.php?action_kouhyou_detail_004_kani=true&JigyosyoCd=1412310266-00&ServiceCd=140&Type=search", "url2": "https://kyourindo-cl.com/" }, "geometry": { "type": "Point", "coordinates": [ 139.188581399999975, 35.2662709 ] } },
{ "type": "Feature", "properties": { "内容": "茅ヶ崎中央病院【訪問リハビリテーション】神奈川県茅ヶ崎市茅ヶ崎2-2-3", "url": "https://www.kaigokensaku.mhlw.go.jp/14/index.php?action_kouhyou_detail_004_kani=true&JigyosyoCd=1412402196-00&ServiceCd=140&Type=search", "url2": "http://www.fureai-g.or.jp/chu/" }, "geometry": { "type": "Point", "coordinates": [ 139.4055634, 35.3341513 ] } },
{ "type": "Feature", "properties": { "内容": "湘南東部クリニック【訪問リハビリテーション】神奈川県茅ケ崎市西久保117", "url": "https://www.kaigokensaku.mhlw.go.jp/14/index.php?action_kouhyou_detail_004_kani=true&JigyosyoCd=1412402931-00&ServiceCd=140&Type=search", "url2": "https://www.fureai-g.or.jp/toubu-clinic/homecare/" }, "geometry": { "type": "Point", "coordinates": [ 139.391613799999959, 35.348479 ] } },
{ "type": "Feature", "properties": { "内容": "前田整形外科・内科クリニック【訪問リハビリテーション】神奈川県茅ヶ崎市ひばりが丘1-10", "url": "https://www.kaigokensaku.mhlw.go.jp/14/index.php?action_kouhyou_detail_004_kani=true&JigyosyoCd=1412410207-00&ServiceCd=140&Type=search", "url2": "http://maeda-seikei-naika.com/" }, "geometry": { "type": "Point", "coordinates": [ 139.422051300000021, 35.3346883 ] } },
{ "type": "Feature", "properties": { "内容": "湘南すずきクリニック【訪問リハビリテーション】神奈川県茅ケ崎市ひばりが丘7-10湘南すずきクリニック2階", "url": "https://www.kaigokensaku.mhlw.go.jp/14/index.php?action_kouhyou_detail_004_kani=true&JigyosyoCd=1412402840-00&ServiceCd=140&Type=search", "url2": "https://www.s-sclinic.com" }, "geometry": { "type": "Point", "coordinates": [ 139.4252874, 35.3328024 ] } },
{ "type": "Feature", "properties": { "内容": "おひさまクリニック湘南【訪問リハビリテーション】神奈川県茅ケ崎市みずき4-9-161階", "url": "https://www.kaigokensaku.mhlw.go.jp/14/index.php?action_kouhyou_detail_004_kani=true&JigyosyoCd=1412410397-00&ServiceCd=140&Type=search", "url2": "https://ohisamakai.net/clinic/shonan/" }, "geometry": { "type": "Point", "coordinates": [ 139.40572332579498, 35.358803199363365 ] } },
{ "type": "Feature", "properties": { "内容": "介護老人保健施設ケアパーク茅ヶ崎【訪問リハビリテーション】神奈川県茅ヶ崎市甘沼151番地", "url": "https://www.kaigokensaku.mhlw.go.jp/14/index.php?action_kouhyou_detail_004_kani=true&JigyosyoCd=1452480044-00&ServiceCd=140&Type=search", "url2": null }, "geometry": { "type": "Point", "coordinates": [ 139.420842900000025, 35.3561546 ] } },
{ "type": "Feature", "properties": { "内容": "医療法人社団　柏信会　青木病院訪問リハビリテーション【訪問リハビリテーション】逗子市桜山６－１３３６", "url": "https://www.kaigokensaku.mhlw.go.jp/14/index.php?action_kouhyou_detail_004_kani=true&JigyosyoCd=1412500924-00&ServiceCd=140&Type=search", "url2": "http://www.aoki-hospital.or.jp/" }, "geometry": { "type": "Point", "coordinates": [ 139.590805300000056, 35.2926034 ] } },
{ "type": "Feature", "properties": { "内容": "湘南記念小坪クリニック【訪問リハビリテーション】神奈川県逗子市小坪3-2-1", "url": "https://www.kaigokensaku.mhlw.go.jp/14/index.php?action_kouhyou_detail_004_kani=true&JigyosyoCd=1412501575-00&ServiceCd=140&Type=search", "url2": "http://www.syonankinenhp.or.jp/departments/kotsubo" }, "geometry": { "type": "Point", "coordinates": [ 139.560328722090162, 35.300169786725341 ] } },
{ "type": "Feature", "properties": { "内容": "医療法人海星会　東逗子整形外科クリニック【訪問リハビリテーション】神奈川県逗子市沼間3-8-15", "url": "https://www.kaigokensaku.mhlw.go.jp/14/index.php?action_kouhyou_detail_004_kani=true&JigyosyoCd=1412510071-00&ServiceCd=140&Type=search", "url2": "http://higashizushi-seikei.com/" }, "geometry": { "type": "Point", "coordinates": [ 139.606270569557353, 35.298065104726405 ] } },
{ "type": "Feature", "properties": { "内容": "介護老人保健施設　なのはな苑【訪問リハビリテーション】神奈川県三浦市初声町高円坊1040-2", "url": "https://www.kaigokensaku.mhlw.go.jp/14/index.php?action_kouhyou_detail_004_kani=true&JigyosyoCd=1452780005-00&ServiceCd=140&Type=search", "url2": "http://www.bmk.or.jp/nanohana/" }, "geometry": { "type": "Point", "coordinates": [ 139.64495809999994, 35.2029801 ] } },
{ "type": "Feature", "properties": { "内容": "三浦市立病院【訪問リハビリテーション】神奈川県三浦市岬陽町４番３３号", "url": "https://www.kaigokensaku.mhlw.go.jp/14/index.php?action_kouhyou_detail_004_kani=true&JigyosyoCd=1412700037-00&ServiceCd=140&Type=search", "url2": "https://www.city.miura.kanagawa.jp/iryo_kenko_fukushi/iryo_kenko/9/index.html" }, "geometry": { "type": "Point", "coordinates": [ 139.628761299999951, 35.144853600000019 ] } },
{ "type": "Feature", "properties": { "内容": "医療法人社団　佑樹会　介護老人保健施設　ひまわりの里【訪問リハビリテーション】神奈川県秦野市西大竹914番地の1", "url": "https://www.kaigokensaku.mhlw.go.jp/14/index.php?action_kouhyou_detail_004_kani=true&JigyosyoCd=1452880052-00&ServiceCd=140&Type=search", "url2": "http://yuuki-kai.com/" }, "geometry": { "type": "Point", "coordinates": [ 139.2333893, 35.3541977 ] } },
{ "type": "Feature", "properties": { "内容": "医療法人社団佑樹会　介護老人保健施設めぐみの里【訪問リハビリテーション】神奈川県秦野市渋沢１２９６番地の1", "url": "https://www.kaigokensaku.mhlw.go.jp/14/index.php?action_kouhyou_detail_004_kani=true&JigyosyoCd=1452880045-00&ServiceCd=140&Type=search", "url2": "http://yuuki-kai.com" }, "geometry": { "type": "Point", "coordinates": [ 139.1952545, 35.3668913 ] } },
{ "type": "Feature", "properties": { "内容": "八木病院【訪問リハビリテーション】神奈川県秦野市本町1丁目3－1", "url": "https://www.kaigokensaku.mhlw.go.jp/14/index.php?action_kouhyou_detail_004_kani=true&JigyosyoCd=1412800282-00&ServiceCd=140&Type=search", "url2": "https://kyourinkai-yagi.com/" }, "geometry": { "type": "Point", "coordinates": [ 139.2260176, 35.372246 ] } },
{ "type": "Feature", "properties": { "内容": "医療法人社団　三喜会　鶴巻温泉病院【訪問リハビリテーション】神奈川県秦野市鶴巻北1-16-1", "url": "https://www.kaigokensaku.mhlw.go.jp/14/index.php?action_kouhyou_detail_004_kani=true&JigyosyoCd=1412800829-00&ServiceCd=140&Type=search", "url2": "http://www.sankikai.or.jp/tsurumaki/" }, "geometry": { "type": "Point", "coordinates": [ 139.279682399999956, 35.3829311 ] } },
{ "type": "Feature", "properties": { "内容": "医療法人社団三喜会介護老人保健施設ライフプラザ鶴巻【訪問リハビリテーション】神奈川県秦野市鶴巻北3-1-3", "url": "https://www.kaigokensaku.mhlw.go.jp/14/index.php?action_kouhyou_detail_004_kani=true&JigyosyoCd=1452880029-00&ServiceCd=140&Type=search", "url2": "http://www.sankikai.or.jp/life-tsurumaki/" }, "geometry": { "type": "Point", "coordinates": [ 139.2761855, 35.3821699 ] } },
{ "type": "Feature", "properties": { "内容": "米澤外科内科【訪問リハビリテーション】厚木市飯山１７２", "url": "https://www.kaigokensaku.mhlw.go.jp/14/index.php?action_kouhyou_detail_004_kani=true&JigyosyoCd=1412902153-00&ServiceCd=140&Type=search", "url2": null }, "geometry": { "type": "Point", "coordinates": [ 139.336629499999958, 35.4646674 ] } },
{ "type": "Feature", "properties": { "内容": "介護老人保健施設こまち【訪問リハビリテーション】神奈川県厚木市小野763-1", "url": "https://www.kaigokensaku.mhlw.go.jp/14/index.php?action_kouhyou_detail_004_kani=true&JigyosyoCd=1452980043-00&ServiceCd=140&Type=search", "url2": "http://www.touwakai.com/komachi/visit_rehabilitation.html" }, "geometry": { "type": "Point", "coordinates": [ 139.313063300000067, 35.433152 ] } },
{ "type": "Feature", "properties": { "内容": "医療法人社団広栄会【訪問リハビリテーション】神奈川県厚木市泉町３－５厚木フォーラムビル3階及び４階Ａ", "url": "https://www.kaigokensaku.mhlw.go.jp/14/index.php?action_kouhyou_detail_004_kani=true&JigyosyoCd=1412902260-00&ServiceCd=140&Type=search", "url2": "https://atsujyun.com" }, "geometry": { "type": "Point", "coordinates": [ 139.4648736, 35.6965266 ] } },
{ "type": "Feature", "properties": { "内容": "介護老人保健施設さつきの里あつぎ【訪問リハビリテーション】神奈川県厚木市船子322-1", "url": "https://www.kaigokensaku.mhlw.go.jp/14/index.php?action_kouhyou_detail_004_kani=true&JigyosyoCd=1452980001-00&ServiceCd=140&Type=search", "url2": "https://www.tomei.or.jp/fukushi/roken/" }, "geometry": { "type": "Point", "coordinates": [ 139.355599649445054, 35.427953768626743 ] } },
{ "type": "Feature", "properties": { "内容": "介護老人保健施設さくら【訪問リハビリテーション】神奈川県厚木市上古沢1915", "url": "https://www.kaigokensaku.mhlw.go.jp/14/index.php?action_kouhyou_detail_004_kani=true&JigyosyoCd=1452980035-00&ServiceCd=140&Type=search", "url2": null }, "geometry": { "type": "Point", "coordinates": [ 139.313995100000056, 35.4632697 ] } },
{ "type": "Feature", "properties": { "内容": "亀田森の里病院【訪問リハビリテーション】神奈川県厚木市森の里３－１－１", "url": "https://www.kaigokensaku.mhlw.go.jp/14/index.php?action_kouhyou_detail_004_kani=true&JigyosyoCd=1412901817-00&ServiceCd=140&Type=search", "url2": "https://medical.kameda.com/morinosato" }, "geometry": { "type": "Point", "coordinates": [ 139.310565, 35.4462438 ] } },
{ "type": "Feature", "properties": { "内容": "桜ヶ丘中央病院【訪問リハビリテーション】神奈川県大和市福田１－７－１", "url": "https://www.kaigokensaku.mhlw.go.jp/14/index.php?action_kouhyou_detail_004_kani=true&JigyosyoCd=1413002078-00&ServiceCd=140&Type=search", "url2": "https://sakura-hp.or.jp" }, "geometry": { "type": "Point", "coordinates": [ 139.464747432679786, 35.451441367837518 ] } },
{ "type": "Feature", "properties": { "内容": "南大和病院【訪問リハビリテーション】神奈川県大和市下和田１３３１－２", "url": "https://www.kaigokensaku.mhlw.go.jp/14/index.php?action_kouhyou_detail_004_kani=true&JigyosyoCd=1413002367-00&ServiceCd=140&Type=search", "url2": "http://www.minamiyamato-hosp.or.jp/" }, "geometry": { "type": "Point", "coordinates": [ 139.4694821, 35.4331069 ] } },
{ "type": "Feature", "properties": { "内容": "南大和クリニック【訪問リハビリテーション】神奈川県大和市下和田940-1", "url": "https://www.kaigokensaku.mhlw.go.jp/14/index.php?action_kouhyou_detail_004_kani=true&JigyosyoCd=1413002375-00&ServiceCd=140&Type=search", "url2": "http://www.minamiyamato-hosp.or.jp/zaitaku/rehabilitation.html" }, "geometry": { "type": "Point", "coordinates": [ 139.468354, 35.4315355 ] } },
{ "type": "Feature", "properties": { "内容": "みどり野リハビリテーション病院【訪問リハビリテーション】神奈川県大和市中央林間2-6-17", "url": "https://www.kaigokensaku.mhlw.go.jp/14/index.php?action_kouhyou_detail_004_kani=true&JigyosyoCd=1413003324-00&ServiceCd=140&Type=search", "url2": "https://midorino-hp.jp" }, "geometry": { "type": "Point", "coordinates": [ 139.445449899999971, 35.5022646 ] } },
{ "type": "Feature", "properties": { "内容": "医療法人社団　佑樹会　介護老人保健施設あゆみの里【訪問リハビリテーション】神奈川県伊勢原市石田1710番地", "url": "https://www.kaigokensaku.mhlw.go.jp/14/index.php?action_kouhyou_detail_004_kani=true&JigyosyoCd=1454080027-00&ServiceCd=140&Type=search", "url2": "http://www.yuuki-kai.com" }, "geometry": { "type": "Point", "coordinates": [ 139.3412051, 35.4148377 ] } },
{ "type": "Feature", "properties": { "内容": "医療法人社団　松和会　介護老人保健施設ききょう苑【訪問リハビリテーション】神奈川県伊勢原市沼目6丁目1237番", "url": "https://www.kaigokensaku.mhlw.go.jp/14/index.php?action_kouhyou_detail_004_kani=true&JigyosyoCd=1454080016-00&ServiceCd=140&Type=search", "url2": "http://www.mtnet.jp/kikyo-en/" }, "geometry": { "type": "Point", "coordinates": [ 139.331438, 35.388304 ] } },
{ "type": "Feature", "properties": { "内容": "医療法人美瑛会かげやまクリニック【訪問リハビリテーション】神奈川県海老名市中央3-3-1駅前クリニックモール3F", "url": "https://www.kaigokensaku.mhlw.go.jp/14/index.php?action_kouhyou_detail_004_kani=true&JigyosyoCd=1414201380-00&ServiceCd=140&Type=search", "url2": "http://www.kageyama-clinic.jp" }, "geometry": { "type": "Point", "coordinates": [ 139.3896115, 35.4509868 ] } },
{ "type": "Feature", "properties": { "内容": "湘陽かしわ台病院【訪問リハビリテーション】神奈川県海老名市柏ヶ谷　3丁目11番1号", "url": "https://www.kaigokensaku.mhlw.go.jp/14/index.php?action_kouhyou_detail_004_kani=true&JigyosyoCd=1414201398-00&ServiceCd=140&Type=search", "url2": "http://syokashi-hp.or.jp/" }, "geometry": { "type": "Point", "coordinates": [ 139.415562800000032, 35.464442100000014 ] } },
{ "type": "Feature", "properties": { "内容": "えびな脳神経クリニック【訪問リハビリテーション】神奈川県海老名市めぐみ町３番１号ＶｉＮＡＧＡＲＤＥＮＳＰＥＲＣＨ６０１－１２", "url": "https://www.kaigokensaku.mhlw.go.jp/14/index.php?action_kouhyou_detail_004_kani=true&JigyosyoCd=1414210464-00&ServiceCd=140&Type=search", "url2": "https://www.ebinou.com/" }, "geometry": { "type": "Point", "coordinates": [ 139.3893827, 35.4536033 ] } },
{ "type": "Feature", "properties": { "内容": "社会医療法人ジャパンメディカルアライアンス　介護老人保健施設アゼリア【訪問リハビリテーション】神奈川県海老名市中央4丁目16番3号", "url": "https://www.kaigokensaku.mhlw.go.jp/14/index.php?action_kouhyou_detail_004_kani=true&JigyosyoCd=1454280012-00&ServiceCd=140&Type=search", "url2": "https://azalea.jinai.jp" }, "geometry": { "type": "Point", "coordinates": [ 139.385909, 35.4482733 ] } },
{ "type": "Feature", "properties": { "内容": "海老名総合病院【訪問リハビリテーション】神奈川県海老名市中央4-16-1", "url": "https://www.kaigokensaku.mhlw.go.jp/14/index.php?action_kouhyou_detail_004_kani=true&JigyosyoCd=1414200499-00&ServiceCd=140&Type=search", "url2": null }, "geometry": { "type": "Point", "coordinates": [ 139.385784300000012, 35.4473876 ] } },
{ "type": "Feature", "properties": { "内容": "社会医療法人ジャパンメディカルアライアンス　座間総合病院【訪問リハビリテーション】神奈川県座間市相武台1丁目50番地1号", "url": "https://www.kaigokensaku.mhlw.go.jp/14/index.php?action_kouhyou_detail_004_kani=true&JigyosyoCd=1414110086-00&ServiceCd=140&Type=search", "url2": "https://zama.jinai.jp/" }, "geometry": { "type": "Point", "coordinates": [ 139.400474943516571, 35.494184410770913 ] } },
{ "type": "Feature", "properties": { "内容": "しのざき整形外科　訪問リハビリテーション【訪問リハビリテーション】神奈川県座間市立野台3-14-5", "url": "https://www.kaigokensaku.mhlw.go.jp/14/index.php?action_kouhyou_detail_004_kani=true&JigyosyoCd=1414110102-00&ServiceCd=140&Type=search", "url2": null }, "geometry": { "type": "Point", "coordinates": [ 139.41244308346711, 35.479286099298584 ] } },
{ "type": "Feature", "properties": { "内容": "座間整形外科【訪問リハビリテーション】神奈川県座間市入谷西3-18-1座間駅前クリニックビル2Ｆ", "url": "https://www.kaigokensaku.mhlw.go.jp/14/index.php?action_kouhyou_detail_004_kani=true&JigyosyoCd=1414101267-00&ServiceCd=140&Type=search", "url2": "https://www.zamaseikei.com" }, "geometry": { "type": "Point", "coordinates": [ 139.3997491, 35.4803356 ] } },
{ "type": "Feature", "properties": { "内容": "介護老人保健施設　にじの丘足柄【訪問リハビリテーション】神奈川県南足柄市岩原699", "url": "https://www.kaigokensaku.mhlw.go.jp/14/index.php?action_kouhyou_detail_004_kani=true&JigyosyoCd=1454380002-00&ServiceCd=140&Type=search", "url2": "http://www.kiyoukai.jp/" }, "geometry": { "type": "Point", "coordinates": [ 139.123996199999965, 35.2942282 ] } },
{ "type": "Feature", "properties": { "内容": "医療法人社団　柏陵会　綾瀬厚生病院【訪問リハビリテーション】神奈川県綾瀬市深谷中1-4-16綾瀬厚生病院", "url": "https://www.kaigokensaku.mhlw.go.jp/14/index.php?action_kouhyou_detail_004_kani=true&JigyosyoCd=1414400206-00&ServiceCd=140&Type=search", "url2": "https://www.fureai-g.or.jp/ayase-hp/" }, "geometry": { "type": "Point", "coordinates": [ 139.4307574, 35.4328131 ] } },
{ "type": "Feature", "properties": { "内容": "宗教法人寒川神社　介護老人保健施設　神恵苑【訪問リハビリテーション】神奈川県高座郡寒川町宮山１８０－１", "url": "https://www.kaigokensaku.mhlw.go.jp/14/index.php?action_kouhyou_detail_004_kani=true&JigyosyoCd=1451280007-00&ServiceCd=140&Type=search", "url2": "https://shinkeien.jp/" }, "geometry": { "type": "Point", "coordinates": [ 139.3822853, 35.3734923 ] } },
{ "type": "Feature", "properties": { "内容": "介護老人保健施設　グレースヒル・湘南【訪問リハビリテーション】神奈川県足柄上郡中井町松本1135-1", "url": "https://www.kaigokensaku.mhlw.go.jp/14/index.php?action_kouhyou_detail_004_kani=true&JigyosyoCd=1451480011-00&ServiceCd=140&Type=search", "url2": "http://www.ittokai.or.jp/grace/" }, "geometry": { "type": "Point", "coordinates": [ 139.1953456, 35.3462609 ] } },
{ "type": "Feature", "properties": { "内容": "医療法人社団恵風会山北中央診療所【訪問リハビリテーション】神奈川県足柄上郡山北町山北192", "url": "https://www.kaigokensaku.mhlw.go.jp/14/index.php?action_kouhyou_detail_004_kani=true&JigyosyoCd=1411401215-00&ServiceCd=140&Type=search", "url2": "http://www.oriclinic.com/" }, "geometry": { "type": "Point", "coordinates": [ 139.0890607, 35.3623942 ] } },
{ "type": "Feature", "properties": { "内容": "介護老人保健施設　デンマークイン箱根【訪問リハビリテーション】神奈川県足柄下郡箱根町仙石原１２８５", "url": "https://www.kaigokensaku.mhlw.go.jp/14/index.php?action_kouhyou_detail_004_kani=true&JigyosyoCd=1451580000-00&ServiceCd=140&Type=search", "url2": "http://www.kensei-hakone.com/" }, "geometry": { "type": "Point", "coordinates": [ 139.021928576473982, 35.263858487390678 ] } },
{ "type": "Feature", "properties": { "内容": "独立行政法人地域医療機能推進機構　湯河原病院【訪問リハビリテーション】神奈川県足柄下郡湯河原町中央2-21-6湯河原病院", "url": "https://www.kaigokensaku.mhlw.go.jp/14/index.php?action_kouhyou_detail_004_kani=true&JigyosyoCd=1411510049-00&ServiceCd=140&Type=search", "url2": "http://yugawara.jcho.go.jp" }, "geometry": { "type": "Point", "coordinates": [ 139.110136, 35.1482309 ] } },
{ "type": "Feature", "properties": { "内容": "ニューライフ湯河原【訪問リハビリテーション】神奈川県足柄下郡湯河原町吉浜１９０６", "url": "https://www.kaigokensaku.mhlw.go.jp/14/index.php?action_kouhyou_detail_004_kani=true&JigyosyoCd=1451580018-00&ServiceCd=140&Type=search", "url2": "http://www.newlife-web.ne.jp/" }, "geometry": { "type": "Point", "coordinates": [ 139.114640799999961, 35.159874399999978 ] } },
{ "type": "Feature", "properties": { "内容": "愛川北部病院【訪問リハビリテーション】神奈川県愛甲郡愛川町角田281-1", "url": "https://www.kaigokensaku.mhlw.go.jp/14/index.php?action_kouhyou_detail_004_kani=true&JigyosyoCd=1411600469-00&ServiceCd=140&Type=search", "url2": "https://hokubu.or.jp/hp" }, "geometry": { "type": "Point", "coordinates": [ 139.3218192, 35.5302575 ] } }
]
}
