{
"type": "FeatureCollection",
"name": "geo_14_4",
"crs": { "type": "name", "properties": { "name": "urn:ogc:def:crs:OGC:1.3:CRS84" } },
"features": [
{ "type": "Feature", "properties": { "ID": 1441400398800, "正式名称": "高橋母乳相談室", "機関区分": 4, "都道府県コード": 14, "市区町村コード": 341, "所在地": "神奈川県中郡大磯町西小磯７５５－６", "緯度": 35.30894, "経度": 139.303818, "url": "https://www.iryou.teikyouseido.mhlw.go.jp/znk-web/juminkanja/S2430/initialize?prefCd=14&kikanCd=1400398800&kikanKbn=4", "url2": null, "内容": "高橋母乳相談室【4:助産院】神奈川県中郡大磯町西小磯７５５－６" }, "geometry": { "type": "Point", "coordinates": [ 139.303818, 35.30894 ] } },
{ "type": "Feature", "properties": { "ID": 1441400852100, "正式名称": "なつ母乳育児相談室", "機関区分": 4, "都道府県コード": 14, "市区町村コード": 204, "所在地": "神奈川県鎌倉市大船１－１４－２３ＮＡビルＡ", "緯度": 35.35025, "経度": 139.532411, "url": "https://www.iryou.teikyouseido.mhlw.go.jp/znk-web/juminkanja/S2430/initialize?prefCd=14&kikanCd=1400852100&kikanKbn=4", "url2": "natsu-bonyu.com", "内容": "なつ母乳育児相談室【4:助産院】神奈川県鎌倉市大船１－１４－２３ＮＡビルＡ" }, "geometry": { "type": "Point", "coordinates": [ 139.532411, 35.35025 ] } },
{ "type": "Feature", "properties": { "ID": 1441400853000, "正式名称": "宮崎助産院", "機関区分": 4, "都道府県コード": 14, "市区町村コード": 204, "所在地": "神奈川県鎌倉市大町", "緯度": 35.31368, "経度": 139.560157, "url": "https://www.iryou.teikyouseido.mhlw.go.jp/znk-web/juminkanja/S2430/initialize?prefCd=14&kikanCd=1400853000&kikanKbn=4", "url2": "https://miyazakijosanin.my.canva.site", "内容": "宮崎助産院【4:助産院】神奈川県鎌倉市大町" }, "geometry": { "type": "Point", "coordinates": [ 139.560157, 35.31368 ] } },
{ "type": "Feature", "properties": { "ID": 1441401216200, "正式名称": "あかね助産院母乳育児支援室", "機関区分": 4, "都道府県コード": 14, "市区町村コード": 206, "所在地": "神奈川県小田原市国府津１７４２－３", "緯度": 35.283155, "経度": 139.205091, "url": "https://www.iryou.teikyouseido.mhlw.go.jp/znk-web/juminkanja/S2430/initialize?prefCd=14&kikanCd=1401216200&kikanKbn=4", "url2": "http://akane.if.land.to/", "内容": "あかね助産院母乳育児支援室【4:助産院】神奈川県小田原市国府津１７４２－３" }, "geometry": { "type": "Point", "coordinates": [ 139.205091, 35.283155 ] } },
{ "type": "Feature", "properties": { "ID": 1441401857800, "正式名称": "まゆみ助産院", "機関区分": 4, "都道府県コード": 14, "市区町村コード": 212, "所在地": "神奈川県厚木市愛甲東１丁目８－１４", "緯度": 35.417918, "経度": 139.34624, "url": "https://www.iryou.teikyouseido.mhlw.go.jp/znk-web/juminkanja/S2430/initialize?prefCd=14&kikanCd=1401857800&kikanKbn=4", "url2": "http://www.mayumijosanin.com", "内容": "まゆみ助産院【4:助産院】神奈川県厚木市愛甲東１丁目８－１４" }, "geometry": { "type": "Point", "coordinates": [ 139.34624, 35.417918 ] } },
{ "type": "Feature", "properties": { "ID": 1441401991400, "正式名称": "露崎助産所ことほぎ母乳育児相談室", "機関区分": 4, "都道府県コード": 14, "市区町村コード": 217, "所在地": "神奈川県南足柄市沼田３９８－１", "緯度": 35.292561, "経度": 139.126655, "url": "https://www.iryou.teikyouseido.mhlw.go.jp/znk-web/juminkanja/S2430/initialize?prefCd=14&kikanCd=1401991400&kikanKbn=4", "url2": "http://cotocoto.sunnyday.jp/index.html", "内容": "露崎助産所ことほぎ母乳育児相談室【4:助産院】神奈川県南足柄市沼田３９８－１" }, "geometry": { "type": "Point", "coordinates": [ 139.126655, 35.292561 ] } },
{ "type": "Feature", "properties": { "ID": 1441402297400, "正式名称": "あゆみ助産所", "機関区分": 4, "都道府県コード": 14, "市区町村コード": 214, "所在地": "神奈川県伊勢原市沼目３－３１－１４", "緯度": 35.393426, "経度": 139.328415, "url": "https://www.iryou.teikyouseido.mhlw.go.jp/znk-web/juminkanja/S2430/initialize?prefCd=14&kikanCd=1402297400&kikanKbn=4", "url2": null, "内容": "あゆみ助産所【4:助産院】神奈川県伊勢原市沼目３－３１－１４" }, "geometry": { "type": "Point", "coordinates": [ 139.328415, 35.393426 ] } },
{ "type": "Feature", "properties": { "ID": 1441402298200, "正式名称": "ひまわり助産院", "機関区分": 4, "都道府県コード": 14, "市区町村コード": 211, "所在地": "神奈川県秦野市堀西４６１－１　ロイヤルハイツ宮ノ前１０５号", "緯度": 35.377676, "経度": 139.173587, "url": "https://www.iryou.teikyouseido.mhlw.go.jp/znk-web/juminkanja/S2430/initialize?prefCd=14&kikanCd=1402298200&kikanKbn=4", "url2": "https://www.himawari-mam.com", "内容": "ひまわり助産院【4:助産院】神奈川県秦野市堀西４６１－１　ロイヤルハイツ宮ノ前１０５号" }, "geometry": { "type": "Point", "coordinates": [ 139.173587, 35.377676 ] } },
{ "type": "Feature", "properties": { "ID": 1441402977400, "正式名称": "ナイスママみ・か・み", "機関区分": 4, "都道府県コード": 14, "市区町村コード": 207, "所在地": "神奈川県茅ヶ崎市堤１－１－１５－４０２", "緯度": 35.369255, "経度": 139.438946, "url": "https://www.iryou.teikyouseido.mhlw.go.jp/znk-web/juminkanja/S2430/initialize?prefCd=14&kikanCd=1402977400&kikanKbn=4", "url2": null, "内容": "ナイスママみ・か・み【4:助産院】神奈川県茅ヶ崎市堤１－１－１５－４０２" }, "geometry": { "type": "Point", "coordinates": [ 139.438946, 35.369255 ] } },
{ "type": "Feature", "properties": { "ID": 1441403645200, "正式名称": "アールアンドワイ母乳育児相談室", "機関区分": 4, "都道府県コード": 14, "市区町村コード": 102, "所在地": "神奈川県横浜市神奈川区鶴屋町３－３５　ストーク横浜二番館８０４号", "緯度": 35.468775, "経度": 139.616957, "url": "https://www.iryou.teikyouseido.mhlw.go.jp/znk-web/juminkanja/S2430/initialize?prefCd=14&kikanCd=1403645200&kikanKbn=4", "url2": "http://www.ray-oketanishiki.jp", "内容": "アールアンドワイ母乳育児相談室【4:助産院】神奈川県横浜市神奈川区鶴屋町３－３５　ストーク横浜二番館８０４号" }, "geometry": { "type": "Point", "coordinates": [ 139.616957, 35.468775 ] } },
{ "type": "Feature", "properties": { "ID": 1441403888900, "正式名称": "助産師鈴木裕子", "機関区分": 4, "都道府県コード": 14, "市区町村コード": 103, "所在地": "神奈川県横浜市西区西平沼町", "緯度": 35.459063, "経度": 139.615541, "url": "https://www.iryou.teikyouseido.mhlw.go.jp/znk-web/juminkanja/S2430/initialize?prefCd=14&kikanCd=1403888900&kikanKbn=4", "url2": "https://home.tsuku2.jp/m/storeDetail.php?scd=0000132121", "内容": "助産師鈴木裕子【4:助産院】神奈川県横浜市西区西平沼町" }, "geometry": { "type": "Point", "coordinates": [ 139.615541, 35.459063 ] } },
{ "type": "Feature", "properties": { "ID": 1441404768300, "正式名称": "石川助産院・母乳育児相談室", "機関区分": 4, "都道府県コード": 14, "市区町村コード": 111, "所在地": "神奈川県横浜市港南区上大岡西２－９－２０", "緯度": 35.405871, "経度": 139.594936, "url": "https://www.iryou.teikyouseido.mhlw.go.jp/znk-web/juminkanja/S2430/initialize?prefCd=14&kikanCd=1404768300&kikanKbn=4", "url2": "http://www.ishikawabonyu725.com/", "内容": "石川助産院・母乳育児相談室【4:助産院】神奈川県横浜市港南区上大岡西２－９－２０" }, "geometry": { "type": "Point", "coordinates": [ 139.594936, 35.405871 ] } },
{ "type": "Feature", "properties": { "ID": 1441405024200, "正式名称": "スマイルベビー", "機関区分": 4, "都道府県コード": 14, "市区町村コード": 106, "所在地": "神奈川県横浜市保土ケ谷区峰岡町１－２１－５－１０３", "緯度": 35.461059, "経度": 139.597056, "url": "https://www.iryou.teikyouseido.mhlw.go.jp/znk-web/juminkanja/S2430/initialize?prefCd=14&kikanCd=1405024200&kikanKbn=4", "url2": "https://smilebby.com/", "内容": "スマイルベビー【4:助産院】神奈川県横浜市保土ケ谷区峰岡町１－２１－５－１０３" }, "geometry": { "type": "Point", "coordinates": [ 139.597056, 35.461059 ] } },
{ "type": "Feature", "properties": { "ID": 1441405304700, "正式名称": "助産師森内幸美（出張専門）", "機関区分": 4, "都道府県コード": 14, "市区町村コード": 112, "所在地": "神奈川県横浜市旭区笹野台", "緯度": 35.470957, "経度": 139.507505, "url": "https://www.iryou.teikyouseido.mhlw.go.jp/znk-web/juminkanja/S2430/initialize?prefCd=14&kikanCd=1405304700&kikanKbn=4", "url2": "https://sukusuku-moriuchi.blogspot.com", "内容": "助産師森内幸美（出張専門）【4:助産院】神奈川県横浜市旭区笹野台" }, "geometry": { "type": "Point", "coordinates": [ 139.507505, 35.470957 ] } },
{ "type": "Feature", "properties": { "ID": 1441405798000, "正式名称": "山本助産院", "機関区分": 4, "都道府県コード": 14, "市区町村コード": 108, "所在地": "神奈川県横浜市金沢区六浦２－１４－１２", "緯度": 35.333043, "経度": 139.612399, "url": "https://www.iryou.teikyouseido.mhlw.go.jp/znk-web/juminkanja/S2430/initialize?prefCd=14&kikanCd=1405798000&kikanKbn=4", "url2": "http://yamamotojyosanin.com/", "内容": "山本助産院【4:助産院】神奈川県横浜市金沢区六浦２－１４－１２" }, "geometry": { "type": "Point", "coordinates": [ 139.612399, 35.333043 ] } },
{ "type": "Feature", "properties": { "ID": 1441406461800, "正式名称": "みどり助産院", "機関区分": 4, "都道府県コード": 14, "市区町村コード": 113, "所在地": "神奈川県横浜市緑区三保町２２４２", "緯度": 35.516044, "経度": 139.531103, "url": "https://www.iryou.teikyouseido.mhlw.go.jp/znk-web/juminkanja/S2430/initialize?prefCd=14&kikanCd=1406461800&kikanKbn=4", "url2": "http://midori-midwifehouse.com/", "内容": "みどり助産院【4:助産院】神奈川県横浜市緑区三保町２２４２" }, "geometry": { "type": "Point", "coordinates": [ 139.531103, 35.516044 ] } },
{ "type": "Feature", "properties": { "ID": 1441407044800, "正式名称": "豊倉助産院", "機関区分": 4, "都道府県コード": 14, "市区町村コード": 116, "所在地": "神奈川県横浜市泉区緑園２－１９－２４", "緯度": 35.43906, "経度": 139.517794, "url": "https://www.iryou.teikyouseido.mhlw.go.jp/znk-web/juminkanja/S2430/initialize?prefCd=14&kikanCd=1407044800&kikanKbn=4", "url2": "http://e-osan.com/index.html", "内容": "豊倉助産院【4:助産院】神奈川県横浜市泉区緑園２－１９－２４" }, "geometry": { "type": "Point", "coordinates": [ 139.517794, 35.43906 ] } },
{ "type": "Feature", "properties": { "ID": 1441407488500, "正式名称": "バースハーモニー美しが丘助産院", "機関区分": 4, "都道府県コード": 14, "市区町村コード": 117, "所在地": "神奈川県横浜市青葉区美しが丘西３−３−７", "緯度": 35.585898, "経度": 139.536208, "url": "https://www.iryou.teikyouseido.mhlw.go.jp/znk-web/juminkanja/S2430/initialize?prefCd=14&kikanCd=1407488500&kikanKbn=4", "url2": "http://www.birth-harmony.com", "内容": "バースハーモニー美しが丘助産院【4:助産院】神奈川県横浜市青葉区美しが丘西３−３−７" }, "geometry": { "type": "Point", "coordinates": [ 139.536208, 35.585898 ] } },
{ "type": "Feature", "properties": { "ID": 1441407490700, "正式名称": "アオバ台母乳育児相談室", "機関区分": 4, "都道府県コード": 14, "市区町村コード": 117, "所在地": "神奈川県横浜市青葉区つつじが丘", "緯度": 35.540055, "経度": 139.516876, "url": "https://www.iryou.teikyouseido.mhlw.go.jp/znk-web/juminkanja/S2430/initialize?prefCd=14&kikanCd=1407490700&kikanKbn=4", "url2": "http://midwifemap.com/aobadai-oketani/mysite/", "内容": "アオバ台母乳育児相談室【4:助産院】神奈川県横浜市青葉区つつじが丘" }, "geometry": { "type": "Point", "coordinates": [ 139.516876, 35.540055 ] } },
{ "type": "Feature", "properties": { "ID": 1441407492300, "正式名称": "助産院　バースあおば", "機関区分": 4, "都道府県コード": 14, "市区町村コード": 117, "所在地": "神奈川県横浜市青葉区鴨志田町５０９－１　中谷都第３ビル１階", "緯度": 35.560286, "経度": 139.506276, "url": "https://www.iryou.teikyouseido.mhlw.go.jp/znk-web/juminkanja/S2430/initialize?prefCd=14&kikanCd=1407492300&kikanKbn=4", "url2": "http://www.birthaoba.com/", "内容": "助産院　バースあおば【4:助産院】神奈川県横浜市青葉区鴨志田町５０９－１　中谷都第３ビル１階" }, "geometry": { "type": "Point", "coordinates": [ 139.506276, 35.560286 ] } },
{ "type": "Feature", "properties": { "ID": 1441407493100, "正式名称": "助産師　岡田啓子", "機関区分": 4, "都道府県コード": 14, "市区町村コード": 117, "所在地": "神奈川県横浜市青葉区荏田北３－１－８－４０１", "緯度": 35.559876, "経度": 139.551755, "url": "https://www.iryou.teikyouseido.mhlw.go.jp/znk-web/juminkanja/S2430/initialize?prefCd=14&kikanCd=1407493100&kikanKbn=4", "url2": null, "内容": "助産師　岡田啓子【4:助産院】神奈川県横浜市青葉区荏田北３－１－８－４０１" }, "geometry": { "type": "Point", "coordinates": [ 139.551755, 35.559876 ] } },
{ "type": "Feature", "properties": { "ID": 1441408278000, "正式名称": "小峯助産院", "機関区分": 4, "都道府県コード": 14, "市区町村コード": 132, "所在地": "神奈川県川崎市幸区小倉２丁目３２番５号", "緯度": 35.540955, "経度": 139.666449, "url": "https://www.iryou.teikyouseido.mhlw.go.jp/znk-web/juminkanja/S2430/initialize?prefCd=14&kikanCd=1408278000&kikanKbn=4", "url2": null, "内容": "小峯助産院【4:助産院】神奈川県川崎市幸区小倉２丁目３２番５号" }, "geometry": { "type": "Point", "coordinates": [ 139.666449, 35.540955 ] } },
{ "type": "Feature", "properties": { "ID": 1441408279900, "正式名称": "オリーブ母子相談室", "機関区分": 4, "都道府県コード": 14, "市区町村コード": 132, "所在地": "神奈川県川崎市幸区古川町１０２", "緯度": 35.54596, "経度": 139.683759, "url": "https://www.iryou.teikyouseido.mhlw.go.jp/znk-web/juminkanja/S2430/initialize?prefCd=14&kikanCd=1408279900&kikanKbn=4", "url2": "http://www.oliveboshi.com/", "内容": "オリーブ母子相談室【4:助産院】神奈川県川崎市幸区古川町１０２" }, "geometry": { "type": "Point", "coordinates": [ 139.683759, 35.54596 ] } },
{ "type": "Feature", "properties": { "ID": 1441409284000, "正式名称": "稲田助産院", "機関区分": 4, "都道府県コード": 14, "市区町村コード": 135, "所在地": "神奈川県川崎市多摩区菅稲田堤３－４－１", "緯度": 35.633318, "経度": 139.540317, "url": "https://www.iryou.teikyouseido.mhlw.go.jp/znk-web/juminkanja/S2430/initialize?prefCd=14&kikanCd=1409284000&kikanKbn=4", "url2": "http://www.inada-j.com", "内容": "稲田助産院【4:助産院】神奈川県川崎市多摩区菅稲田堤３－４－１" }, "geometry": { "type": "Point", "coordinates": [ 139.540317, 35.633318 ] } },
{ "type": "Feature", "properties": { "ID": 1441410056800, "正式名称": "かもめ助産院", "機関区分": 4, "都道府県コード": 14, "市区町村コード": 201, "所在地": "神奈川県横須賀市ハイランド１－３８－３", "緯度": 35.222237, "経度": 139.692042, "url": "https://www.iryou.teikyouseido.mhlw.go.jp/znk-web/juminkanja/S2430/initialize?prefCd=14&kikanCd=1410056800&kikanKbn=4", "url2": "http://www.kamomejosanin.com/", "内容": "かもめ助産院【4:助産院】神奈川県横須賀市ハイランド１－３８－３" }, "geometry": { "type": "Point", "coordinates": [ 139.692042, 35.222237 ] } },
{ "type": "Feature", "properties": { "ID": 1441410703100, "正式名称": "いわはし助産院母乳育児相談室", "機関区分": 4, "都道府県コード": 14, "市区町村コード": 205, "所在地": "神奈川県藤沢市湘南台２ー１８ー９　ＴＯＭＯＳ湘南台４０１号室", "緯度": 35.39412, "経度": 139.466839, "url": "https://www.iryou.teikyouseido.mhlw.go.jp/znk-web/juminkanja/S2430/initialize?prefCd=14&kikanCd=1410703100&kikanKbn=4", "url2": "http://iwahashi-oketanishiki.com/", "内容": "いわはし助産院母乳育児相談室【4:助産院】神奈川県藤沢市湘南台２ー１８ー９　ＴＯＭＯＳ湘南台４０１号室" }, "geometry": { "type": "Point", "coordinates": [ 139.466839, 35.39412 ] } },
{ "type": "Feature", "properties": { "ID": 1441410709000, "正式名称": "井本助産院", "機関区分": 4, "都道府県コード": 14, "市区町村コード": 205, "所在地": "神奈川県藤沢市渡内", "緯度": 35.349433, "経度": 139.501252, "url": "https://www.iryou.teikyouseido.mhlw.go.jp/znk-web/juminkanja/S2430/initialize?prefCd=14&kikanCd=1410709000&kikanKbn=4", "url2": "https://imotojosanin.my.canva.site/", "内容": "井本助産院【4:助産院】神奈川県藤沢市渡内" }, "geometry": { "type": "Point", "coordinates": [ 139.501252, 35.349433 ] } },
{ "type": "Feature", "properties": { "ID": 1441410710400, "正式名称": "湘南ママの部屋", "機関区分": 4, "都道府県コード": 14, "市区町村コード": 205, "所在地": "神奈川県藤沢市鵠沼花沢町１ー１２第五相澤ビル５階", "緯度": 35.338223, "経度": 139.484924, "url": "https://www.iryou.teikyouseido.mhlw.go.jp/znk-web/juminkanja/S2430/initialize?prefCd=14&kikanCd=1410710400&kikanKbn=4", "url2": "http://mama.shonanlc.com/", "内容": "湘南ママの部屋【4:助産院】神奈川県藤沢市鵠沼花沢町１ー１２第五相澤ビル５階" }, "geometry": { "type": "Point", "coordinates": [ 139.484924, 35.338223 ] } },
{ "type": "Feature", "properties": { "ID": 1441411468200, "正式名称": "マタニティルーム倉島", "機関区分": 4, "都道府県コード": 14, "市区町村コード": 152, "所在地": "神奈川県相模原市中央区緑が丘", "緯度": 35.545169, "経度": 139.382234, "url": "https://www.iryou.teikyouseido.mhlw.go.jp/znk-web/juminkanja/S2430/initialize?prefCd=14&kikanCd=1411468200&kikanKbn=4", "url2": null, "内容": "マタニティルーム倉島【4:助産院】神奈川県相模原市中央区緑が丘" }, "geometry": { "type": "Point", "coordinates": [ 139.382234, 35.545169 ] } },
{ "type": "Feature", "properties": { "ID": 1441411469000, "正式名称": "一般社団法人　子育てサポートハウスｍａｒｉｍｏ助産院", "機関区分": 4, "都道府県コード": 14, "市区町村コード": 153, "所在地": "神奈川県相模原市南区文京", "緯度": 35.533745, "経度": 139.422903, "url": "https://www.iryou.teikyouseido.mhlw.go.jp/znk-web/juminkanja/S2430/initialize?prefCd=14&kikanCd=1411469000&kikanKbn=4", "url2": "https://www.marimo-josanin.com", "内容": "一般社団法人　子育てサポートハウスｍａｒｉｍｏ助産院【4:助産院】神奈川県相模原市南区文京" }, "geometry": { "type": "Point", "coordinates": [ 139.422903, 35.533745 ] } },
{ "type": "Feature", "properties": { "ID": 1441411481000, "正式名称": "こじま母乳育児相談室", "機関区分": 4, "都道府県コード": 14, "市区町村コード": 153, "所在地": "神奈川県相模原市南区南台３－１５－４クレイン南台２０２", "緯度": 35.516289, "経度": 139.423393, "url": "https://www.iryou.teikyouseido.mhlw.go.jp/znk-web/juminkanja/S2430/initialize?prefCd=14&kikanCd=1411481000&kikanKbn=4", "url2": null, "内容": "こじま母乳育児相談室【4:助産院】神奈川県相模原市南区南台３－１５－４クレイン南台２０２" }, "geometry": { "type": "Point", "coordinates": [ 139.423393, 35.516289 ] } },
{ "type": "Feature", "properties": { "ID": 1441415062000, "正式名称": "ママスハウスセンター北", "機関区分": 4, "都道府県コード": 14, "市区町村コード": 118, "所在地": "神奈川県横浜市都筑区中川中央", "緯度": 35.55576, "経度": 139.579289, "url": "https://www.iryou.teikyouseido.mhlw.go.jp/znk-web/juminkanja/S2430/initialize?prefCd=14&kikanCd=1415062000&kikanKbn=4", "url2": "http://www.mamas-h.com", "内容": "ママスハウスセンター北【4:助産院】神奈川県横浜市都筑区中川中央" }, "geometry": { "type": "Point", "coordinates": [ 139.579289, 35.55576 ] } },
{ "type": "Feature", "properties": { "ID": 1441415155300, "正式名称": "みやした助産院", "機関区分": 4, "都道府県コード": 14, "市区町村コード": 105, "所在地": "神奈川県横浜市南区三春台１２６", "緯度": 35.442095, "経度": 139.613972, "url": "https://www.iryou.teikyouseido.mhlw.go.jp/znk-web/juminkanja/S2430/initialize?prefCd=14&kikanCd=1415155300&kikanKbn=4", "url2": "http://www.miyashita.gr.jp", "内容": "みやした助産院【4:助産院】神奈川県横浜市南区三春台１２６" }, "geometry": { "type": "Point", "coordinates": [ 139.613972, 35.442095 ] } },
{ "type": "Feature", "properties": { "ID": 1441415157000, "正式名称": "助産師渡邉", "機関区分": 4, "都道府県コード": 14, "市区町村コード": 105, "所在地": "神奈川県横浜市南区蒔田町１３７", "緯度": 35.427262, "経度": 139.611357, "url": "https://www.iryou.teikyouseido.mhlw.go.jp/znk-web/juminkanja/S2430/initialize?prefCd=14&kikanCd=1415157000&kikanKbn=4", "url2": null, "内容": "助産師渡邉【4:助産院】神奈川県横浜市南区蒔田町１３７" }, "geometry": { "type": "Point", "coordinates": [ 139.611357, 35.427262 ] } },
{ "type": "Feature", "properties": { "ID": 1441420045700, "正式名称": "めぐみ助産院", "機関区分": 4, "都道府県コード": 14, "市区町村コード": 101, "所在地": "神奈川県横浜市鶴見区寺谷２－１５－１８", "緯度": 35.513896, "経度": 139.670358, "url": "https://www.iryou.teikyouseido.mhlw.go.jp/znk-web/juminkanja/S2430/initialize?prefCd=14&kikanCd=1420045700&kikanKbn=4", "url2": "http://www.megumi-josanin.com/", "内容": "めぐみ助産院【4:助産院】神奈川県横浜市鶴見区寺谷２－１５－１８" }, "geometry": { "type": "Point", "coordinates": [ 139.670358, 35.513896 ] } },
{ "type": "Feature", "properties": { "ID": 1441420147000, "正式名称": "助産師　石川初美", "機関区分": 4, "都道府県コード": 14, "市区町村コード": 118, "所在地": "神奈川県横浜市都筑区高山１９－３－２１１", "緯度": 35.532704, "経度": 139.562883, "url": "https://www.iryou.teikyouseido.mhlw.go.jp/znk-web/juminkanja/S2430/initialize?prefCd=14&kikanCd=1420147000&kikanKbn=4", "url2": "http://jyosanshiishikawa.blog119.fc2.com/", "内容": "助産師　石川初美【4:助産院】神奈川県横浜市都筑区高山１９－３－２１１" }, "geometry": { "type": "Point", "coordinates": [ 139.562883, 35.532704 ] } },
{ "type": "Feature", "properties": { "ID": 1441420543200, "正式名称": "みやうち助産院", "機関区分": 4, "都道府県コード": 14, "市区町村コード": 117, "所在地": "神奈川県横浜市青葉区荏田西５－３－２１", "緯度": 35.544783, "経度": 139.549717, "url": "https://www.iryou.teikyouseido.mhlw.go.jp/znk-web/juminkanja/S2430/initialize?prefCd=14&kikanCd=1420543200&kikanKbn=4", "url2": "https://tsuku2.jp/miyauchi", "内容": "みやうち助産院【4:助産院】神奈川県横浜市青葉区荏田西５－３－２１" }, "geometry": { "type": "Point", "coordinates": [ 139.549717, 35.544783 ] } },
{ "type": "Feature", "properties": { "ID": 1441420606400, "正式名称": "エンジェルバース　山方助産院", "機関区分": 4, "都道府県コード": 14, "市区町村コード": 114, "所在地": "神奈川県横浜市瀬谷区本郷１－６－２", "緯度": 35.47407, "経度": 139.476063, "url": "https://www.iryou.teikyouseido.mhlw.go.jp/znk-web/juminkanja/S2430/initialize?prefCd=14&kikanCd=1420606400&kikanKbn=4", "url2": "http://angelbirth.info", "内容": "エンジェルバース　山方助産院【4:助産院】神奈川県横浜市瀬谷区本郷１－６－２" }, "geometry": { "type": "Point", "coordinates": [ 139.476063, 35.47407 ] } },
{ "type": "Feature", "properties": { "ID": 1441420934900, "正式名称": "助産師　宮﨑悦子", "機関区分": 4, "都道府県コード": 14, "市区町村コード": 109, "所在地": "神奈川県横浜市港北区大倉山４－３４－３－１０１", "緯度": 35.521986, "経度": 139.622259, "url": "https://www.iryou.teikyouseido.mhlw.go.jp/znk-web/juminkanja/S2430/initialize?prefCd=14&kikanCd=1420934900&kikanKbn=4", "url2": null, "内容": "助産師　宮﨑悦子【4:助産院】神奈川県横浜市港北区大倉山４－３４－３－１０１" }, "geometry": { "type": "Point", "coordinates": [ 139.622259, 35.521986 ] } },
{ "type": "Feature", "properties": { "ID": 1441420935700, "正式名称": "上條助産院母乳育児相談室", "機関区分": 4, "都道府県コード": 14, "市区町村コード": 109, "所在地": "神奈川県横浜市港北区大倉山２－５－８－２０６", "緯度": 35.522234, "経度": 139.628028, "url": "https://www.iryou.teikyouseido.mhlw.go.jp/znk-web/juminkanja/S2430/initialize?prefCd=14&kikanCd=1420935700&kikanKbn=4", "url2": "https://kamijyo-oketani.jimdofree.com/", "内容": "上條助産院母乳育児相談室【4:助産院】神奈川県横浜市港北区大倉山２－５－８－２０６" }, "geometry": { "type": "Point", "coordinates": [ 139.628028, 35.522234 ] } },
{ "type": "Feature", "properties": { "ID": 1441420938100, "正式名称": "助産師　佐藤瑠美子", "機関区分": 4, "都道府県コード": 14, "市区町村コード": 118, "所在地": "神奈川県横浜市都筑区東山田", "緯度": 35.562493, "経度": 139.602037, "url": "https://www.iryou.teikyouseido.mhlw.go.jp/znk-web/juminkanja/S2430/initialize?prefCd=14&kikanCd=1420938100&kikanKbn=4", "url2": null, "内容": "助産師　佐藤瑠美子【4:助産院】神奈川県横浜市都筑区東山田" }, "geometry": { "type": "Point", "coordinates": [ 139.602037, 35.562493 ] } },
{ "type": "Feature", "properties": { "ID": 1441421345100, "正式名称": "にこにこ助産院", "機関区分": 4, "都道府県コード": 14, "市区町村コード": 137, "所在地": "神奈川県川崎市麻生区王禅寺西３−２１−３−１０１", "緯度": 35.596868, "経度": 139.515804, "url": "https://www.iryou.teikyouseido.mhlw.go.jp/znk-web/juminkanja/S2430/initialize?prefCd=14&kikanCd=1421345100&kikanKbn=4", "url2": "http://2525osan.net", "内容": "にこにこ助産院【4:助産院】神奈川県川崎市麻生区王禅寺西３−２１−３−１０１" }, "geometry": { "type": "Point", "coordinates": [ 139.515804, 35.596868 ] } },
{ "type": "Feature", "properties": { "ID": 1441421523300, "正式名称": "公益社団法人神奈川県助産師会立　とわ助産院", "機関区分": 4, "都道府県コード": 14, "市区町村コード": 101, "所在地": "神奈川県横浜市鶴見区鶴見中央１－１０－２０", "緯度": 35.509189, "経度": 139.679153, "url": "https://www.iryou.teikyouseido.mhlw.go.jp/znk-web/juminkanja/S2430/initialize?prefCd=14&kikanCd=1421523300&kikanKbn=4", "url2": "http://www.towa-jyosanin.com/", "内容": "公益社団法人神奈川県助産師会立　とわ助産院【4:助産院】神奈川県横浜市鶴見区鶴見中央１－１０－２０" }, "geometry": { "type": "Point", "coordinates": [ 139.679153, 35.509189 ] } },
{ "type": "Feature", "properties": { "ID": 1441421621300, "正式名称": "母乳相談　まるころ", "機関区分": 4, "都道府県コード": 14, "市区町村コード": 137, "所在地": "神奈川県川崎市麻生区高石　１－１６－１－２", "緯度": 35.611314, "経度": 139.514075, "url": "https://www.iryou.teikyouseido.mhlw.go.jp/znk-web/juminkanja/S2430/initialize?prefCd=14&kikanCd=1421621300&kikanKbn=4", "url2": "marukoro.com", "内容": "母乳相談　まるころ【4:助産院】神奈川県川崎市麻生区高石　１－１６－１－２" }, "geometry": { "type": "Point", "coordinates": [ 139.514075, 35.611314 ] } },
{ "type": "Feature", "properties": { "ID": 1441421967000, "正式名称": "湘南つむぎ助産院", "機関区分": 4, "都道府県コード": 14, "市区町村コード": 207, "所在地": "神奈川県茅ヶ崎市東海岸南", "緯度": 35.320243, "経度": 139.416841, "url": "https://www.iryou.teikyouseido.mhlw.go.jp/znk-web/juminkanja/S2430/initialize?prefCd=14&kikanCd=1421967000&kikanKbn=4", "url2": "https://tsumugi-mw.amebamwnd.com", "内容": "湘南つむぎ助産院【4:助産院】神奈川県茅ヶ崎市東海岸南" }, "geometry": { "type": "Point", "coordinates": [ 139.416841, 35.320243 ] } },
{ "type": "Feature", "properties": { "ID": 1441422153500, "正式名称": "助産所　子育て応援室つづき", "機関区分": 4, "都道府県コード": 14, "市区町村コード": 118, "所在地": "神奈川県横浜市都筑区荏田南４ー１９ー９", "緯度": 35.550918, "経度": 139.557327, "url": "https://www.iryou.teikyouseido.mhlw.go.jp/znk-web/juminkanja/S2430/initialize?prefCd=14&kikanCd=1422153500&kikanKbn=4", "url2": "http://wwwkosodateoen.amebaownd.com/", "内容": "助産所　子育て応援室つづき【4:助産院】神奈川県横浜市都筑区荏田南４ー１９ー９" }, "geometry": { "type": "Point", "coordinates": [ 139.557327, 35.550918 ] } },
{ "type": "Feature", "properties": { "ID": 1441422581600, "正式名称": "井上母乳育児相談室", "機関区分": 4, "都道府県コード": 14, "市区町村コード": 116, "所在地": "神奈川県横浜市泉区西が岡１－２８－６　パルハイム西が岡１－１０２", "緯度": 35.423715, "経度": 139.510054, "url": "https://www.iryou.teikyouseido.mhlw.go.jp/znk-web/juminkanja/S2430/initialize?prefCd=14&kikanCd=1422581600&kikanKbn=4", "url2": null, "内容": "井上母乳育児相談室【4:助産院】神奈川県横浜市泉区西が岡１－２８－６　パルハイム西が岡１－１０２" }, "geometry": { "type": "Point", "coordinates": [ 139.510054, 35.423715 ] } },
{ "type": "Feature", "properties": { "ID": 1441422639100, "正式名称": "のびのび母乳育児相談室", "機関区分": 4, "都道府県コード": 14, "市区町村コード": 215, "所在地": "神奈川県海老名市東柏ケ谷", "緯度": 35.470969, "経度": 139.428456, "url": "https://www.iryou.teikyouseido.mhlw.go.jp/znk-web/juminkanja/S2430/initialize?prefCd=14&kikanCd=1422639100&kikanKbn=4", "url2": null, "内容": "のびのび母乳育児相談室【4:助産院】神奈川県海老名市東柏ケ谷" }, "geometry": { "type": "Point", "coordinates": [ 139.428456, 35.470969 ] } },
{ "type": "Feature", "properties": { "ID": 1441422813000, "正式名称": "たんぽぽ助産院（母乳と育児の相談室）", "機関区分": 4, "都道府県コード": 14, "市区町村コード": 203, "所在地": "神奈川県平塚市河内", "緯度": 35.342414, "経度": 139.310466, "url": "https://www.iryou.teikyouseido.mhlw.go.jp/znk-web/juminkanja/S2430/initialize?prefCd=14&kikanCd=1422813000&kikanKbn=4", "url2": "http://tanpopo-baby.com/", "内容": "たんぽぽ助産院（母乳と育児の相談室）【4:助産院】神奈川県平塚市河内" }, "geometry": { "type": "Point", "coordinates": [ 139.310466, 35.342414 ] } },
{ "type": "Feature", "properties": { "ID": 1441422963300, "正式名称": "みぎわ助産院みぎわ母乳育児相談室", "機関区分": 4, "都道府県コード": 14, "市区町村コード": 134, "所在地": "神奈川県川崎市高津区溝口２－１３－２８－３０１", "緯度": 35.601789, "経度": 139.61319, "url": "https://www.iryou.teikyouseido.mhlw.go.jp/znk-web/juminkanja/S2430/initialize?prefCd=14&kikanCd=1422963300&kikanKbn=4", "url2": "http://www.migiwa-oketani.com", "内容": "みぎわ助産院みぎわ母乳育児相談室【4:助産院】神奈川県川崎市高津区溝口２－１３－２８－３０１" }, "geometry": { "type": "Point", "coordinates": [ 139.61319, 35.601789 ] } },
{ "type": "Feature", "properties": { "ID": 1441423090900, "正式名称": "ＳＵＮＦＬＯＷＥＲ助産院", "機関区分": 4, "都道府県コード": 14, "市区町村コード": 153, "所在地": "神奈川県相模原市南区相模台", "緯度": 35.51302, "経度": 139.412777, "url": "https://www.iryou.teikyouseido.mhlw.go.jp/znk-web/juminkanja/S2430/initialize?prefCd=14&kikanCd=1423090900&kikanKbn=4", "url2": "sunflower-josanin.com", "内容": "ＳＵＮＦＬＯＷＥＲ助産院【4:助産院】神奈川県相模原市南区相模台" }, "geometry": { "type": "Point", "coordinates": [ 139.412777, 35.51302 ] } },
{ "type": "Feature", "properties": { "ID": 1441423097600, "正式名称": "助産師　内山　美紀", "機関区分": 4, "都道府県コード": 14, "市区町村コード": 118, "所在地": "神奈川県横浜市都筑区茅ケ崎東１－１－１－１０４", "緯度": 35.544186, "経度": 139.583145, "url": "https://www.iryou.teikyouseido.mhlw.go.jp/znk-web/juminkanja/S2430/initialize?prefCd=14&kikanCd=1423097600&kikanKbn=4", "url2": null, "内容": "助産師　内山　美紀【4:助産院】神奈川県横浜市都筑区茅ケ崎東１－１－１－１０４" }, "geometry": { "type": "Point", "coordinates": [ 139.583145, 35.544186 ] } },
{ "type": "Feature", "properties": { "ID": 1441423307000, "正式名称": "くわのき助産院", "機関区分": 4, "都道府県コード": 14, "市区町村コード": 151, "所在地": "神奈川県相模原市緑区下九沢１８５２－１３", "緯度": 35.580789, "経度": 139.330025, "url": "https://www.iryou.teikyouseido.mhlw.go.jp/znk-web/juminkanja/S2430/initialize?prefCd=14&kikanCd=1423307000&kikanKbn=4", "url2": "http://www.kuwanoki-josanin.com/", "内容": "くわのき助産院【4:助産院】神奈川県相模原市緑区下九沢１８５２－１３" }, "geometry": { "type": "Point", "coordinates": [ 139.330025, 35.580789 ] } },
{ "type": "Feature", "properties": { "ID": 1441423510200, "正式名称": "中本母乳育児相談室", "機関区分": 4, "都道府県コード": 14, "市区町村コード": 136, "所在地": "神奈川県川崎市宮前区菅生５－７－３", "緯度": 35.593969, "経度": 139.555984, "url": "https://www.iryou.teikyouseido.mhlw.go.jp/znk-web/juminkanja/S2430/initialize?prefCd=14&kikanCd=1423510200&kikanKbn=4", "url2": "http://oketani-kensankai.jp/", "内容": "中本母乳育児相談室【4:助産院】神奈川県川崎市宮前区菅生５－７－３" }, "geometry": { "type": "Point", "coordinates": [ 139.555984, 35.593969 ] } },
{ "type": "Feature", "properties": { "ID": 1441424172200, "正式名称": "助産師　髙村　順子", "機関区分": 4, "都道府県コード": 14, "市区町村コード": 111, "所在地": "神奈川県横浜市港南区上大岡西", "緯度": 35.40576, "経度": 139.595772, "url": "https://www.iryou.teikyouseido.mhlw.go.jp/znk-web/juminkanja/S2430/initialize?prefCd=14&kikanCd=1424172200&kikanKbn=4", "url2": "http://www.midwifemap.com/takamura/mysite/", "内容": "助産師　髙村　順子【4:助産院】神奈川県横浜市港南区上大岡西" }, "geometry": { "type": "Point", "coordinates": [ 139.595772, 35.40576 ] } },
{ "type": "Feature", "properties": { "ID": 1441424204400, "正式名称": "助産師　市原　こずえ", "機関区分": 4, "都道府県コード": 14, "市区町村コード": 108, "所在地": "神奈川県横浜市金沢区釜利谷東８ー１４－３５", "緯度": 35.340744, "経度": 139.601667, "url": "https://www.iryou.teikyouseido.mhlw.go.jp/znk-web/juminkanja/S2430/initialize?prefCd=14&kikanCd=1424204400&kikanKbn=4", "url2": "https://popotanwatage.wixsite.com/-site", "内容": "助産師　市原　こずえ【4:助産院】神奈川県横浜市金沢区釜利谷東８ー１４－３５" }, "geometry": { "type": "Point", "coordinates": [ 139.601667, 35.340744 ] } },
{ "type": "Feature", "properties": { "ID": 1441424219200, "正式名称": "母乳育児相談室ｈａｒｍｏｎｉａ", "機関区分": 4, "都道府県コード": 14, "市区町村コード": 151, "所在地": "神奈川県相模原市緑区橋本６－４－７　パレ・フォンティーノ２０２", "緯度": 35.59701, "経度": 139.345698, "url": "https://www.iryou.teikyouseido.mhlw.go.jp/znk-web/juminkanja/S2430/initialize?prefCd=14&kikanCd=1424219200&kikanKbn=4", "url2": "https://harmoniaetamor.jimdofree.com/", "内容": "母乳育児相談室ｈａｒｍｏｎｉａ【4:助産院】神奈川県相模原市緑区橋本６－４－７　パレ・フォンティーノ２０２" }, "geometry": { "type": "Point", "coordinates": [ 139.345698, 35.59701 ] } },
{ "type": "Feature", "properties": { "ID": 1441424268000, "正式名称": "助産師　沖山美雪", "機関区分": 4, "都道府県コード": 14, "市区町村コード": 109, "所在地": "神奈川県横浜市港北区小机町", "緯度": 35.51049, "経度": 139.597542, "url": "https://www.iryou.teikyouseido.mhlw.go.jp/znk-web/juminkanja/S2430/initialize?prefCd=14&kikanCd=1424268000&kikanKbn=4", "url2": null, "内容": "助産師　沖山美雪【4:助産院】神奈川県横浜市港北区小机町" }, "geometry": { "type": "Point", "coordinates": [ 139.597542, 35.51049 ] } },
{ "type": "Feature", "properties": { "ID": 1441424484500, "正式名称": "桶谷式やまもと母乳育児相談室", "機関区分": 4, "都道府県コード": 14, "市区町村コード": 151, "所在地": "神奈川県相模原市緑区相原６－１－２２", "緯度": 35.602998, "経度": 139.318625, "url": "https://www.iryou.teikyouseido.mhlw.go.jp/znk-web/juminkanja/S2430/initialize?prefCd=14&kikanCd=1424484500&kikanKbn=4", "url2": "http://yamamotomccr.biz/", "内容": "桶谷式やまもと母乳育児相談室【4:助産院】神奈川県相模原市緑区相原６－１－２２" }, "geometry": { "type": "Point", "coordinates": [ 139.318625, 35.602998 ] } },
{ "type": "Feature", "properties": { "ID": 1441424497700, "正式名称": "助産師　安藤　彩乃", "機関区分": 4, "都道府県コード": 14, "市区町村コード": 106, "所在地": "神奈川県横浜市保土ケ谷区仏向町", "緯度": 35.457984, "経度": 139.577527, "url": "https://www.iryou.teikyouseido.mhlw.go.jp/znk-web/juminkanja/S2430/initialize?prefCd=14&kikanCd=1424497700&kikanKbn=4", "url2": null, "内容": "助産師　安藤　彩乃【4:助産院】神奈川県横浜市保土ケ谷区仏向町" }, "geometry": { "type": "Point", "coordinates": [ 139.577527, 35.457984 ] } },
{ "type": "Feature", "properties": { "ID": 1441424527200, "正式名称": "母乳育児サロン　ラ　ルーナ", "機関区分": 4, "都道府県コード": 14, "市区町村コード": 104, "所在地": "神奈川県横浜市中区相生町１丁目１４", "緯度": 35.445934, "経度": 139.639934, "url": "https://www.iryou.teikyouseido.mhlw.go.jp/znk-web/juminkanja/S2430/initialize?prefCd=14&kikanCd=1424527200&kikanKbn=4", "url2": "https://www.midwifemap.com/mysite/matsuyoshi/", "内容": "母乳育児サロン　ラ　ルーナ【4:助産院】神奈川県横浜市中区相生町１丁目１４" }, "geometry": { "type": "Point", "coordinates": [ 139.639934, 35.445934 ] } },
{ "type": "Feature", "properties": { "ID": 1441424667800, "正式名称": "谷口母乳育児相談室", "機関区分": 4, "都道府県コード": 14, "市区町村コード": 105, "所在地": "神奈川県横浜市南区宿町４－７２－２－２０３", "緯度": 35.429554, "経度": 139.607818, "url": "https://www.iryou.teikyouseido.mhlw.go.jp/znk-web/juminkanja/S2430/initialize?prefCd=14&kikanCd=1424667800&kikanKbn=4", "url2": null, "内容": "谷口母乳育児相談室【4:助産院】神奈川県横浜市南区宿町４－７２－２－２０３" }, "geometry": { "type": "Point", "coordinates": [ 139.607818, 35.429554 ] } },
{ "type": "Feature", "properties": { "ID": 1441424686400, "正式名称": "訪問出張専門　たまより助産院", "機関区分": 4, "都道府県コード": 14, "市区町村コード": 108, "所在地": "神奈川県横浜市金沢区東朝比奈", "緯度": 35.325802, "経度": 139.601345, "url": "https://www.iryou.teikyouseido.mhlw.go.jp/znk-web/juminkanja/S2430/initialize?prefCd=14&kikanCd=1424686400&kikanKbn=4", "url2": "https://tamayory.com/", "内容": "訪問出張専門　たまより助産院【4:助産院】神奈川県横浜市金沢区東朝比奈" }, "geometry": { "type": "Point", "coordinates": [ 139.601345, 35.325802 ] } },
{ "type": "Feature", "properties": { "ID": 1441424698800, "正式名称": "ほのか母乳育児相談室・よなみね助産院", "機関区分": 4, "都道府県コード": 14, "市区町村コード": 152, "所在地": "神奈川県相模原市中央区相生", "緯度": 35.56385, "経度": 139.385946, "url": "https://www.iryou.teikyouseido.mhlw.go.jp/znk-web/juminkanja/S2430/initialize?prefCd=14&kikanCd=1424698800&kikanKbn=4", "url2": "http://www.axera.co.jp/yonamine", "内容": "ほのか母乳育児相談室・よなみね助産院【4:助産院】神奈川県相模原市中央区相生" }, "geometry": { "type": "Point", "coordinates": [ 139.385946, 35.56385 ] } },
{ "type": "Feature", "properties": { "ID": 1441424832800, "正式名称": "助産院月うさぎ", "機関区分": 4, "都道府県コード": 14, "市区町村コード": 109, "所在地": "神奈川県横浜市港北区綱島台", "緯度": 35.539807, "経度": 139.630274, "url": "https://www.iryou.teikyouseido.mhlw.go.jp/znk-web/juminkanja/S2430/initialize?prefCd=14&kikanCd=1424832800&kikanKbn=4", "url2": "http://www.j-moon rabbit.jp", "内容": "助産院月うさぎ【4:助産院】神奈川県横浜市港北区綱島台" }, "geometry": { "type": "Point", "coordinates": [ 139.630274, 35.539807 ] } },
{ "type": "Feature", "properties": { "ID": 1441424876000, "正式名称": "栗原母乳育児相談室", "機関区分": 4, "都道府県コード": 14, "市区町村コード": 207, "所在地": "神奈川県茅ヶ崎市菱沼海岸", "緯度": 35.322182, "経度": 139.420663, "url": "https://www.iryou.teikyouseido.mhlw.go.jp/znk-web/juminkanja/S2430/initialize?prefCd=14&kikanCd=1424876000&kikanKbn=4", "url2": "http://www.midwifemap.com/kuribo/mysite/about/", "内容": "栗原母乳育児相談室【4:助産院】神奈川県茅ヶ崎市菱沼海岸" }, "geometry": { "type": "Point", "coordinates": [ 139.420663, 35.322182 ] } },
{ "type": "Feature", "properties": { "ID": 1441424970700, "正式名称": "心音助産院", "機関区分": 4, "都道府県コード": 14, "市区町村コード": 118, "所在地": "神奈川県横浜市都筑区川和町１４４１ー１２", "緯度": 35.528984, "経度": 139.54725, "url": "https://www.iryou.teikyouseido.mhlw.go.jp/znk-web/juminkanja/S2430/initialize?prefCd=14&kikanCd=1424970700&kikanKbn=4", "url2": "http://www.kokone-smile.com", "内容": "心音助産院【4:助産院】神奈川県横浜市都筑区川和町１４４１ー１２" }, "geometry": { "type": "Point", "coordinates": [ 139.54725, 35.528984 ] } },
{ "type": "Feature", "properties": { "ID": 1441425084500, "正式名称": "産前産後のよりどころ", "機関区分": 4, "都道府県コード": 14, "市区町村コード": 102, "所在地": "神奈川県横浜市神奈川区西神奈川１丁目９－２グレース竹和壱番館７０３", "緯度": 35.478984, "経度": 139.630872, "url": "https://www.iryou.teikyouseido.mhlw.go.jp/znk-web/juminkanja/S2430/initialize?prefCd=14&kikanCd=1425084500&kikanKbn=4", "url2": "https://midwifemegumi.com/", "内容": "産前産後のよりどころ【4:助産院】神奈川県横浜市神奈川区西神奈川１丁目９－２グレース竹和壱番館７０３" }, "geometry": { "type": "Point", "coordinates": [ 139.630872, 35.478984 ] } },
{ "type": "Feature", "properties": { "ID": 1441425085300, "正式名称": "助産師　やつ　かおり", "機関区分": 4, "都道府県コード": 14, "市区町村コード": 109, "所在地": "神奈川県横浜市港北区仲手原", "緯度": 35.495737, "経度": 139.630874, "url": "https://www.iryou.teikyouseido.mhlw.go.jp/znk-web/juminkanja/S2430/initialize?prefCd=14&kikanCd=1425085300&kikanKbn=4", "url2": null, "内容": "助産師　やつ　かおり【4:助産院】神奈川県横浜市港北区仲手原" }, "geometry": { "type": "Point", "coordinates": [ 139.630874, 35.495737 ] } },
{ "type": "Feature", "properties": { "ID": 1441425157400, "正式名称": "伊藤助産所（出張専門）", "機関区分": 4, "都道府県コード": 14, "市区町村コード": 136, "所在地": "神奈川県川崎市宮前区東有馬１－１０－４８", "緯度": 35.574991, "経度": 139.586904, "url": "https://www.iryou.teikyouseido.mhlw.go.jp/znk-web/juminkanja/S2430/initialize?prefCd=14&kikanCd=1425157400&kikanKbn=4", "url2": null, "内容": "伊藤助産所（出張専門）【4:助産院】神奈川県川崎市宮前区東有馬１－１０－４８" }, "geometry": { "type": "Point", "coordinates": [ 139.586904, 35.574991 ] } },
{ "type": "Feature", "properties": { "ID": 1441425275900, "正式名称": "助産処　ふるおや", "機関区分": 4, "都道府県コード": 14, "市区町村コード": 133, "所在地": "神奈川県川崎市中原区木月２ー２５ー１０", "緯度": 35.561952, "経度": 139.656124, "url": "https://www.iryou.teikyouseido.mhlw.go.jp/znk-web/juminkanja/S2430/initialize?prefCd=14&kikanCd=1425275900&kikanKbn=4", "url2": null, "内容": "助産処　ふるおや【4:助産院】神奈川県川崎市中原区木月２ー２５ー１０" }, "geometry": { "type": "Point", "coordinates": [ 139.656124, 35.561952 ] } },
{ "type": "Feature", "properties": { "ID": 1441425378000, "正式名称": "助産師　梅野", "機関区分": 4, "都道府県コード": 14, "市区町村コード": 115, "所在地": "神奈川県横浜市栄区小菅ケ谷", "緯度": 35.366907, "経度": 139.548445, "url": "https://www.iryou.teikyouseido.mhlw.go.jp/znk-web/juminkanja/S2430/initialize?prefCd=14&kikanCd=1425378000&kikanKbn=4", "url2": "https://plum-mh.jimdofree.com", "内容": "助産師　梅野【4:助産院】神奈川県横浜市栄区小菅ケ谷" }, "geometry": { "type": "Point", "coordinates": [ 139.548445, 35.366907 ] } },
{ "type": "Feature", "properties": { "ID": 1441425381000, "正式名称": "こすぎ助産院　桶谷式母乳育児相談室", "機関区分": 4, "都道府県コード": 14, "市区町村コード": 133, "所在地": "神奈川県川崎市中原区新丸子東２丁目９２５　東横小杉ビル５０１", "緯度": 35.576876, "経度": 139.661987, "url": "https://www.iryou.teikyouseido.mhlw.go.jp/znk-web/juminkanja/S2430/initialize?prefCd=14&kikanCd=1425381000&kikanKbn=4", "url2": "https://kosugi-oketani.crayonsite.com", "内容": "こすぎ助産院　桶谷式母乳育児相談室【4:助産院】神奈川県川崎市中原区新丸子東２丁目９２５　東横小杉ビル５０１" }, "geometry": { "type": "Point", "coordinates": [ 139.661987, 35.576876 ] } },
{ "type": "Feature", "properties": { "ID": 1441425384400, "正式名称": "くれよん母乳育児相談室（出張専門）", "機関区分": 4, "都道府県コード": 14, "市区町村コード": 134, "所在地": "神奈川県川崎市高津区末長", "緯度": 35.589937, "経度": 139.620606, "url": "https://www.iryou.teikyouseido.mhlw.go.jp/znk-web/juminkanja/S2430/initialize?prefCd=14&kikanCd=1425384400&kikanKbn=4", "url2": null, "内容": "くれよん母乳育児相談室（出張専門）【4:助産院】神奈川県川崎市高津区末長" }, "geometry": { "type": "Point", "coordinates": [ 139.620606, 35.589937 ] } },
{ "type": "Feature", "properties": { "ID": 1441425386000, "正式名称": "助産院ＬｕｎａＬｕｎａ", "機関区分": 4, "都道府県コード": 14, "市区町村コード": 203, "所在地": "神奈川県平塚市長持４４８ー１２", "緯度": 35.348869, "経度": 139.321106, "url": "https://www.iryou.teikyouseido.mhlw.go.jp/znk-web/juminkanja/S2430/initialize?prefCd=14&kikanCd=1425386000&kikanKbn=4", "url2": "http://lunaluna-josanin.com/", "内容": "助産院ＬｕｎａＬｕｎａ【4:助産院】神奈川県平塚市長持４４８ー１２" }, "geometry": { "type": "Point", "coordinates": [ 139.321106, 35.348869 ] } },
{ "type": "Feature", "properties": { "ID": 1441425387900, "正式名称": "助産院Ｒｉｎ", "機関区分": 4, "都道府県コード": 14, "市区町村コード": 201, "所在地": "神奈川県横須賀市衣笠町", "緯度": 35.242759, "経度": 139.662719, "url": "https://www.iryou.teikyouseido.mhlw.go.jp/znk-web/juminkanja/S2430/initialize?prefCd=14&kikanCd=1425387900&kikanKbn=4", "url2": null, "内容": "助産院Ｒｉｎ【4:助産院】神奈川県横須賀市衣笠町" }, "geometry": { "type": "Point", "coordinates": [ 139.662719, 35.242759 ] } },
{ "type": "Feature", "properties": { "ID": 1441425451400, "正式名称": "助産師　木野　美穂", "機関区分": 4, "都道府県コード": 14, "市区町村コード": 112, "所在地": "神奈川県横浜市旭区上白根", "緯度": 35.494213, "経度": 139.541209, "url": "https://www.iryou.teikyouseido.mhlw.go.jp/znk-web/juminkanja/S2430/initialize?prefCd=14&kikanCd=1425451400&kikanKbn=4", "url2": null, "内容": "助産師　木野　美穂【4:助産院】神奈川県横浜市旭区上白根" }, "geometry": { "type": "Point", "coordinates": [ 139.541209, 35.494213 ] } },
{ "type": "Feature", "properties": { "ID": 1441425751300, "正式名称": "助産師　前田　いずみ", "機関区分": 4, "都道府県コード": 14, "市区町村コード": 113, "所在地": "神奈川県横浜市緑区三保町１７２８－７", "緯度": 35.518805, "経度": 139.525665, "url": "https://www.iryou.teikyouseido.mhlw.go.jp/znk-web/juminkanja/S2430/initialize?prefCd=14&kikanCd=1425751300&kikanKbn=4", "url2": null, "内容": "助産師　前田　いずみ【4:助産院】神奈川県横浜市緑区三保町１７２８－７" }, "geometry": { "type": "Point", "coordinates": [ 139.525665, 35.518805 ] } },
{ "type": "Feature", "properties": { "ID": 1441425815300, "正式名称": "はせがわ母子相談室", "機関区分": 4, "都道府県コード": 14, "市区町村コード": 131, "所在地": "神奈川県川崎市川崎区京町", "緯度": 35.516236, "経度": 139.693111, "url": "https://www.iryou.teikyouseido.mhlw.go.jp/znk-web/juminkanja/S2430/initialize?prefCd=14&kikanCd=1425815300&kikanKbn=4", "url2": null, "内容": "はせがわ母子相談室【4:助産院】神奈川県川崎市川崎区京町" }, "geometry": { "type": "Point", "coordinates": [ 139.693111, 35.516236 ] } },
{ "type": "Feature", "properties": { "ID": 1441425821800, "正式名称": "産前産後母子ケア　ルピナス", "機関区分": 4, "都道府県コード": 14, "市区町村コード": 207, "所在地": "神奈川県茅ヶ崎市浜竹１−１２−１８ー２", "緯度": 35.335384, "経度": 139.435258, "url": "https://www.iryou.teikyouseido.mhlw.go.jp/znk-web/juminkanja/S2430/initialize?prefCd=14&kikanCd=1425821800&kikanKbn=4", "url2": "https://happy-lupinus.com", "内容": "産前産後母子ケア　ルピナス【4:助産院】神奈川県茅ヶ崎市浜竹１−１２−１８ー２" }, "geometry": { "type": "Point", "coordinates": [ 139.435258, 35.335384 ] } },
{ "type": "Feature", "properties": { "ID": 1441426065400, "正式名称": "下村　義子　助産師", "機関区分": 4, "都道府県コード": 14, "市区町村コード": 117, "所在地": "神奈川県横浜市青葉区すすき野３－１－１７", "緯度": 35.578026, "経度": 139.527529, "url": "https://www.iryou.teikyouseido.mhlw.go.jp/znk-web/juminkanja/S2430/initialize?prefCd=14&kikanCd=1426065400&kikanKbn=4", "url2": "https://www.yoshi-jyosan.site", "内容": "下村　義子　助産師【4:助産院】神奈川県横浜市青葉区すすき野３－１－１７" }, "geometry": { "type": "Point", "coordinates": [ 139.527529, 35.578026 ] } },
{ "type": "Feature", "properties": { "ID": 1441426073500, "正式名称": "出張専門助産院　千田陽子", "機関区分": 4, "都道府県コード": 14, "市区町村コード": 153, "所在地": "神奈川県相模原市南区大野台", "緯度": 35.548241, "経度": 139.403054, "url": "https://www.iryou.teikyouseido.mhlw.go.jp/znk-web/juminkanja/S2430/initialize?prefCd=14&kikanCd=1426073500&kikanKbn=4", "url2": null, "内容": "出張専門助産院　千田陽子【4:助産院】神奈川県相模原市南区大野台" }, "geometry": { "type": "Point", "coordinates": [ 139.403054, 35.548241 ] } },
{ "type": "Feature", "properties": { "ID": 1441426088300, "正式名称": "Ｍａｍａｎ　Ｌｅ　ｆｕｔｕｒ", "機関区分": 4, "都道府県コード": 14, "市区町村コード": 133, "所在地": "神奈川県川崎市中原区市ノ坪５６番地　サンパレス２Ｄ", "緯度": 35.572437, "経度": 139.657787, "url": "https://www.iryou.teikyouseido.mhlw.go.jp/znk-web/juminkanja/S2430/initialize?prefCd=14&kikanCd=1426088300&kikanKbn=4", "url2": "sangocare.sakura.ne.jp/mamanlefutur/", "内容": "Ｍａｍａｎ　Ｌｅ　ｆｕｔｕｒ【4:助産院】神奈川県川崎市中原区市ノ坪５６番地　サンパレス２Ｄ" }, "geometry": { "type": "Point", "coordinates": [ 139.657787, 35.572437 ] } },
{ "type": "Feature", "properties": { "ID": 1441426301700, "正式名称": "桶谷式まりも母乳育児相談室（出張専門）", "機関区分": 4, "都道府県コード": 14, "市区町村コード": 134, "所在地": "神奈川県川崎市高津区坂戸１丁目１７ー３－７１９", "緯度": 35.597251, "経度": 139.622544, "url": "https://www.iryou.teikyouseido.mhlw.go.jp/znk-web/juminkanja/S2430/initialize?prefCd=14&kikanCd=1426301700&kikanKbn=4", "url2": null, "内容": "桶谷式まりも母乳育児相談室（出張専門）【4:助産院】神奈川県川崎市高津区坂戸１丁目１７ー３－７１９" }, "geometry": { "type": "Point", "coordinates": [ 139.622544, 35.597251 ] } },
{ "type": "Feature", "properties": { "ID": 1441426376900, "正式名称": "助産院ひだまりははこ　助産師　石坂晶", "機関区分": 4, "都道府県コード": 14, "市区町村コード": 109, "所在地": "神奈川県横浜市港北区綱島西２丁目２１－６アビターレ綱島１０４号室", "緯度": 35.551031, "経度": 139.635351, "url": "https://www.iryou.teikyouseido.mhlw.go.jp/znk-web/juminkanja/S2430/initialize?prefCd=14&kikanCd=1426376900&kikanKbn=4", "url2": "https://hidamarihahaco.jp/", "内容": "助産院ひだまりははこ　助産師　石坂晶【4:助産院】神奈川県横浜市港北区綱島西２丁目２１－６アビターレ綱島１０４号室" }, "geometry": { "type": "Point", "coordinates": [ 139.635351, 35.551031 ] } },
{ "type": "Feature", "properties": { "ID": 1441426723300, "正式名称": "助産師　宮本まり", "機関区分": 4, "都道府県コード": 14, "市区町村コード": 106, "所在地": "神奈川県横浜市保土ケ谷区仏向町", "緯度": 35.457984, "経度": 139.577527, "url": "https://www.iryou.teikyouseido.mhlw.go.jp/znk-web/juminkanja/S2430/initialize?prefCd=14&kikanCd=1426723300&kikanKbn=4", "url2": "https://www.hug-mum-baby.com/", "内容": "助産師　宮本まり【4:助産院】神奈川県横浜市保土ケ谷区仏向町" }, "geometry": { "type": "Point", "coordinates": [ 139.577527, 35.457984 ] } },
{ "type": "Feature", "properties": { "ID": 1441426724100, "正式名称": "助産師　岩元　保代", "機関区分": 4, "都道府県コード": 14, "市区町村コード": 108, "所在地": "神奈川県横浜市金沢区六浦東", "緯度": 35.321639, "経度": 139.623352, "url": "https://www.iryou.teikyouseido.mhlw.go.jp/znk-web/juminkanja/S2430/initialize?prefCd=14&kikanCd=1426724100&kikanKbn=4", "url2": null, "内容": "助産師　岩元　保代【4:助産院】神奈川県横浜市金沢区六浦東" }, "geometry": { "type": "Point", "coordinates": [ 139.623352, 35.321639 ] } },
{ "type": "Feature", "properties": { "ID": 1441426744600, "正式名称": "助産院ｗｉｔｈ　ｎａｔｕｒｅ", "機関区分": 4, "都道府県コード": 14, "市区町村コード": 207, "所在地": "神奈川県茅ヶ崎市東海岸北", "緯度": 35.327829, "経度": 139.414216, "url": "https://www.iryou.teikyouseido.mhlw.go.jp/znk-web/juminkanja/S2430/initialize?prefCd=14&kikanCd=1426744600&kikanKbn=4", "url2": "http://nature-soul-lovebaby.com", "内容": "助産院ｗｉｔｈ　ｎａｔｕｒｅ【4:助産院】神奈川県茅ヶ崎市東海岸北" }, "geometry": { "type": "Point", "coordinates": [ 139.414216, 35.327829 ] } },
{ "type": "Feature", "properties": { "ID": 1441426783700, "正式名称": "助産師　さとう　ゆか", "機関区分": 4, "都道府県コード": 14, "市区町村コード": 101, "所在地": "神奈川県横浜市鶴見区東寺尾", "緯度": 35.502703, "経度": 139.656413, "url": "https://www.iryou.teikyouseido.mhlw.go.jp/znk-web/juminkanja/S2430/initialize?prefCd=14&kikanCd=1426783700&kikanKbn=4", "url2": null, "内容": "助産師　さとう　ゆか【4:助産院】神奈川県横浜市鶴見区東寺尾" }, "geometry": { "type": "Point", "coordinates": [ 139.656413, 35.502703 ] } },
{ "type": "Feature", "properties": { "ID": 1441426784500, "正式名称": "助産師　こたけまりこ", "機関区分": 4, "都道府県コード": 14, "市区町村コード": 101, "所在地": "神奈川県横浜市鶴見区北寺尾", "緯度": 35.513757, "経度": 139.647633, "url": "https://www.iryou.teikyouseido.mhlw.go.jp/znk-web/juminkanja/S2430/initialize?prefCd=14&kikanCd=1426784500&kikanKbn=4", "url2": null, "内容": "助産師　こたけまりこ【4:助産院】神奈川県横浜市鶴見区北寺尾" }, "geometry": { "type": "Point", "coordinates": [ 139.647633, 35.513757 ] } },
{ "type": "Feature", "properties": { "ID": 1441426823000, "正式名称": "いろどり助産院", "機関区分": 4, "都道府県コード": 14, "市区町村コード": 204, "所在地": "神奈川県鎌倉市材木座２－９－４", "緯度": 35.307267, "経度": 139.552594, "url": "https://www.iryou.teikyouseido.mhlw.go.jp/znk-web/juminkanja/S2430/initialize?prefCd=14&kikanCd=1426823000&kikanKbn=4", "url2": null, "内容": "いろどり助産院【4:助産院】神奈川県鎌倉市材木座２－９－４" }, "geometry": { "type": "Point", "coordinates": [ 139.552594, 35.307267 ] } },
{ "type": "Feature", "properties": { "ID": 1441427046300, "正式名称": "ひらま助産院（出張専門）", "機関区分": 4, "都道府県コード": 14, "市区町村コード": 133, "所在地": "神奈川県川崎市中原区北谷町４６番地冨井ビル", "緯度": 35.561966, "経度": 139.67099, "url": "https://www.iryou.teikyouseido.mhlw.go.jp/znk-web/juminkanja/S2430/initialize?prefCd=14&kikanCd=1427046300&kikanKbn=4", "url2": null, "内容": "ひらま助産院（出張専門）【4:助産院】神奈川県川崎市中原区北谷町４６番地冨井ビル" }, "geometry": { "type": "Point", "coordinates": [ 139.67099, 35.561966 ] } },
{ "type": "Feature", "properties": { "ID": 1441427075700, "正式名称": "ごとう助産院ケアハウス", "機関区分": 4, "都道府県コード": 14, "市区町村コード": 207, "所在地": "神奈川県茅ヶ崎市香川１丁目２０番２号", "緯度": 35.351893, "経度": 139.404044, "url": "https://www.iryou.teikyouseido.mhlw.go.jp/znk-web/juminkanja/S2430/initialize?prefCd=14&kikanCd=1427075700&kikanKbn=4", "url2": null, "内容": "ごとう助産院ケアハウス【4:助産院】神奈川県茅ヶ崎市香川１丁目２０番２号" }, "geometry": { "type": "Point", "coordinates": [ 139.404044, 35.351893 ] } },
{ "type": "Feature", "properties": { "ID": 1441427094300, "正式名称": "川崎・横浜　妊娠産後子育て支援助産師　Ｙｏｕｒ　Ｍｉｄｗｉｆｅ　ブラウンみゆき（出張専門）", "機関区分": 4, "都道府県コード": 14, "市区町村コード": 137, "所在地": "神奈川県川崎市麻生区虹ケ丘", "緯度": 35.579848, "経度": 139.522848, "url": "https://www.iryou.teikyouseido.mhlw.go.jp/znk-web/juminkanja/S2430/initialize?prefCd=14&kikanCd=1427094300&kikanKbn=4", "url2": "https://your-midwife.com/", "内容": "川崎・横浜　妊娠産後子育て支援助産師　Ｙｏｕｒ　Ｍｉｄｗｉｆｅ　ブラウンみゆき（出張専門）【4:助産院】神奈川県川崎市麻生区虹ケ丘" }, "geometry": { "type": "Point", "coordinates": [ 139.522848, 35.579848 ] } },
{ "type": "Feature", "properties": { "ID": 1441427137000, "正式名称": "出張専門助産師　中島　亜希子", "機関区分": 4, "都道府県コード": 14, "市区町村コード": 153, "所在地": "神奈川県相模原市南区上鶴間本町", "緯度": 35.539079, "経度": 139.44174, "url": "https://www.iryou.teikyouseido.mhlw.go.jp/znk-web/juminkanja/S2430/initialize?prefCd=14&kikanCd=1427137000&kikanKbn=4", "url2": null, "内容": "出張専門助産師　中島　亜希子【4:助産院】神奈川県相模原市南区上鶴間本町" }, "geometry": { "type": "Point", "coordinates": [ 139.44174, 35.539079 ] } },
{ "type": "Feature", "properties": { "ID": 1441427200800, "正式名称": "Ｗｏｍｅｎ’ｓ　Ｃａｒｅ　Ｍｕｍ", "機関区分": 4, "都道府県コード": 14, "市区町村コード": 135, "所在地": "神奈川県川崎市多摩区登戸新町", "緯度": 35.625888, "経度": 139.563829, "url": "https://www.iryou.teikyouseido.mhlw.go.jp/znk-web/juminkanja/S2430/initialize?prefCd=14&kikanCd=1427200800&kikanKbn=4", "url2": "https://womenscare-mum.com/", "内容": "Ｗｏｍｅｎ’ｓ　Ｃａｒｅ　Ｍｕｍ【4:助産院】神奈川県川崎市多摩区登戸新町" }, "geometry": { "type": "Point", "coordinates": [ 139.563829, 35.625888 ] } },
{ "type": "Feature", "properties": { "ID": 1441427201600, "正式名称": "ウパウパハウス岡本助産院", "機関区分": 4, "都道府県コード": 14, "市区町村コード": 133, "所在地": "神奈川県川崎市中原区下小田中１－５－３１", "緯度": 35.580878, "経度": 139.640233, "url": "https://www.iryou.teikyouseido.mhlw.go.jp/znk-web/juminkanja/S2430/initialize?prefCd=14&kikanCd=1427201600&kikanKbn=4", "url2": null, "内容": "ウパウパハウス岡本助産院【4:助産院】神奈川県川崎市中原区下小田中１－５－３１" }, "geometry": { "type": "Point", "coordinates": [ 139.640233, 35.580878 ] } },
{ "type": "Feature", "properties": { "ID": 1441427380200, "正式名称": "Ｃｉｅｌｏ母乳育児相談室", "機関区分": 4, "都道府県コード": 14, "市区町村コード": 118, "所在地": "神奈川県横浜市都筑区中川中央１ー２２−１７−６０２", "緯度": 35.551763, "経度": 139.57827, "url": "https://www.iryou.teikyouseido.mhlw.go.jp/znk-web/juminkanja/S2430/initialize?prefCd=14&kikanCd=1427380200&kikanKbn=4", "url2": "https://cielo-oketanishiki.com", "内容": "Ｃｉｅｌｏ母乳育児相談室【4:助産院】神奈川県横浜市都筑区中川中央１ー２２−１７−６０２" }, "geometry": { "type": "Point", "coordinates": [ 139.57827, 35.551763 ] } },
{ "type": "Feature", "properties": { "ID": 1441427515500, "正式名称": "助産院ぬくもり（今井美穂）", "機関区分": 4, "都道府県コード": 14, "市区町村コード": 204, "所在地": "神奈川県鎌倉市津６７６－７", "緯度": 35.316887, "経度": 139.505548, "url": "https://www.iryou.teikyouseido.mhlw.go.jp/znk-web/juminkanja/S2430/initialize?prefCd=14&kikanCd=1427515500&kikanKbn=4", "url2": null, "内容": "助産院ぬくもり（今井美穂）【4:助産院】神奈川県鎌倉市津６７６－７" }, "geometry": { "type": "Point", "coordinates": [ 139.505548, 35.316887 ] } },
{ "type": "Feature", "properties": { "ID": 1441427549000, "正式名称": "あじさい助産院", "機関区分": 4, "都道府県コード": 14, "市区町村コード": 207, "所在地": "神奈川県茅ヶ崎市本村２－７－３－１１", "緯度": 35.334745, "経度": 139.416354, "url": "https://www.iryou.teikyouseido.mhlw.go.jp/znk-web/juminkanja/S2430/initialize?prefCd=14&kikanCd=1427549000&kikanKbn=4", "url2": "https://mosh.jp/13940/home", "内容": "あじさい助産院【4:助産院】神奈川県茅ヶ崎市本村２－７－３－１１" }, "geometry": { "type": "Point", "coordinates": [ 139.416354, 35.334745 ] } },
{ "type": "Feature", "properties": { "ID": 1441427657700, "正式名称": "あおい母乳育児相談処", "機関区分": 4, "都道府県コード": 14, "市区町村コード": 110, "所在地": "神奈川県横浜市戸塚区平戸３丁目３１番３号", "緯度": 35.434948, "経度": 139.573065, "url": "https://www.iryou.teikyouseido.mhlw.go.jp/znk-web/juminkanja/S2430/initialize?prefCd=14&kikanCd=1427657700&kikanKbn=4", "url2": null, "内容": "あおい母乳育児相談処【4:助産院】神奈川県横浜市戸塚区平戸３丁目３１番３号" }, "geometry": { "type": "Point", "coordinates": [ 139.573065, 35.434948 ] } },
{ "type": "Feature", "properties": { "ID": 1441427691700, "正式名称": "ぷくぷく助産院", "機関区分": 4, "都道府県コード": 14, "市区町村コード": 201, "所在地": "神奈川県横須賀市坂本町５丁目２２番地", "緯度": 35.268028, "経度": 139.649633, "url": "https://www.iryou.teikyouseido.mhlw.go.jp/znk-web/juminkanja/S2430/initialize?prefCd=14&kikanCd=1427691700&kikanKbn=4", "url2": "https://pukupuku-maternity-home.com/", "内容": "ぷくぷく助産院【4:助産院】神奈川県横須賀市坂本町５丁目２２番地" }, "geometry": { "type": "Point", "coordinates": [ 139.649633, 35.268028 ] } },
{ "type": "Feature", "properties": { "ID": 1441427726300, "正式名称": "助産師　前川未歩", "機関区分": 4, "都道府県コード": 14, "市区町村コード": 106, "所在地": "神奈川県横浜市保土ケ谷区霞台５６ー１２", "緯度": 35.447655, "経度": 139.590949, "url": "https://www.iryou.teikyouseido.mhlw.go.jp/znk-web/juminkanja/S2430/initialize?prefCd=14&kikanCd=1427726300&kikanKbn=4", "url2": null, "内容": "助産師　前川未歩【4:助産院】神奈川県横浜市保土ケ谷区霞台５６ー１２" }, "geometry": { "type": "Point", "coordinates": [ 139.590949, 35.447655 ] } },
{ "type": "Feature", "properties": { "ID": 1441427753000, "正式名称": "母子ケアハウス　しらい", "機関区分": 4, "都道府県コード": 14, "市区町村コード": 109, "所在地": "神奈川県横浜市港北区高田東１ー３５ー１３ー２０１", "緯度": 35.547584, "経度": 139.623592, "url": "https://www.iryou.teikyouseido.mhlw.go.jp/znk-web/juminkanja/S2430/initialize?prefCd=14&kikanCd=1427753000&kikanKbn=4", "url2": "https://bonyusoudan-shirai.yokohama", "内容": "母子ケアハウス　しらい【4:助産院】神奈川県横浜市港北区高田東１ー３５ー１３ー２０１" }, "geometry": { "type": "Point", "coordinates": [ 139.623592, 35.547584 ] } },
{ "type": "Feature", "properties": { "ID": 1441427759000, "正式名称": "助産院ｍａｍａｎａ．ｈｏｕｓｅ", "機関区分": 4, "都道府県コード": 14, "市区町村コード": 321, "所在地": "神奈川県高座郡寒川町一之宮８ー１０ー２４", "緯度": 35.362227, "経度": 139.382133, "url": "https://www.iryou.teikyouseido.mhlw.go.jp/znk-web/juminkanja/S2430/initialize?prefCd=14&kikanCd=1427759000&kikanKbn=4", "url2": "https://www.mamana-house.com/", "内容": "助産院ｍａｍａｎａ．ｈｏｕｓｅ【4:助産院】神奈川県高座郡寒川町一之宮８ー１０ー２４" }, "geometry": { "type": "Point", "coordinates": [ 139.382133, 35.362227 ] } },
{ "type": "Feature", "properties": { "ID": 1441427782400, "正式名称": "ひょうどう助産院（出張専門）", "機関区分": 4, "都道府県コード": 14, "市区町村コード": 204, "所在地": "神奈川県鎌倉市城廻", "緯度": 35.356077, "経度": 139.51079, "url": "https://www.iryou.teikyouseido.mhlw.go.jp/znk-web/juminkanja/S2430/initialize?prefCd=14&kikanCd=1427782400&kikanKbn=4", "url2": null, "内容": "ひょうどう助産院（出張専門）【4:助産院】神奈川県鎌倉市城廻" }, "geometry": { "type": "Point", "coordinates": [ 139.51079, 35.356077 ] } },
{ "type": "Feature", "properties": { "ID": 1441427791300, "正式名称": "森重助産院", "機関区分": 4, "都道府県コード": 14, "市区町村コード": 131, "所在地": "神奈川県川崎市川崎区渡田", "緯度": 35.518033, "経度": 139.701847, "url": "https://www.iryou.teikyouseido.mhlw.go.jp/znk-web/juminkanja/S2430/initialize?prefCd=14&kikanCd=1427791300&kikanKbn=4", "url2": "https://www.morishige-mw.com/", "内容": "森重助産院【4:助産院】神奈川県川崎市川崎区渡田" }, "geometry": { "type": "Point", "coordinates": [ 139.701847, 35.518033 ] } },
{ "type": "Feature", "properties": { "ID": 1441427792100, "正式名称": "諏訪母乳相談室（出張専門）", "機関区分": 4, "都道府県コード": 14, "市区町村コード": 131, "所在地": "神奈川県川崎市川崎区砂子２－１０－７ルリエ川崎駅前１５０１", "緯度": 35.529618, "経度": 139.701261, "url": "https://www.iryou.teikyouseido.mhlw.go.jp/znk-web/juminkanja/S2430/initialize?prefCd=14&kikanCd=1427792100&kikanKbn=4", "url2": null, "内容": "諏訪母乳相談室（出張専門）【4:助産院】神奈川県川崎市川崎区砂子２－１０－７ルリエ川崎駅前１５０１" }, "geometry": { "type": "Point", "coordinates": [ 139.701261, 35.529618 ] } },
{ "type": "Feature", "properties": { "ID": 1441427819700, "正式名称": "助産師　水野　尚子", "機関区分": 4, "都道府県コード": 14, "市区町村コード": 117, "所在地": "神奈川県横浜市青葉区美しが丘西２－４２－３８", "緯度": 35.59163, "経度": 139.532314, "url": "https://www.iryou.teikyouseido.mhlw.go.jp/znk-web/juminkanja/S2430/initialize?prefCd=14&kikanCd=1427819700&kikanKbn=4", "url2": "https://naomof2000.parallel.jp", "内容": "助産師　水野　尚子【4:助産院】神奈川県横浜市青葉区美しが丘西２－４２－３８" }, "geometry": { "type": "Point", "coordinates": [ 139.532314, 35.59163 ] } },
{ "type": "Feature", "properties": { "ID": 1441427838300, "正式名称": "まゆ助産院", "機関区分": 4, "都道府県コード": 14, "市区町村コード": 207, "所在地": "神奈川県茅ヶ崎市室田２－１５－８１－５", "緯度": 35.34258, "経度": 139.419998, "url": "https://www.iryou.teikyouseido.mhlw.go.jp/znk-web/juminkanja/S2430/initialize?prefCd=14&kikanCd=1427838300&kikanKbn=4", "url2": "http://mamanserenite.com", "内容": "まゆ助産院【4:助産院】神奈川県茅ヶ崎市室田２－１５－８１－５" }, "geometry": { "type": "Point", "coordinates": [ 139.419998, 35.34258 ] } },
{ "type": "Feature", "properties": { "ID": 1441427849900, "正式名称": "あゆみ助産院", "機関区分": 4, "都道府県コード": 14, "市区町村コード": 362, "所在地": "神奈川県足柄上郡大井町金子１５８８－１２", "緯度": 35.333297, "経度": 139.157232, "url": "https://www.iryou.teikyouseido.mhlw.go.jp/znk-web/juminkanja/S2430/initialize?prefCd=14&kikanCd=1427849900&kikanKbn=4", "url2": null, "内容": "あゆみ助産院【4:助産院】神奈川県足柄上郡大井町金子１５８８－１２" }, "geometry": { "type": "Point", "coordinates": [ 139.157232, 35.333297 ] } },
{ "type": "Feature", "properties": { "ID": 1441427888000, "正式名称": "ママサロンＡｋａ’Ａｋａ", "機関区分": 4, "都道府県コード": 14, "市区町村コード": 153, "所在地": "神奈川県相模原市南区古淵１－１４－２８－１　ゼルカヴァ１０３", "緯度": 35.557224, "経度": 139.419913, "url": "https://www.iryou.teikyouseido.mhlw.go.jp/znk-web/juminkanja/S2430/initialize?prefCd=14&kikanCd=1427888000&kikanKbn=4", "url2": "https://mamasalonakaaka.amebaownd.com/", "内容": "ママサロンＡｋａ’Ａｋａ【4:助産院】神奈川県相模原市南区古淵１－１４－２８－１　ゼルカヴァ１０３" }, "geometry": { "type": "Point", "coordinates": [ 139.419913, 35.557224 ] } },
{ "type": "Feature", "properties": { "ID": 1441427895200, "正式名称": "助産師のおうち", "機関区分": 4, "都道府県コード": 14, "市区町村コード": 207, "所在地": "神奈川県茅ヶ崎市芹沢９２１−３", "緯度": 35.373563, "経度": 139.424341, "url": "https://www.iryou.teikyouseido.mhlw.go.jp/znk-web/juminkanja/S2430/initialize?prefCd=14&kikanCd=1427895200&kikanKbn=4", "url2": "https://mw-ouchi.com/", "内容": "助産師のおうち【4:助産院】神奈川県茅ヶ崎市芹沢９２１−３" }, "geometry": { "type": "Point", "coordinates": [ 139.424341, 35.373563 ] } },
{ "type": "Feature", "properties": { "ID": 1441427941000, "正式名称": "助産師　関　洋子", "機関区分": 4, "都道府県コード": 14, "市区町村コード": 108, "所在地": "神奈川県横浜市金沢区谷津町", "緯度": 35.346752, "経度": 139.62022, "url": "https://www.iryou.teikyouseido.mhlw.go.jp/znk-web/juminkanja/S2430/initialize?prefCd=14&kikanCd=1427941000&kikanKbn=4", "url2": null, "内容": "助産師　関　洋子【4:助産院】神奈川県横浜市金沢区谷津町" }, "geometry": { "type": "Point", "coordinates": [ 139.62022, 35.346752 ] } },
{ "type": "Feature", "properties": { "ID": 1441427949500, "正式名称": "母乳ケア　子育て・よろづ相談　のの", "機関区分": 4, "都道府県コード": 14, "市区町村コード": 133, "所在地": "神奈川県川崎市中原区井田", "緯度": 35.562035, "経度": 139.640734, "url": "https://www.iryou.teikyouseido.mhlw.go.jp/znk-web/juminkanja/S2430/initialize?prefCd=14&kikanCd=1427949500&kikanKbn=4", "url2": null, "内容": "母乳ケア　子育て・よろづ相談　のの【4:助産院】神奈川県川崎市中原区井田" }, "geometry": { "type": "Point", "coordinates": [ 139.640734, 35.562035 ] } },
{ "type": "Feature", "properties": { "ID": 1441427999100, "正式名称": "南野川助産院　母子相談室", "機関区分": 4, "都道府県コード": 14, "市区町村コード": 136, "所在地": "神奈川県川崎市宮前区南野川２丁目２７番１７", "緯度": 35.56618, "経度": 139.605033, "url": "https://www.iryou.teikyouseido.mhlw.go.jp/znk-web/juminkanja/S2430/initialize?prefCd=14&kikanCd=1427999100&kikanKbn=4", "url2": "http://www.ekiten.jp//shop_27396109", "内容": "南野川助産院　母子相談室【4:助産院】神奈川県川崎市宮前区南野川２丁目２７番１７" }, "geometry": { "type": "Point", "coordinates": [ 139.605033, 35.56618 ] } },
{ "type": "Feature", "properties": { "ID": 1441428003500, "正式名称": "あおぞら母乳育児相談室", "機関区分": 4, "都道府県コード": 14, "市区町村コード": 206, "所在地": "神奈川県小田原市鴨宮５１２－１　サンハイム１０２号", "緯度": 35.285579, "経度": 139.177263, "url": "https://www.iryou.teikyouseido.mhlw.go.jp/znk-web/juminkanja/S2430/initialize?prefCd=14&kikanCd=1428003500&kikanKbn=4", "url2": "http://aozorabonyu.com", "内容": "あおぞら母乳育児相談室【4:助産院】神奈川県小田原市鴨宮５１２－１　サンハイム１０２号" }, "geometry": { "type": "Point", "coordinates": [ 139.177263, 35.285579 ] } },
{ "type": "Feature", "properties": { "ID": 1441428056600, "正式名称": "助産師　日野川真由美", "機関区分": 4, "都道府県コード": 14, "市区町村コード": 111, "所在地": "神奈川県横浜市港南区港南台", "緯度": 35.372835, "経度": 139.582289, "url": "https://www.iryou.teikyouseido.mhlw.go.jp/znk-web/juminkanja/S2430/initialize?prefCd=14&kikanCd=1428056600&kikanKbn=4", "url2": "https://tumugi-jyosanin.com", "内容": "助産師　日野川真由美【4:助産院】神奈川県横浜市港南区港南台" }, "geometry": { "type": "Point", "coordinates": [ 139.582289, 35.372835 ] } },
{ "type": "Feature", "properties": { "ID": 1441428304200, "正式名称": "めもか助産院", "機関区分": 4, "都道府県コード": 14, "市区町村コード": 207, "所在地": "神奈川県茅ヶ崎市南湖２－１５－３６", "緯度": 35.324881, "経度": 139.390693, "url": "https://www.iryou.teikyouseido.mhlw.go.jp/znk-web/juminkanja/S2430/initialize?prefCd=14&kikanCd=1428304200&kikanKbn=4", "url2": "https://memoka-josanin.com", "内容": "めもか助産院【4:助産院】神奈川県茅ヶ崎市南湖２－１５－３６" }, "geometry": { "type": "Point", "coordinates": [ 139.390693, 35.324881 ] } },
{ "type": "Feature", "properties": { "ID": 1441428369700, "正式名称": "慈愛助産院", "機関区分": 4, "都道府県コード": 14, "市区町村コード": 118, "所在地": "神奈川県横浜市都筑区早渕１－２０－２８－１", "緯度": 35.542437, "経度": 139.598694, "url": "https://www.iryou.teikyouseido.mhlw.go.jp/znk-web/juminkanja/S2430/initialize?prefCd=14&kikanCd=1428369700&kikanKbn=4", "url2": "http://jiai-maternity-home.com/", "内容": "慈愛助産院【4:助産院】神奈川県横浜市都筑区早渕１－２０－２８－１" }, "geometry": { "type": "Point", "coordinates": [ 139.598694, 35.542437 ] } },
{ "type": "Feature", "properties": { "ID": 1441428385900, "正式名称": "一般社団法人横須賀市助産師会立　産後ケアハウス燈", "機関区分": 4, "都道府県コード": 14, "市区町村コード": 201, "所在地": "神奈川県横須賀市西逸見町２−８０", "緯度": 35.282507, "経度": 139.648554, "url": "https://www.iryou.teikyouseido.mhlw.go.jp/znk-web/juminkanja/S2430/initialize?prefCd=14&kikanCd=1428385900&kikanKbn=4", "url2": "Midwifeyokosuka.wixsite.com/my-site", "内容": "一般社団法人横須賀市助産師会立　産後ケアハウス燈【4:助産院】神奈川県横須賀市西逸見町２−８０" }, "geometry": { "type": "Point", "coordinates": [ 139.648554, 35.282507 ] } },
{ "type": "Feature", "properties": { "ID": 1441428483900, "正式名称": "つばめ助産院", "機関区分": 4, "都道府県コード": 14, "市区町村コード": 132, "所在地": "神奈川県川崎市幸区北加瀬１－８ー５コーポラス志村２０１号室", "緯度": 35.552092, "経度": 139.665904, "url": "https://www.iryou.teikyouseido.mhlw.go.jp/znk-web/juminkanja/S2430/initialize?prefCd=14&kikanCd=1428483900&kikanKbn=4", "url2": "https://www.tubamejyosanin.com", "内容": "つばめ助産院【4:助産院】神奈川県川崎市幸区北加瀬１－８ー５コーポラス志村２０１号室" }, "geometry": { "type": "Point", "coordinates": [ 139.665904, 35.552092 ] } },
{ "type": "Feature", "properties": { "ID": 1441428497900, "正式名称": "康心会汐見台助産院", "機関区分": 4, "都道府県コード": 14, "市区町村コード": 107, "所在地": "神奈川県横浜市磯子区汐見台", "緯度": 35.40111, "経度": 139.60875, "url": "https://www.iryou.teikyouseido.mhlw.go.jp/znk-web/juminkanja/S2430/initialize?prefCd=14&kikanCd=1428497900&kikanKbn=4", "url2": null, "内容": "康心会汐見台助産院【4:助産院】神奈川県横浜市磯子区汐見台" }, "geometry": { "type": "Point", "coordinates": [ 139.60875, 35.40111 ] } },
{ "type": "Feature", "properties": { "ID": 1441428597500, "正式名称": "つるまる助産院　（出張専門）", "機関区分": 4, "都道府県コード": 14, "市区町村コード": 131, "所在地": "神奈川県川崎市川崎区江川", "緯度": 35.536376, "経度": 139.746073, "url": "https://www.iryou.teikyouseido.mhlw.go.jp/znk-web/juminkanja/S2430/initialize?prefCd=14&kikanCd=1428597500&kikanKbn=4", "url2": null, "内容": "つるまる助産院　（出張専門）【4:助産院】神奈川県川崎市川崎区江川" }, "geometry": { "type": "Point", "coordinates": [ 139.746073, 35.536376 ] } },
{ "type": "Feature", "properties": { "ID": 1441428659900, "正式名称": "助産師みずき", "機関区分": 4, "都道府県コード": 14, "市区町村コード": 115, "所在地": "神奈川県横浜市栄区飯島町", "緯度": 35.371701, "経度": 139.53564, "url": "https://www.iryou.teikyouseido.mhlw.go.jp/znk-web/juminkanja/S2430/initialize?prefCd=14&kikanCd=1428659900&kikanKbn=4", "url2": "http://midwife-mizuki.com/", "内容": "助産師みずき【4:助産院】神奈川県横浜市栄区飯島町" }, "geometry": { "type": "Point", "coordinates": [ 139.53564, 35.371701 ] } },
{ "type": "Feature", "properties": { "ID": 1441428704800, "正式名称": "さくらバース", "機関区分": 4, "都道府県コード": 14, "市区町村コード": 133, "所在地": "神奈川県川崎市中原区今井南町", "緯度": 35.572723, "経度": 139.6566, "url": "https://www.iryou.teikyouseido.mhlw.go.jp/znk-web/juminkanja/S2430/initialize?prefCd=14&kikanCd=1428704800&kikanKbn=4", "url2": null, "内容": "さくらバース【4:助産院】神奈川県川崎市中原区今井南町" }, "geometry": { "type": "Point", "coordinates": [ 139.6566, 35.572723 ] } },
{ "type": "Feature", "properties": { "ID": 1441428833800, "正式名称": "星の子助産院", "機関区分": 4, "都道府県コード": 14, "市区町村コード": 206, "所在地": "神奈川県小田原市堀之内１８－５", "緯度": 35.261461, "経度": 139.177278, "url": "https://www.iryou.teikyouseido.mhlw.go.jp/znk-web/juminkanja/S2430/initialize?prefCd=14&kikanCd=1428833800&kikanKbn=4", "url2": "https://www.hoshinoko.online/", "内容": "星の子助産院【4:助産院】神奈川県小田原市堀之内１８－５" }, "geometry": { "type": "Point", "coordinates": [ 139.177278, 35.261461 ] } },
{ "type": "Feature", "properties": { "ID": 1441429295500, "正式名称": "藤野の助産院ｍｉｄ－Ｕ", "機関区分": 4, "都道府県コード": 14, "市区町村コード": 151, "所在地": "神奈川県相模原市緑区吉野５０２−２", "緯度": 35.615027, "経度": 139.168745, "url": "https://www.iryou.teikyouseido.mhlw.go.jp/znk-web/juminkanja/S2430/initialize?prefCd=14&kikanCd=1429295500&kikanKbn=4", "url2": "https://mid-u.life/", "内容": "藤野の助産院ｍｉｄ－Ｕ【4:助産院】神奈川県相模原市緑区吉野５０２−２" }, "geometry": { "type": "Point", "coordinates": [ 139.168745, 35.615027 ] } },
{ "type": "Feature", "properties": { "ID": 1441429349800, "正式名称": "ここのあ助産院", "機関区分": 4, "都道府県コード": 14, "市区町村コード": 110, "所在地": "神奈川県横浜市戸塚区深谷町", "緯度": 35.38906, "経度": 139.502831, "url": "https://www.iryou.teikyouseido.mhlw.go.jp/znk-web/juminkanja/S2430/initialize?prefCd=14&kikanCd=1429349800&kikanKbn=4", "url2": "https://coconoa-ohana.com", "内容": "ここのあ助産院【4:助産院】神奈川県横浜市戸塚区深谷町" }, "geometry": { "type": "Point", "coordinates": [ 139.502831, 35.38906 ] } },
{ "type": "Feature", "properties": { "ID": 1441431000090, "正式名称": "ゆきんこ助産院", "機関区分": 4, "都道府県コード": 14, "市区町村コード": 152, "所在地": "神奈川県相模原市中央区上溝３８３３－６", "緯度": 35.554147, "経度": 139.350867, "url": "https://www.iryou.teikyouseido.mhlw.go.jp/znk-web/juminkanja/S2430/initialize?prefCd=14&kikanCd=1431000090&kikanKbn=4", "url2": "https://mwyukinko.com/", "内容": "ゆきんこ助産院【4:助産院】神奈川県相模原市中央区上溝３８３３－６" }, "geometry": { "type": "Point", "coordinates": [ 139.350867, 35.554147 ] } },
{ "type": "Feature", "properties": { "ID": 1441431000100, "正式名称": "医療法人徳洲会　湘南鎌倉助産院・産後ケアセンター", "機関区分": 4, "都道府県コード": 14, "市区町村コード": 204, "所在地": "神奈川県鎌倉市山崎１０９０－５", "緯度": 35.343851, "経度": 139.527889, "url": "https://www.iryou.teikyouseido.mhlw.go.jp/znk-web/juminkanja/S2430/initialize?prefCd=14&kikanCd=1431000100&kikanKbn=4", "url2": "https://birthhome.skgh.jp/", "内容": "医療法人徳洲会　湘南鎌倉助産院・産後ケアセンター【4:助産院】神奈川県鎌倉市山崎１０９０－５" }, "geometry": { "type": "Point", "coordinates": [ 139.527889, 35.343851 ] } },
{ "type": "Feature", "properties": { "ID": 1441431000495, "正式名称": "一般社団法人　齋藤助産院", "機関区分": 4, "都道府県コード": 14, "市区町村コード": 207, "所在地": "神奈川県茅ヶ崎市芹沢１００４−１０", "緯度": 35.375592, "経度": 139.423649, "url": "https://www.iryou.teikyouseido.mhlw.go.jp/znk-web/juminkanja/S2430/initialize?prefCd=14&kikanCd=1431000495&kikanKbn=4", "url2": "https://saito-josanin.com/", "内容": "一般社団法人　齋藤助産院【4:助産院】神奈川県茅ヶ崎市芹沢１００４−１０" }, "geometry": { "type": "Point", "coordinates": [ 139.423649, 35.375592 ] } },
{ "type": "Feature", "properties": { "ID": 1441431000813, "正式名称": "助産院　ひがのぼれば", "機関区分": 4, "都道府県コード": 14, "市区町村コード": 114, "所在地": "神奈川県横浜市瀬谷区三ツ境７３－１６", "緯度": 35.46146, "経度": 139.504408, "url": "https://www.iryou.teikyouseido.mhlw.go.jp/znk-web/juminkanja/S2430/initialize?prefCd=14&kikanCd=1431000813&kikanKbn=4", "url2": "https://www.higanoboreba.com/", "内容": "助産院　ひがのぼれば【4:助産院】神奈川県横浜市瀬谷区三ツ境７３－１６" }, "geometry": { "type": "Point", "coordinates": [ 139.504408, 35.46146 ] } }
]
}
