{
"type": "FeatureCollection",
"name": "geo_14_義務教育学校",
"crs": { "type": "name", "properties": { "name": "urn:ogc:def:crs:EPSG::6668" } },
"features": [
{ "type": "Feature", "properties": { "P29_001": "14108", "P29_002": "C214210020016", "P29_003": "16014", "P29_004": "横浜市立西金沢義務教育学校", "P29_005": "神奈川県横浜市金沢区釜利谷西4-19-1", "P29_006": "3", "P29_007": "1", "P29_008": "00", "P29_009": null }, "geometry": { "type": "Point", "coordinates": [ 139.593440109293141, 35.343856519204742 ] } },
{ "type": "Feature", "properties": { "P29_001": "14113", "P29_002": "C214210020025", "P29_003": "16014", "P29_004": "横浜市立霧が丘義務教育学校", "P29_005": "神奈川県横浜市緑区霧が丘4-3", "P29_006": "3", "P29_007": "1", "P29_008": "01", "P29_009": null }, "geometry": { "type": "Point", "coordinates": [ 139.507146588559237, 35.512026953641531 ] } },
{ "type": "Feature", "properties": { "P29_001": "14151", "P29_002": "C214215020015", "P29_003": "16014", "P29_004": "相模原市立青和学園", "P29_005": "神奈川県相模原市緑区青野原1250-1", "P29_006": "3", "P29_007": "1", "P29_008": "00", "P29_009": null }, "geometry": { "type": "Point", "coordinates": [ 139.193455651100578, 35.562473325080781 ] } },
{ "type": "Feature", "properties": { "P29_001": "14113", "P29_002": "C214210020025", "P29_003": "16014", "P29_004": "横浜市立霧が丘義務教育学校", "P29_005": "神奈川県横浜市緑区霧が丘4-4", "P29_006": "3", "P29_007": "1", "P29_008": "02", "P29_009": null }, "geometry": { "type": "Point", "coordinates": [ 139.50712865159241, 35.512024112735482 ] } },
{ "type": "Feature", "properties": { "P29_001": "14116", "P29_002": "C214210020034", "P29_003": "16014", "P29_004": "横浜市立緑園義務教育学校", "P29_005": "神奈川県横浜市泉区緑園5-28", "P29_006": "3", "P29_007": "1", "P29_008": "00", "P29_009": null }, "geometry": { "type": "Point", "coordinates": [ 139.526793365043289, 35.443892544290492 ] } },
{ "type": "Feature", "properties": { "P29_001": "14151", "P29_002": "C214215020025", "P29_003": "16014", "P29_004": "相模原市立鳥屋学園", "P29_005": "神奈川県相模原市緑区鳥屋1339", "P29_006": "3", "P29_007": "1", "P29_008": "00", "P29_009": null }, "geometry": { "type": "Point", "coordinates": [ 139.21724345758085, 35.545720909163393 ] } }
]
}
