{
"type": "FeatureCollection",
"name": "geo_14_中等教育学校",
"crs": { "type": "name", "properties": { "name": "urn:ogc:def:crs:EPSG::6668" } },
"features": [
{ "type": "Feature", "properties": { "P29_001": "14153", "P29_002": "D214215010015", "P29_003": "16003", "P29_004": "神奈川県立相模原中等教育学校", "P29_005": "神奈川県相模原市南区相模大野4-1-1", "P29_006": "2", "P29_007": "0", "P29_008": "00", "P29_009": null }, "geometry": { "type": "Point", "coordinates": [ 139.431215890074355, 35.535868008689114 ] } },
{ "type": "Feature", "properties": { "P29_001": "14203", "P29_002": "D214220310012", "P29_003": "16003", "P29_004": "神奈川県立平塚中等教育学校", "P29_005": "神奈川県平塚市大原1-13", "P29_006": "2", "P29_007": "0", "P29_008": "00", "P29_009": null }, "geometry": { "type": "Point", "coordinates": [ 139.338316814656878, 35.342779011156544 ] } },
{ "type": "Feature", "properties": { "P29_001": "14117", "P29_002": "D214310000025", "P29_003": "16003", "P29_004": "桐蔭学園中等教育学校", "P29_005": "神奈川県横浜市青葉区鉄町1614", "P29_006": "4", "P29_007": "0", "P29_008": "00", "P29_009": null }, "geometry": { "type": "Point", "coordinates": [ 139.521799624408089, 35.566873719367273 ] } },
{ "type": "Feature", "properties": { "P29_001": "14214", "P29_002": "D214321400019", "P29_003": "16003", "P29_004": "自修館中等教育学校", "P29_005": "神奈川県伊勢原市見附島411", "P29_006": "4", "P29_007": "0", "P29_008": "00", "P29_009": null }, "geometry": { "type": "Point", "coordinates": [ 139.340511986974832, 35.406228325835812 ] } }
]
}
