{
"type": "FeatureCollection",
"name": "geo_14_短期大学",
"crs": { "type": "name", "properties": { "name": "urn:ogc:def:crs:EPSG::6668" } },
"features": [
{ "type": "Feature", "properties": { "P29_001": "14132", "P29_002": "F214210104900", "P29_003": "16006", "P29_004": "川崎市立看護短期大学", "P29_005": "神奈川県川崎市幸区小倉4-30-1", "P29_006": "3", "P29_007": "0", "P29_008": "00", "P29_009": null }, "geometry": { "type": "Point", "coordinates": [ 139.669836088634867, 35.535858109594642 ] } },
{ "type": "Feature", "properties": { "P29_001": "14152", "P29_002": "F214310104917", "P29_003": "16006", "P29_004": "和泉短期大学", "P29_005": "神奈川県相模原市中央区青葉2-2-1", "P29_006": "4", "P29_007": "0", "P29_008": "00", "P29_009": null }, "geometry": { "type": "Point", "coordinates": [ 139.390239055248173, 35.55178074642928 ] } },
{ "type": "Feature", "properties": { "P29_001": "14101", "P29_002": "F214310104926", "P29_003": "16006", "P29_004": "鶴見大学短期大学部", "P29_005": "神奈川県横浜市鶴見区鶴見2-1-3", "P29_006": "4", "P29_007": "0", "P29_008": "00", "P29_009": null }, "geometry": { "type": "Point", "coordinates": [ 139.672761076972023, 35.50496593042039 ] } },
{ "type": "Feature", "properties": { "P29_001": "14111", "P29_002": "F214310104935", "P29_003": "16006", "P29_004": "横浜女子短期大学", "P29_005": "神奈川県横浜市港南区港南台4-4-5", "P29_006": "4", "P29_007": "0", "P29_008": "00", "P29_009": null }, "geometry": { "type": "Point", "coordinates": [ 139.577150651355367, 35.371429275097441 ] } },
{ "type": "Feature", "properties": { "P29_001": "14137", "P29_002": "F214310104944", "P29_003": "16006", "P29_004": "昭和音楽大学短期大学部", "P29_005": "神奈川県川崎市麻生区上麻生1-11-1", "P29_006": "4", "P29_007": "0", "P29_008": "00", "P29_009": null }, "geometry": { "type": "Point", "coordinates": [ 139.507765318623285, 35.600674547771966 ] } },
{ "type": "Feature", "properties": { "P29_001": "14211", "P29_002": "F214310104953", "P29_003": "16006", "P29_004": "上智大学短期大学部", "P29_005": "神奈川県秦野市上大槻山王台999", "P29_006": "4", "P29_007": "0", "P29_008": "00", "P29_009": null }, "geometry": { "type": "Point", "coordinates": [ 139.237063248887637, 35.364014227792389 ] } },
{ "type": "Feature", "properties": { "P29_001": "14206", "P29_002": "F214310104962", "P29_003": "16006", "P29_004": "小田原短期大学", "P29_005": "神奈川県小田原市城山4-5-1", "P29_006": "4", "P29_007": "0", "P29_008": "00", "P29_009": null }, "geometry": { "type": "Point", "coordinates": [ 139.14976072445063, 35.249040007370056 ] } },
{ "type": "Feature", "properties": { "P29_001": "14204", "P29_002": "F214310104971", "P29_003": "16006", "P29_004": "鎌倉女子大学短期大学部", "P29_005": "神奈川県鎌倉市大船6-1-3", "P29_006": "4", "P29_007": "0", "P29_008": "00", "P29_009": null }, "geometry": { "type": "Point", "coordinates": [ 139.539354359451522, 35.353625177497314 ] } },
{ "type": "Feature", "properties": { "P29_001": "14153", "P29_002": "F214310104980", "P29_003": "16006", "P29_004": "相模女子大学短期大学部", "P29_005": "神奈川県相模原市南区文京2-1-1", "P29_006": "4", "P29_007": "0", "P29_008": "00", "P29_009": null }, "geometry": { "type": "Point", "coordinates": [ 139.427446808482898, 35.533918425187323 ] } },
{ "type": "Feature", "properties": { "P29_001": "14134", "P29_002": "F214310104999", "P29_003": "16006", "P29_004": "洗足こども短期大学", "P29_005": "神奈川県川崎市高津区久本2-3-1", "P29_006": "4", "P29_007": "0", "P29_008": "00", "P29_009": null }, "geometry": { "type": "Point", "coordinates": [ 139.615189372560764, 35.594220951281606 ] } },
{ "type": "Feature", "properties": { "P29_001": "14201", "P29_002": "F214310105006", "P29_003": "16006", "P29_004": "神奈川歯科大学短期大学部", "P29_005": "神奈川県横須賀市稲岡町82", "P29_006": "4", "P29_007": "0", "P29_008": "00", "P29_009": null }, "geometry": { "type": "Point", "coordinates": [ 139.670623965804936, 35.28540624693867 ] } },
{ "type": "Feature", "properties": { "P29_001": "14212", "P29_002": "F214310105033", "P29_003": "16006", "P29_004": "湘北短期大学", "P29_005": "神奈川県厚木市温水字長久保428", "P29_006": "4", "P29_007": "0", "P29_008": "00", "P29_009": null }, "geometry": { "type": "Point", "coordinates": [ 139.347003521056052, 35.43501731790807 ] } }
]
}
