{
"type": "FeatureCollection",
"name": "geo_14_地域密着型特定施設入居者生活介護（有料老人ホーム）",
"crs": { "type": "name", "properties": { "name": "urn:ogc:def:crs:OGC:1.3:CRS84" } },
"features": [
{ "type": "Feature", "properties": { "内容": "マリ・ド・ラ・パシオンの家【地域密着型特定施設入居者生活介護（有料老人ホーム）】神奈川県横浜市戸塚区原宿4-35-10", "url2": "https://www.kaigokensaku.mhlw.go.jp/14/index.php?action_kouhyou_detail_004_kani=true&JigyosyoCd=1491000061-00&ServiceCd=361&Type=search" }, "geometry": { "type": "Point", "coordinates": [ 139.499549, 35.3756575 ] } },
{ "type": "Feature", "properties": { "内容": "ココファンメゾン四之宮【地域密着型特定施設入居者生活介護（有料老人ホーム）】神奈川県平塚市四之宮1-3-66", "url2": "https://www.kaigokensaku.mhlw.go.jp/14/index.php?action_kouhyou_detail_004_kani=true&JigyosyoCd=1492000250-00&ServiceCd=361&Type=search" }, "geometry": { "type": "Point", "coordinates": [ 139.350039700000053, 35.346964413275039 ] } },
{ "type": "Feature", "properties": { "内容": "悠悠みらい【地域密着型特定施設入居者生活介護（有料老人ホーム）】神奈川県平塚市入野70", "url2": "https://www.kaigokensaku.mhlw.go.jp/14/index.php?action_kouhyou_detail_004_kani=true&JigyosyoCd=1492000169-00&ServiceCd=361&Type=search" }, "geometry": { "type": "Point", "coordinates": [ 139.319814899999983, 35.3525026 ] } },
{ "type": "Feature", "properties": { "内容": "鎌倉ライフホームえん【地域密着型特定施設入居者生活介護（有料老人ホーム）】神奈川県鎌倉市今泉3丁目18-6鎌倉乃えん", "url2": "https://www.kaigokensaku.mhlw.go.jp/14/index.php?action_kouhyou_detail_004_kani=true&JigyosyoCd=1492100316-00&ServiceCd=361&Type=search" }, "geometry": { "type": "Point", "coordinates": [ 139.560908400000017, 35.3443892 ] } },
{ "type": "Feature", "properties": { "内容": "ミモザ湘南台新館【地域密着型特定施設入居者生活介護（有料老人ホーム）】神奈川県藤沢市円行１－９－１３", "url2": "https://www.kaigokensaku.mhlw.go.jp/14/index.php?action_kouhyou_detail_004_kani=true&JigyosyoCd=1492200348-00&ServiceCd=361&Type=search" }, "geometry": { "type": "Point", "coordinates": [ 139.4601576, 35.3880302 ] } },
{ "type": "Feature", "properties": { "内容": "花珠の家　ふじさわ【地域密着型特定施設入居者生活介護（有料老人ホーム）】神奈川県藤沢市菖蒲沢７９０", "url2": "https://www.kaigokensaku.mhlw.go.jp/14/index.php?action_kouhyou_detail_004_kani=true&JigyosyoCd=1492200413-00&ServiceCd=361&Type=search" }, "geometry": { "type": "Point", "coordinates": [ 139.442241700000068, 35.4010473 ] } },
{ "type": "Feature", "properties": { "内容": "ココファンメゾン鵠沼【地域密着型特定施設入居者生活介護（有料老人ホーム）】神奈川県藤沢市本鵠沼４－２－５", "url2": "https://www.kaigokensaku.mhlw.go.jp/14/index.php?action_kouhyou_detail_004_kani=true&JigyosyoCd=1492200611-00&ServiceCd=361&Type=search" }, "geometry": { "type": "Point", "coordinates": [ 139.470554399999969, 35.3339898 ] } },
{ "type": "Feature", "properties": { "内容": "ココファンメゾン大庭【地域密着型特定施設入居者生活介護（有料老人ホーム）】神奈川県藤沢市大庭5423-1ココファンメゾン大庭", "url2": "https://www.kaigokensaku.mhlw.go.jp/14/index.php?action_kouhyou_detail_004_kani=true&JigyosyoCd=1492200629-00&ServiceCd=361&Type=search" }, "geometry": { "type": "Point", "coordinates": [ 139.451297599999947, 35.3633996 ] } },
{ "type": "Feature", "properties": { "内容": "藤沢ロマン館【地域密着型特定施設入居者生活介護（有料老人ホーム）】神奈川県藤沢市菖蒲沢538藤沢ロマン館", "url2": "https://www.kaigokensaku.mhlw.go.jp/14/index.php?action_kouhyou_detail_004_kani=true&JigyosyoCd=1492200850-00&ServiceCd=361&Type=search" }, "geometry": { "type": "Point", "coordinates": [ 139.437361399999986, 35.4011914 ] } },
{ "type": "Feature", "properties": { "内容": "ミモザ藤沢躑躅苑【地域密着型特定施設入居者生活介護（有料老人ホーム）】神奈川県藤沢市遠藤733番5", "url2": "https://www.kaigokensaku.mhlw.go.jp/14/index.php?action_kouhyou_detail_004_kani=true&JigyosyoCd=1492201130-00&ServiceCd=361&Type=search" }, "geometry": { "type": "Point", "coordinates": [ 139.4426784, 35.3736101 ] } },
{ "type": "Feature", "properties": { "内容": "ココファンメディカル藤沢【地域密着型特定施設入居者生活介護（有料老人ホーム）】神奈川県藤沢市本藤沢5－8－19", "url2": "https://www.kaigokensaku.mhlw.go.jp/14/index.php?action_kouhyou_detail_004_kani=true&JigyosyoCd=1492200603-00&ServiceCd=361&Type=search" }, "geometry": { "type": "Point", "coordinates": [ 139.469838600000031, 35.3584633 ] } },
{ "type": "Feature", "properties": { "内容": "スマイルコート円蔵【地域密着型特定施設入居者生活介護（有料老人ホーム）】神奈川県茅ケ崎市円蔵2-7-6", "url2": "https://www.kaigokensaku.mhlw.go.jp/14/index.php?action_kouhyou_detail_004_kani=true&JigyosyoCd=1492400179-00&ServiceCd=361&Type=search" }, "geometry": { "type": "Point", "coordinates": [ 139.4051882, 35.3445915 ] } },
{ "type": "Feature", "properties": { "内容": "逗子パーク・ヴィラ【地域密着型特定施設入居者生活介護（有料老人ホーム）】神奈川県逗子市小坪3-2-1", "url2": "https://www.kaigokensaku.mhlw.go.jp/14/index.php?action_kouhyou_detail_004_kani=true&JigyosyoCd=1472500063-00&ServiceCd=361&Type=search" }, "geometry": { "type": "Point", "coordinates": [ 139.560350179762281, 35.300152274347383 ] } }
]
}
