{
"type": "FeatureCollection",
"name": "geo_14_定期巡回・随時対応型訪問介護看護",
"crs": { "type": "name", "properties": { "name": "urn:ogc:def:crs:OGC:1.3:CRS84" } },
"features": [
{ "type": "Feature", "properties": { "内容": "銀河の詩ケア24【定期巡回・随時対応型訪問介護看護】神奈川県横浜市鶴見区鶴見中央4-32-1ＵＮＥＸビル8階", "url": "https://www.kaigokensaku.mhlw.go.jp/14/index.php?action_kouhyou_detail_004_kani=true&JigyosyoCd=1490100243-00&ServiceCd=760&Type=search", "url2": "http://shuhokai.or.jp/maps/details/TZ_ginga.html" }, "geometry": { "type": "Point", "coordinates": [ 139.681344085150187, 35.509055214353793 ] } },
{ "type": "Feature", "properties": { "内容": "福祉協会つるみ24【定期巡回・随時対応型訪問介護看護】神奈川県横浜市鶴見区豊岡町7-10パーライトビル8F", "url": "https://www.kaigokensaku.mhlw.go.jp/14/index.php?action_kouhyou_detail_004_kani=true&JigyosyoCd=1490100383-00&ServiceCd=760&Type=search", "url2": "https://home-help.jp" }, "geometry": { "type": "Point", "coordinates": [ 139.674479568865166, 35.507883097977199 ] } },
{ "type": "Feature", "properties": { "内容": "訪問介護輝【定期巡回・随時対応型訪問介護看護】神奈川県横浜市鶴見区平安町2-28-1ヨコハマアイランドガーデン162", "url": "https://www.kaigokensaku.mhlw.go.jp/14/index.php?action_kouhyou_detail_004_kani=true&JigyosyoCd=1490100565-00&ServiceCd=760&Type=search", "url2": "https://www.kyoumaru.co.jp/" }, "geometry": { "type": "Point", "coordinates": [ 139.694059900000013, 35.5078124 ] } },
{ "type": "Feature", "properties": { "内容": "横浜市福祉サービス協会　訪問介護看護つるみ【定期巡回・随時対応型訪問介護看護】神奈川県横浜市鶴見区鶴見中央1-28-2ニッコービル1F", "url": "https://www.kaigokensaku.mhlw.go.jp/14/index.php?action_kouhyou_detail_004_kani=true&JigyosyoCd=1490100219-00&ServiceCd=760&Type=search", "url2": "http://www.hama-wel.or.jp/branch/detail/visitkaigoturumi/" }, "geometry": { "type": "Point", "coordinates": [ 139.678667799999971, 35.5086453 ] } },
{ "type": "Feature", "properties": { "内容": "椚の大樹ケア24【定期巡回・随時対応型訪問介護看護】神奈川県横浜市神奈川区西神奈川1-9-2グレース竹和壱番館2階", "url": "https://www.kaigokensaku.mhlw.go.jp/14/index.php?action_kouhyou_detail_004_kani=true&JigyosyoCd=1490200266-00&ServiceCd=760&Type=search", "url2": "http://www.care-net.co.jp/shonandai/" }, "geometry": { "type": "Point", "coordinates": [ 139.630869500000017, 35.4790148 ] } },
{ "type": "Feature", "properties": { "内容": "わかたけ24ケアステーション神奈川【定期巡回・随時対応型訪問介護看護】神奈川県横浜市神奈川区平川町２-４ヤマザキビル2階", "url": "https://www.kaigokensaku.mhlw.go.jp/14/index.php?action_kouhyou_detail_004_kani=true&JigyosyoCd=1490200191-00&ServiceCd=760&Type=search", "url2": "https://wakatake.net/" }, "geometry": { "type": "Point", "coordinates": [ 139.628755800000022, 35.4794425 ] } },
{ "type": "Feature", "properties": { "内容": "横浜市福祉サービス協会訪問介護看護かながわ【定期巡回・随時対応型訪問介護看護】神奈川県横浜市神奈川区反町1-7-1US-1ビル7階", "url": "https://www.kaigokensaku.mhlw.go.jp/14/index.php?action_kouhyou_detail_004_kani=true&JigyosyoCd=1490200738-00&ServiceCd=760&Type=search", "url2": "https://www.hama-wel.or.jp/branch/visitkaigokanagawa/" }, "geometry": { "type": "Point", "coordinates": [ 139.6282074, 35.474406 ] } },
{ "type": "Feature", "properties": { "内容": "銀鈴の詩ケア24【定期巡回・随時対応型訪問介護看護】神奈川県横浜市西区平沼1-1-15ルピナス平沼2階", "url": "https://www.kaigokensaku.mhlw.go.jp/14/index.php?action_kouhyou_detail_004_kani=true&JigyosyoCd=1490300116-00&ServiceCd=760&Type=search", "url2": "http://shuhokai.or.jp/maps/details/TZ_ginrei.html" }, "geometry": { "type": "Point", "coordinates": [ 139.621662300000025, 35.4608419 ] } },
{ "type": "Feature", "properties": { "内容": "横浜市福祉サービス協会　訪問介護看護にし【定期巡回・随時対応型訪問介護看護】神奈川県横浜市西区桜木町六丁目３１番地５階", "url": "https://www.kaigokensaku.mhlw.go.jp/14/index.php?action_kouhyou_detail_004_kani=true&JigyosyoCd=1490300082-00&ServiceCd=760&Type=search", "url2": "https://www.hama-wel.or.jp" }, "geometry": { "type": "Point", "coordinates": [ 139.619193099999961, 35.461627900000011 ] } },
{ "type": "Feature", "properties": { "内容": "銀杏の大樹ケア24【定期巡回・随時対応型訪問介護看護】神奈川県横浜市中区山下町252グランベル横浜ビル3階ＥＦ", "url": "https://www.kaigokensaku.mhlw.go.jp/14/index.php?action_kouhyou_detail_004_kani=true&JigyosyoCd=1490400197-00&ServiceCd=760&Type=search", "url2": "https://shuhokai.or.jp" }, "geometry": { "type": "Point", "coordinates": [ 139.641075399999977, 35.4423913 ] } },
{ "type": "Feature", "properties": { "内容": "横浜市福祉サービス協会　訪問介護看護なか【定期巡回・随時対応型訪問介護看護】神奈川県横浜市中区扇町2-5-15リラックスビル3階", "url": "https://www.kaigokensaku.mhlw.go.jp/14/index.php?action_kouhyou_detail_004_kani=true&JigyosyoCd=1490400411-00&ServiceCd=760&Type=search", "url2": "http://www.hama-wel.or.jp" }, "geometry": { "type": "Point", "coordinates": [ 139.638339800000011, 35.4406009 ] } },
{ "type": "Feature", "properties": { "内容": "フルライフ横浜【定期巡回・随時対応型訪問介護看護】神奈川県横浜市南区山王町３－２４－８港横浜ビル4階", "url": "https://www.kaigokensaku.mhlw.go.jp/14/index.php?action_kouhyou_detail_004_kani=true&JigyosyoCd=1490500111-00&ServiceCd=760&Type=search", "url2": "https://www.fulllife.co.jp/branch/" }, "geometry": { "type": "Point", "coordinates": [ 139.619235500000059, 35.4361615 ] } },
{ "type": "Feature", "properties": { "内容": "定期巡回ケアコールセンターはぴねす横浜永田【定期巡回・随時対応型訪問介護看護】神奈川県横浜市南区永田北１丁目３１番１９号", "url": "https://www.kaigokensaku.mhlw.go.jp/14/index.php?action_kouhyou_detail_004_kani=true&JigyosyoCd=1490500640-00&ServiceCd=760&Type=search", "url2": "https://villa-life-support.co.jp/" }, "geometry": { "type": "Point", "coordinates": [ 139.5893012, 35.441878063317752 ] } },
{ "type": "Feature", "properties": { "内容": "桜樹の森ケア24【定期巡回・随時対応型訪問介護看護】神奈川県横浜市南区通町4-94神奈中弘明寺ビル2階", "url": "https://www.kaigokensaku.mhlw.go.jp/14/index.php?action_kouhyou_detail_004_kani=true&JigyosyoCd=1490500228-00&ServiceCd=760&Type=search", "url2": "http://www.shuhokai.or.jp" }, "geometry": { "type": "Point", "coordinates": [ 139.602209799999969, 35.4242436 ] } },
{ "type": "Feature", "properties": { "内容": "フルライフ保土ヶ谷【定期巡回・随時対応型訪問介護看護】神奈川県横浜市保土ケ谷区岩井町1-7保土ヶ谷駅ビル6階", "url": "https://www.kaigokensaku.mhlw.go.jp/14/index.php?action_kouhyou_detail_004_kani=true&JigyosyoCd=1490600234-00&ServiceCd=760&Type=search", "url2": "https://www.fulllife.co.jp" }, "geometry": { "type": "Point", "coordinates": [ 139.599485012693435, 35.447072615380286 ] } },
{ "type": "Feature", "properties": { "内容": "豊穣の大地　ケア24【定期巡回・随時対応型訪問介護看護】神奈川県横浜市保土ヶ谷区和田1-13-1朋和ビル201号", "url": "https://www.kaigokensaku.mhlw.go.jp/14/index.php?action_kouhyou_detail_004_kani=true&JigyosyoCd=1490600143-00&ServiceCd=760&Type=search", "url2": "http://shuhokai.or.jp/" }, "geometry": { "type": "Point", "coordinates": [ 139.58878, 35.4646608 ] } },
{ "type": "Feature", "properties": { "内容": "横浜市福祉サービス協会訪問介護看護ほどがや【定期巡回・随時対応型訪問介護看護】神奈川県横浜市保土ヶ谷区宮田町1-5-10高梨医療ビル４階", "url": "https://www.kaigokensaku.mhlw.go.jp/14/index.php?action_kouhyou_detail_004_kani=true&JigyosyoCd=1490600770-00&ServiceCd=760&Type=search", "url2": "https://www.hama-wel.or.jp/branch/visitkaigohodogaya/" }, "geometry": { "type": "Point", "coordinates": [ 139.604400779033512, 35.458109187206084 ] } },
{ "type": "Feature", "properties": { "内容": "磯風の謡ケア24【定期巡回・随時対応型訪問介護看護】神奈川県横浜市磯子区磯子3-8-20サムティレジデンス横濱磯子1階", "url": "https://www.kaigokensaku.mhlw.go.jp/14/index.php?action_kouhyou_detail_004_kani=true&JigyosyoCd=1490700158-00&ServiceCd=760&Type=search", "url2": "http://shuhokai.or.jp/office/isogo-ku/tz-isokaze.php" }, "geometry": { "type": "Point", "coordinates": [ 139.61942160000001, 35.4047884 ] } },
{ "type": "Feature", "properties": { "内容": "悠ケア24【定期巡回・随時対応型訪問介護看護】神奈川県横浜市磯子区原町6-15ラインズマンション102", "url": "https://www.kaigokensaku.mhlw.go.jp/14/index.php?action_kouhyou_detail_004_kani=true&JigyosyoCd=1490700406-00&ServiceCd=760&Type=search", "url2": "https://yu-noki.co.jp" }, "geometry": { "type": "Point", "coordinates": [ 139.628228400000012, 35.417417600000014 ] } },
{ "type": "Feature", "properties": { "内容": "ハートケア　磯子【定期巡回・随時対応型訪問介護看護】神奈川県横浜市磯子区広地町7-12", "url": "https://www.kaigokensaku.mhlw.go.jp/14/index.php?action_kouhyou_detail_004_kani=true&JigyosyoCd=1490700232-00&ServiceCd=760&Type=search", "url2": "http://kaigo-heart.wixsite.com/tukusiisogo" }, "geometry": { "type": "Point", "coordinates": [ 139.6231851, 35.4169394 ] } },
{ "type": "Feature", "properties": { "内容": "横浜市福祉サービス協会　訪問介護看護いそご【定期巡回・随時対応型訪問介護看護】神奈川県横浜市磯子区磯子三丁目３番21号磯子江戸徳ビル１階", "url": "https://www.kaigokensaku.mhlw.go.jp/14/index.php?action_kouhyou_detail_004_kani=true&JigyosyoCd=1490700414-00&ServiceCd=760&Type=search", "url2": "https://www.hama-wel.or.jp/branch/hps_isogo/" }, "geometry": { "type": "Point", "coordinates": [ 139.7716479, 35.7664205 ] } },
{ "type": "Feature", "properties": { "内容": "アイナース定期巡回　横浜【定期巡回・随時対応型訪問介護看護】神奈川県横浜市磯子区上町1-28", "url": "https://www.kaigokensaku.mhlw.go.jp/14/index.php?action_kouhyou_detail_004_kani=true&JigyosyoCd=1490700588-00&ServiceCd=760&Type=search", "url2": "https://inurse.life/" }, "geometry": { "type": "Point", "coordinates": [ 139.6238464, 35.4256366 ] } },
{ "type": "Feature", "properties": { "内容": "陽光の大地ケア24【定期巡回・随時対応型訪問介護看護】神奈川県横浜市金沢区釜利谷東2-3-10いしかたビル4F", "url": "https://www.kaigokensaku.mhlw.go.jp/14/index.php?action_kouhyou_detail_004_kani=true&JigyosyoCd=1490800255-00&ServiceCd=760&Type=search", "url2": "http://shuhokai.or.jp/maps/details/TZ_yoko.html" }, "geometry": { "type": "Point", "coordinates": [ 139.618317100000013, 35.3427688 ] } },
{ "type": "Feature", "properties": { "内容": "横浜市福祉サービス協会　訪問介護看護かなざわ【定期巡回・随時対応型訪問介護看護】神奈川県横浜市金沢区泥亀1-17-15大西第3ビル2階", "url": "https://www.kaigokensaku.mhlw.go.jp/14/index.php?action_kouhyou_detail_004_kani=true&JigyosyoCd=1490800180-00&ServiceCd=760&Type=search", "url2": "https://www.hama-wel.or.jp/branch/visitkaigokanazawa/" }, "geometry": { "type": "Point", "coordinates": [ 139.62360549999994, 35.3402388 ] } },
{ "type": "Feature", "properties": { "内容": "楡の大樹ケア２４【定期巡回・随時対応型訪問介護看護】神奈川県横浜市港北区新横浜2-4-17新横浜千歳観光第2ビル3階", "url": "https://www.kaigokensaku.mhlw.go.jp/14/index.php?action_kouhyou_detail_004_kani=true&JigyosyoCd=1490900303-00&ServiceCd=760&Type=search", "url2": "https://shuhokai.or.jp/office/kohoku-ku/tz-nire.php" }, "geometry": { "type": "Point", "coordinates": [ 139.616713936277108, 35.508862096042634 ] } },
{ "type": "Feature", "properties": { "内容": "福祉クラブ生協　定期巡回・随時対応サービス　港北事業所【定期巡回・随時対応型訪問介護看護】神奈川県横浜市港北区新羽町868有料老人ホーム　きらり港北", "url": "https://www.kaigokensaku.mhlw.go.jp/14/index.php?action_kouhyou_detail_004_kani=true&JigyosyoCd=1490900774-00&ServiceCd=760&Type=search", "url2": null }, "geometry": { "type": "Point", "coordinates": [ 139.614411100000012, 35.523942400000038 ] } },
{ "type": "Feature", "properties": { "内容": "定期巡回サービス土屋横浜港北【定期巡回・随時対応型訪問介護看護】神奈川県横浜市港北区小机町2557-1テラスアルコⅠC", "url": "https://www.kaigokensaku.mhlw.go.jp/14/index.php?action_kouhyou_detail_004_kani=true&JigyosyoCd=1490900808-00&ServiceCd=760&Type=search", "url2": "https://teikijunkai.net/" }, "geometry": { "type": "Point", "coordinates": [ 139.6013278, 35.5075725 ] } },
{ "type": "Feature", "properties": { "内容": "横浜市福祉サービス協会　訪問介護看護こうほく【定期巡回・随時対応型訪問介護看護】神奈川県横浜市港北区新横浜2-5-9新横浜フジカビル8階", "url": "https://www.kaigokensaku.mhlw.go.jp/14/index.php?action_kouhyou_detail_004_kani=true&JigyosyoCd=1490900816-00&ServiceCd=760&Type=search", "url2": "https://www.hama-wel.or.jp/branch/visitkaigokohoku/news/" }, "geometry": { "type": "Point", "coordinates": [ 139.615634, 35.5096779 ] } },
{ "type": "Feature", "properties": { "内容": "定期巡回　ゆい　港北【定期巡回・随時対応型訪問介護看護】神奈川県横浜市港北区日吉本町1-27-37", "url": "https://www.kaigokensaku.mhlw.go.jp/14/index.php?action_kouhyou_detail_004_kani=true&JigyosyoCd=1490900261-00&ServiceCd=760&Type=search", "url2": "http://www.welfare-yui.com/patrol.html#patrol_kohoku" }, "geometry": { "type": "Point", "coordinates": [ 139.644716799999969, 35.5524031 ] } },
{ "type": "Feature", "properties": { "内容": "希望の大地ケア24【定期巡回・随時対応型訪問介護看護】神奈川県横浜市戸塚区品濃町545-30クライテリア東戸塚1階", "url": "https://www.kaigokensaku.mhlw.go.jp/14/index.php?action_kouhyou_detail_004_kani=true&JigyosyoCd=1491000467-00&ServiceCd=760&Type=search", "url2": "https://www.shuhokai.or.jp/office/totsuka-ku/tz-kibo.php" }, "geometry": { "type": "Point", "coordinates": [ 139.558752199999958, 35.4332388 ] } },
{ "type": "Feature", "properties": { "内容": "ＳＯＭＰＯケア　横浜戸塚　定期巡回【定期巡回・随時対応型訪問介護看護】神奈川県横浜市戸塚区戸塚町145番地秀文堂ビル202号", "url": "https://www.kaigokensaku.mhlw.go.jp/14/index.php?action_kouhyou_detail_004_kani=true&JigyosyoCd=1491000640-00&ServiceCd=760&Type=search", "url2": "https://www.sompocare.com/" }, "geometry": { "type": "Point", "coordinates": [ 139.531532500000026, 35.3969878 ] } },
{ "type": "Feature", "properties": { "内容": "瑞穂の大地ケア24【定期巡回・随時対応型訪問介護看護】神奈川県横浜市港南区日野１－９－３３ＮＴＴ港南ビル１階", "url": "https://www.kaigokensaku.mhlw.go.jp/14/index.php?action_kouhyou_detail_004_kani=true&JigyosyoCd=1493100240-00&ServiceCd=760&Type=search", "url2": "http://shuhokai.or.jp/maps/details/TZ_mizuho.html" }, "geometry": { "type": "Point", "coordinates": [ 139.5868977, 35.3957608 ] } },
{ "type": "Feature", "properties": { "内容": "横浜市福祉サービス協会　訪問介護看護こうなん【定期巡回・随時対応型訪問介護看護】神奈川県横浜市港南区上大岡西1-12-5朝日生命上大岡ビル4階", "url": "https://www.kaigokensaku.mhlw.go.jp/14/index.php?action_kouhyou_detail_004_kani=true&JigyosyoCd=1493100711-00&ServiceCd=760&Type=search", "url2": "https://www.hama-wel.or.jp/" }, "geometry": { "type": "Point", "coordinates": [ 139.5883071, 35.3995024 ] } },
{ "type": "Feature", "properties": { "内容": "横浜市福祉サービス協会　訪問介護看護あさひ【定期巡回・随時対応型訪問介護看護】神奈川県横浜市旭区柏町１３１－５", "url": "https://www.kaigokensaku.mhlw.go.jp/14/index.php?action_kouhyou_detail_004_kani=true&JigyosyoCd=1493200354-00&ServiceCd=760&Type=search", "url2": "http://www.hama-wel.or.jp/branch/detail/visitkaigoasahi/" }, "geometry": { "type": "Point", "coordinates": [ 139.527379800000062, 35.451858600000016 ] } },
{ "type": "Feature", "properties": { "内容": "銀の舞ケア24【定期巡回・随時対応型訪問介護看護】神奈川県横浜市旭区二俣川2-50-14コプレ二俣川オフィス905号", "url": "https://www.kaigokensaku.mhlw.go.jp/14/index.php?action_kouhyou_detail_004_kani=true&JigyosyoCd=1493200305-00&ServiceCd=760&Type=search", "url2": "https://shuhokai.or.jp/office/asahi-ku/tz-ginmai.php" }, "geometry": { "type": "Point", "coordinates": [ 139.532701866795378, 35.464199180360829 ] } },
{ "type": "Feature", "properties": { "内容": "訪問介護看護事業所けやき【定期巡回・随時対応型訪問介護看護】神奈川県横浜市緑区上山二丁目35番1号", "url": "https://www.kaigokensaku.mhlw.go.jp/14/index.php?action_kouhyou_detail_004_kani=true&JigyosyoCd=1493300634-00&ServiceCd=760&Type=search", "url2": null }, "geometry": { "type": "Point", "coordinates": [ 139.5498261, 35.50657 ] } },
{ "type": "Feature", "properties": { "内容": "横浜市福祉サービス協会　訪問介護看護みどり【定期巡回・随時対応型訪問介護看護】神奈川県横浜市緑区中山一丁目6番5号静銀中山ビル3階", "url": "https://www.kaigokensaku.mhlw.go.jp/14/index.php?action_kouhyou_detail_004_kani=true&JigyosyoCd=1493300246-00&ServiceCd=760&Type=search", "url2": "http://www.hama-wel.or.jp/" }, "geometry": { "type": "Point", "coordinates": [ 139.540914677909882, 35.515629928167762 ] } },
{ "type": "Feature", "properties": { "内容": "ホームケア緑【定期巡回・随時対応型訪問介護看護】神奈川県横浜市緑区十日市場町1258-92クレールレジデンス横浜十日市場", "url": "https://www.kaigokensaku.mhlw.go.jp/14/index.php?action_kouhyou_detail_004_kani=true&JigyosyoCd=1493300428-00&ServiceCd=760&Type=search", "url2": "https://www.e-life-design.co.jp/" }, "geometry": { "type": "Point", "coordinates": [ 139.514919400000053, 35.5217093 ] } },
{ "type": "Feature", "properties": { "内容": "翡翠の舞ケア24【定期巡回・随時対応型訪問介護看護】神奈川県横浜市緑区台村町337台和ビル1F", "url": "https://www.kaigokensaku.mhlw.go.jp/14/index.php?action_kouhyou_detail_004_kani=true&JigyosyoCd=1493300469-00&ServiceCd=760&Type=search", "url2": "http://www.shuhokai.or.jp" }, "geometry": { "type": "Point", "coordinates": [ 139.537619, 35.5133305 ] } },
{ "type": "Feature", "properties": { "内容": "ＳＯＭＰＯケア　横浜十日市場　定期巡回【定期巡回・随時対応型訪問介護看護】神奈川県横浜市緑区十日市場町824-2", "url": "https://www.kaigokensaku.mhlw.go.jp/14/index.php?action_kouhyou_detail_004_kani=true&JigyosyoCd=1493300394-00&ServiceCd=760&Type=search", "url2": "https://www.sompocare.com" }, "geometry": { "type": "Point", "coordinates": [ 139.518132369038426, 35.52470011830011 ] } },
{ "type": "Feature", "properties": { "内容": "横浜市福祉サービス協会　訪問介護看護せや【定期巡回・随時対応型訪問介護看護】神奈川県横浜市瀬谷区三ツ境100-6海發ビル１階", "url": "https://www.kaigokensaku.mhlw.go.jp/14/index.php?action_kouhyou_detail_004_kani=true&JigyosyoCd=1493400285-00&ServiceCd=760&Type=search", "url2": "http://www.hama-wel.or.jp" }, "geometry": { "type": "Point", "coordinates": [ 139.501595750410956, 35.466927974501466 ] } },
{ "type": "Feature", "properties": { "内容": "定期巡回・随時対応型訪問介護看護クロスハート栄・横浜【定期巡回・随時対応型訪問介護看護】神奈川県横浜市栄区公田町1020-5クロスハート栄・横浜", "url": "https://www.kaigokensaku.mhlw.go.jp/14/index.php?action_kouhyou_detail_004_kani=true&JigyosyoCd=1493500480-00&ServiceCd=760&Type=search", "url2": "https://www.shinkoufukushikai.com/care/regularpatrol/sakae-patrol" }, "geometry": { "type": "Point", "coordinates": [ 139.5584341, 35.3510391 ] } },
{ "type": "Feature", "properties": { "内容": "SOMPOケア　横浜本郷台　定期巡回【定期巡回・随時対応型訪問介護看護】神奈川県横浜市栄区小菅ヶ谷1丁目22番5号", "url": "https://www.kaigokensaku.mhlw.go.jp/14/index.php?action_kouhyou_detail_004_kani=true&JigyosyoCd=1493500449-00&ServiceCd=760&Type=search", "url2": "https://www.sompocare.com/service/zaitaku/teikijunkai/Z000946" }, "geometry": { "type": "Point", "coordinates": [ 139.5449849, 35.3648879 ] } },
{ "type": "Feature", "properties": { "内容": "フルライフ本郷台【定期巡回・随時対応型訪問介護看護】神奈川県横浜市栄区公田町514-5柳澤ビル2階", "url": "https://www.kaigokensaku.mhlw.go.jp/14/index.php?action_kouhyou_detail_004_kani=true&JigyosyoCd=1493500175-00&ServiceCd=760&Type=search", "url2": "https://www.fulllife.co.jp" }, "geometry": { "type": "Point", "coordinates": [ 139.555206099999964, 35.3630341 ] } },
{ "type": "Feature", "properties": { "内容": "たすけあい泉定期巡回・随時対応型訪問介護看護にじ【定期巡回・随時対応型訪問介護看護】神奈川県横浜市泉区中田南4丁目26番10号", "url": "https://www.kaigokensaku.mhlw.go.jp/14/index.php?action_kouhyou_detail_004_kani=true&JigyosyoCd=1493600611-00&ServiceCd=760&Type=search", "url2": "https://tasukeai-izumi.net/teikizyunnkai-html" }, "geometry": { "type": "Point", "coordinates": [ 139.507774096295179, 35.407929387924888 ] } },
{ "type": "Feature", "properties": { "内容": "横浜市福祉サービス協会　訪問介護看護いずみ【定期巡回・随時対応型訪問介護看護】神奈川県横浜市泉区和泉中央南5-1-18スガノビル１階", "url": "https://www.kaigokensaku.mhlw.go.jp/14/index.php?action_kouhyou_detail_004_kani=true&JigyosyoCd=1493600264-00&ServiceCd=760&Type=search", "url2": "http://www.hama-wel.or.jp/branch/detail/visitkaigoizumi/" }, "geometry": { "type": "Point", "coordinates": [ 139.485347641377018, 35.416648795059984 ] } },
{ "type": "Feature", "properties": { "内容": "花の生活館ケア24【定期巡回・随時対応型訪問介護看護】神奈川県横浜市泉区弥生台13-4横山ビル202", "url": "https://www.kaigokensaku.mhlw.go.jp/14/index.php?action_kouhyou_detail_004_kani=true&JigyosyoCd=1493600207-00&ServiceCd=760&Type=search", "url2": "http://shuhokai.or.jp/" }, "geometry": { "type": "Point", "coordinates": [ 139.50658169999997, 35.428217 ] } },
{ "type": "Feature", "properties": { "内容": "エヌアイ在宅サービスステーション【定期巡回・随時対応型訪問介護看護】神奈川県横浜市青葉区市ケ尾町25-6", "url": "https://www.kaigokensaku.mhlw.go.jp/14/index.php?action_kouhyou_detail_004_kani=true&JigyosyoCd=1493700247-00&ServiceCd=760&Type=search", "url2": "http://www.nakagawa-tokushokai.com/" }, "geometry": { "type": "Point", "coordinates": [ 139.538549455784931, 35.549141560909206 ] } },
{ "type": "Feature", "properties": { "内容": "わかたけ24ケアステーション　青葉【定期巡回・随時対応型訪問介護看護】神奈川県横浜市青葉区奈良4-6-12", "url": "https://www.kaigokensaku.mhlw.go.jp/14/index.php?action_kouhyou_detail_004_kani=true&JigyosyoCd=1493700346-00&ServiceCd=760&Type=search", "url2": "https://www.wakatake.net" }, "geometry": { "type": "Point", "coordinates": [ 139.482765800000038, 35.5509163 ] } },
{ "type": "Feature", "properties": { "内容": "定期巡回　ゆい　青葉【定期巡回・随時対応型訪問介護看護】神奈川県横浜市青葉区荏田町1286-1", "url": "https://www.kaigokensaku.mhlw.go.jp/14/index.php?action_kouhyou_detail_004_kani=true&JigyosyoCd=1493700460-00&ServiceCd=760&Type=search", "url2": "http://www.welfare-yui.com/service/patrol.html" }, "geometry": { "type": "Point", "coordinates": [ 139.555252582080499, 35.559328695368563 ] } },
{ "type": "Feature", "properties": { "内容": "GTLケアサービス横浜都筑【定期巡回・随時対応型訪問介護看護】神奈川県横浜市都筑区大丸１番24号", "url": "https://www.kaigokensaku.mhlw.go.jp/14/index.php?action_kouhyou_detail_004_kani=true&JigyosyoCd=1493800641-00&ServiceCd=760&Type=search", "url2": null }, "geometry": { "type": "Point", "coordinates": [ 139.560319626983642, 35.538846521150823 ] } },
{ "type": "Feature", "properties": { "内容": "定期巡回・随時対応型訪問介護看護川崎ラシクル【定期巡回・随時対応型訪問介護看護】川崎市川崎区日進町5-1川崎市複合福祉センターふくふく", "url": "https://www.kaigokensaku.mhlw.go.jp/14/index.php?action_kouhyou_detail_004_kani=true&JigyosyoCd=1495000711-00&ServiceCd=760&Type=search", "url2": "https://nissintyou.misasakai.or.jp/" }, "geometry": { "type": "Point", "coordinates": [ 139.692881699999987, 35.5259468 ] } },
{ "type": "Feature", "properties": { "内容": "SOMPOケア川崎日進　定期巡回【定期巡回・随時対応型訪問介護看護】神奈川県川崎市川崎区日進町22-3吉田貸事務所", "url": "https://www.kaigokensaku.mhlw.go.jp/14/index.php?action_kouhyou_detail_004_kani=true&JigyosyoCd=1495000620-00&ServiceCd=760&Type=search", "url2": "https://www.sompocare.com" }, "geometry": { "type": "Point", "coordinates": [ 139.696607399999948, 35.5240512 ] } },
{ "type": "Feature", "properties": { "内容": "太陽ケアセンター【定期巡回・随時対応型訪問介護看護】神奈川県川崎市川崎区渡田新町2-1-9", "url": "https://www.kaigokensaku.mhlw.go.jp/14/index.php?action_kouhyou_detail_004_kani=true&JigyosyoCd=1495000778-00&ServiceCd=760&Type=search", "url2": "https://www.taiyocare.com" }, "geometry": { "type": "Point", "coordinates": [ 139.698341699999986, 35.522248 ] } },
{ "type": "Feature", "properties": { "内容": "訪問ステーション夢楽川崎浜町【定期巡回・随時対応型訪問介護看護】神奈川県川崎市川崎区浜町3-3-2織戸ビル　４F", "url": "https://www.kaigokensaku.mhlw.go.jp/14/index.php?action_kouhyou_detail_004_kani=true&JigyosyoCd=1495000919-00&ServiceCd=760&Type=search", "url2": null }, "geometry": { "type": "Point", "coordinates": [ 139.718618, 35.5186996 ] } },
{ "type": "Feature", "properties": { "内容": "SOMPOケア　川崎観音　定期巡回【定期巡回・随時対応型訪問介護看護】神奈川県川崎市川崎区観音1丁目2-5", "url": "https://www.kaigokensaku.mhlw.go.jp/14/index.php?action_kouhyou_detail_004_kani=true&JigyosyoCd=1495000646-00&ServiceCd=760&Type=search", "url2": "https://www.sompocare.com/service/home/satsuki/H000348/" }, "geometry": { "type": "Point", "coordinates": [ 139.724915900000042, 35.5285283 ] } },
{ "type": "Feature", "properties": { "内容": "フルライフ川崎【定期巡回・随時対応型訪問介護看護】神奈川県川崎市幸区幸町2丁目593モリファーストビル3階Ｂ", "url": "https://www.kaigokensaku.mhlw.go.jp/14/index.php?action_kouhyou_detail_004_kani=true&JigyosyoCd=1495100271-00&ServiceCd=760&Type=search", "url2": "https://www.fulllife.co.jp" }, "geometry": { "type": "Point", "coordinates": [ 139.698887300000024, 35.5375715 ] } },
{ "type": "Feature", "properties": { "内容": "SOMPOケア　川崎小倉　定期巡回【定期巡回・随時対応型訪問介護看護】神奈川県川崎市幸区小倉5丁目31-11", "url": "https://www.kaigokensaku.mhlw.go.jp/14/index.php?action_kouhyou_detail_004_kani=true&JigyosyoCd=1495100370-00&ServiceCd=760&Type=search", "url2": null }, "geometry": { "type": "Point", "coordinates": [ 139.6623085, 35.5373809 ] } },
{ "type": "Feature", "properties": { "内容": "SOMPOケア　北加瀬　定期巡回【定期巡回・随時対応型訪問介護看護】神奈川県川崎市幸区北加瀬3-18-18そんぽの家S北加瀬・1F事務所", "url": "https://www.kaigokensaku.mhlw.go.jp/14/index.php?action_kouhyou_detail_004_kani=true&JigyosyoCd=1495100388-00&ServiceCd=760&Type=search", "url2": "https://www.sompocare.com" }, "geometry": { "type": "Point", "coordinates": [ 139.659843099999989, 35.5548026 ] } },
{ "type": "Feature", "properties": { "内容": "フルライフ中原【定期巡回・随時対応型訪問介護看護】神奈川県川崎市中原区丸子通1-627-8トーシンビル", "url": "https://www.kaigokensaku.mhlw.go.jp/14/index.php?action_kouhyou_detail_004_kani=true&JigyosyoCd=1495200139-00&ServiceCd=760&Type=search", "url2": "https://www.fulllife.co.jp/" }, "geometry": { "type": "Point", "coordinates": [ 139.665325928508963, 35.581550815546095 ] } },
{ "type": "Feature", "properties": { "内容": "SOMPOケア元住吉西　定期巡回【定期巡回・随時対応型訪問介護看護】神奈川県川崎市中原区井田2丁目34-22そんぽの家S元住吉西", "url": "https://www.kaigokensaku.mhlw.go.jp/14/index.php?action_kouhyou_detail_004_kani=true&JigyosyoCd=1495200402-00&ServiceCd=760&Type=search", "url2": "https://www.sompocare.com/service/home/satsuki/H000423" }, "geometry": { "type": "Point", "coordinates": [ 139.6402514447052, 35.562694123893998 ] } },
{ "type": "Feature", "properties": { "内容": "定期巡回・随時対応型訪問介護看護事業所　フローレンスケア武蔵小杉【定期巡回・随時対応型訪問介護看護】神奈川県川崎市中原区今井上町8-24", "url": "https://www.kaigokensaku.mhlw.go.jp/14/index.php?action_kouhyou_detail_004_kani=true&JigyosyoCd=1495200527-00&ServiceCd=760&Type=search", "url2": "https://www.good-care.jp/facilities/musashikosugi/" }, "geometry": { "type": "Point", "coordinates": [ 139.65174540000001, 35.5788168 ] } },
{ "type": "Feature", "properties": { "内容": "定期巡回随時対応型訪問介護看護アットプレオ新城【定期巡回・随時対応型訪問介護看護】神奈川県川崎市高津区新作6-8-333Ｆ", "url": "https://www.kaigokensaku.mhlw.go.jp/14/index.php?action_kouhyou_detail_004_kani=true&JigyosyoCd=1495300400-00&ServiceCd=760&Type=search", "url2": "http://care-net.biz/14/at/index.php" }, "geometry": { "type": "Point", "coordinates": [ 139.626128, 35.586372400000023 ] } },
{ "type": "Feature", "properties": { "内容": "ＳＯＭＰＯケア　川崎高津　定期巡回【定期巡回・随時対応型訪問介護看護】神奈川県川崎市高津区溝口3-11-17溝口パークホームズ2-B", "url": "https://www.kaigokensaku.mhlw.go.jp/14/index.php?action_kouhyou_detail_004_kani=true&JigyosyoCd=1495300434-00&ServiceCd=760&Type=search", "url2": "https://www.sompocare.com" }, "geometry": { "type": "Point", "coordinates": [ 139.613106199999947, 35.603114400000017 ] } },
{ "type": "Feature", "properties": { "内容": "ＳＯＭＰＯケア梶が谷　定期巡回・随時対応型訪問介護看護【定期巡回・随時対応型訪問介護看護】神奈川県川崎市高津区新作1丁目22-21", "url": "https://www.kaigokensaku.mhlw.go.jp/14/index.php?action_kouhyou_detail_004_kani=true&JigyosyoCd=1495300459-00&ServiceCd=760&Type=search", "url2": "https://www.sompocare.com/" }, "geometry": { "type": "Point", "coordinates": [ 139.607991099999907, 35.5878556 ] } },
{ "type": "Feature", "properties": { "内容": "SOMPOケア　多摩川　定期巡回【定期巡回・随時対応型訪問介護看護】神奈川県川崎市高津区宇奈根635-1", "url": "https://www.kaigokensaku.mhlw.go.jp/14/index.php?action_kouhyou_detail_004_kani=true&JigyosyoCd=1495300467-00&ServiceCd=760&Type=search", "url2": "https://www.sompocare.com/service/home/satsuki/H000317" }, "geometry": { "type": "Point", "coordinates": [ 139.600232600000027, 35.6134149 ] } },
{ "type": "Feature", "properties": { "内容": "クローバーかわさき療養支援事業所【定期巡回・随時対応型訪問介護看護】神奈川県川崎市高津区宇奈根635-2", "url": "https://www.kaigokensaku.mhlw.go.jp/14/index.php?action_kouhyou_detail_004_kani=true&JigyosyoCd=1495600304-00&ServiceCd=760&Type=search", "url2": "https://www.jala.co.jp/" }, "geometry": { "type": "Point", "coordinates": [ 139.600394990649789, 35.613088477149866 ] } },
{ "type": "Feature", "properties": { "内容": "カーサプラチナ宮前平【定期巡回・随時対応型訪問介護看護】神奈川県川崎市宮前区平3-2-25カーサプラチナ宮前平", "url": "https://www.kaigokensaku.mhlw.go.jp/14/index.php?action_kouhyou_detail_004_kani=true&JigyosyoCd=1495500322-00&ServiceCd=760&Type=search", "url2": "http://www.platinum-care.jp/" }, "geometry": { "type": "Point", "coordinates": [ 139.5691396, 35.600416 ] } },
{ "type": "Feature", "properties": { "内容": "ＳＯＭＰＯケア川崎鷺沼　定期巡回【定期巡回・随時対応型訪問介護看護】神奈川県川崎市宮前区有馬1-7-5サンプラザ鷺沼１F", "url": "https://www.kaigokensaku.mhlw.go.jp/14/index.php?action_kouhyou_detail_004_kani=true&JigyosyoCd=1495500413-00&ServiceCd=760&Type=search", "url2": null }, "geometry": { "type": "Point", "coordinates": [ 139.577892099999985, 35.5793263 ] } },
{ "type": "Feature", "properties": { "内容": "SOMPOケア　川崎宮前　定期巡回【定期巡回・随時対応型訪問介護看護】神奈川県川崎市宮前区野川本町3-24-13そんぽの家S川崎宮前", "url": "https://www.kaigokensaku.mhlw.go.jp/14/index.php?action_kouhyou_detail_004_kani=true&JigyosyoCd=1495500454-00&ServiceCd=760&Type=search", "url2": "https://www.sompocare.com" }, "geometry": { "type": "Point", "coordinates": [ 139.617377, 35.5735467 ] } },
{ "type": "Feature", "properties": { "内容": "秋桜の丘ケア24【定期巡回・随時対応型訪問介護看護】神奈川県川崎市宮前区東有馬5-16-1", "url": "https://www.kaigokensaku.mhlw.go.jp/14/index.php?action_kouhyou_detail_004_kani=true&JigyosyoCd=1495500769-00&ServiceCd=760&Type=search", "url2": "https://shuhokai.or.jp/" }, "geometry": { "type": "Point", "coordinates": [ 139.5956228, 35.5681719 ] } },
{ "type": "Feature", "properties": { "内容": "SOMPOケア宮前菅生　定期巡回【定期巡回・随時対応型訪問介護看護】神奈川県川崎市宮前区菅生5-23-23そんぽの家S宮前菅生", "url": "https://www.kaigokensaku.mhlw.go.jp/14/index.php?action_kouhyou_detail_004_kani=true&JigyosyoCd=1495500439-00&ServiceCd=760&Type=search", "url2": "http://www.sompocare.com/" }, "geometry": { "type": "Point", "coordinates": [ 139.554704600000036, 35.5914162 ] } },
{ "type": "Feature", "properties": { "内容": "エイプレイス麻生【定期巡回・随時対応型訪問介護看護】神奈川県川崎市麻生区万福寺1丁目8番7号パストラル新百合ヶ丘310号室", "url": "https://www.kaigokensaku.mhlw.go.jp/14/index.php?action_kouhyou_detail_004_kani=true&JigyosyoCd=1495600353-00&ServiceCd=760&Type=search", "url2": "http://www.a-place.co.jp" }, "geometry": { "type": "Point", "coordinates": [ 139.503997200901267, 35.603469074668638 ] } },
{ "type": "Feature", "properties": { "内容": "ＳＯＭＰＯケア川崎新百合ヶ丘定期巡回【定期巡回・随時対応型訪問介護看護】神奈川県川崎市麻生区万福寺4-1-8グラードビュウ百合丘2階201号室", "url": "https://www.kaigokensaku.mhlw.go.jp/14/index.php?action_kouhyou_detail_004_kani=true&JigyosyoCd=1495600460-00&ServiceCd=760&Type=search", "url2": "https://www.sompocare.com/" }, "geometry": { "type": "Point", "coordinates": [ 139.512796672352579, 35.608117090836295 ] } },
{ "type": "Feature", "properties": { "内容": "ミアヘルサ　定期巡回サービス新百合ヶ丘【定期巡回・随時対応型訪問介護看護】神奈川県川崎市麻生区白鳥1丁目4-1", "url": "https://www.kaigokensaku.mhlw.go.jp/14/index.php?action_kouhyou_detail_004_kani=true&JigyosyoCd=1495600643-00&ServiceCd=760&Type=search", "url2": "https://www.merhalsa.jp/oasis" }, "geometry": { "type": "Point", "coordinates": [ 139.485543, 35.6002379 ] } },
{ "type": "Feature", "properties": { "内容": "巡回ゆらりん【定期巡回・随時対応型訪問介護看護】神奈川県川崎市麻生区岡上4-2-26", "url": "https://www.kaigokensaku.mhlw.go.jp/14/index.php?action_kouhyou_detail_004_kani=true&JigyosyoCd=1495600718-00&ServiceCd=760&Type=search", "url2": "http://yurarin.jp/" }, "geometry": { "type": "Point", "coordinates": [ 139.480518201019748, 35.580456018092086 ] } },
{ "type": "Feature", "properties": { "内容": "定期巡回随時対応型訪問介護看護　スマイルT麻生【定期巡回・随時対応型訪問介護看護】神奈川県川崎市麻生区下麻生2-3-8和気ハウス", "url": "https://www.kaigokensaku.mhlw.go.jp/14/index.php?action_kouhyou_detail_004_kani=true&JigyosyoCd=1495600734-00&ServiceCd=760&Type=search", "url2": "https://c-net.jp/info/archives/3650" }, "geometry": { "type": "Point", "coordinates": [ 139.5071223, 35.5822966 ] } },
{ "type": "Feature", "properties": { "内容": "GTLケアサービス新百合ヶ丘【定期巡回・随時対応型訪問介護看護】神奈川県川崎市麻生区万福寺1丁目12番7号山田ビル3階", "url": "https://www.kaigokensaku.mhlw.go.jp/14/index.php?action_kouhyou_detail_004_kani=true&JigyosyoCd=1495600759-00&ServiceCd=760&Type=search", "url2": null }, "geometry": { "type": "Point", "coordinates": [ 139.505299900000011, 35.6050084 ] } },
{ "type": "Feature", "properties": { "内容": "ひまわり倶楽部　さがみ湖【定期巡回・随時対応型訪問介護看護】神奈川県相模原市緑区寸沢嵐3333-1", "url": "https://www.kaigokensaku.mhlw.go.jp/14/index.php?action_kouhyou_detail_004_kani=true&JigyosyoCd=1462691574-00&ServiceCd=760&Type=search", "url2": "https://ksk-g.jp/" }, "geometry": { "type": "Point", "coordinates": [ 139.197904099999988, 35.6027242 ] } },
{ "type": "Feature", "properties": { "内容": "そよ風定期巡回　さがみはら緑【定期巡回・随時対応型訪問介護看護】神奈川県相模原市緑区二本松4-26-22第一ユーハンビル１０１", "url": "https://www.kaigokensaku.mhlw.go.jp/14/index.php?action_kouhyou_detail_004_kani=true&JigyosyoCd=1492601263-00&ServiceCd=760&Type=search", "url2": "https://www.sykz.co.jp/shisetsu-zaitaku/143855" }, "geometry": { "type": "Point", "coordinates": [ 139.3211, 35.5952732 ] } },
{ "type": "Feature", "properties": { "内容": "ライブラリ相模原定期巡回随時対応型訪問介護看護事業所【定期巡回・随時対応型訪問介護看護】神奈川県相模原市緑区二本松4-8-16ライブラリ橋本二番館", "url": "https://www.kaigokensaku.mhlw.go.jp/14/index.php?action_kouhyou_detail_004_kani=true&JigyosyoCd=1492601826-00&ServiceCd=760&Type=search", "url2": "https://www.living-platform.com/care/49" }, "geometry": { "type": "Point", "coordinates": [ 139.318042600000012, 35.5948621 ] } },
{ "type": "Feature", "properties": { "内容": "定期巡回・随時対応型訪問介護看護　ゆずりは　田名【定期巡回・随時対応型訪問介護看護】神奈川県相模原市中央区田名5878－2", "url": "https://www.kaigokensaku.mhlw.go.jp/14/index.php?action_kouhyou_detail_004_kani=true&JigyosyoCd=1492602014-00&ServiceCd=760&Type=search", "url2": "https://ever-lasting.co.jp/pages/46/" }, "geometry": { "type": "Point", "coordinates": [ 139.338925499999988, 35.540589 ] } },
{ "type": "Feature", "properties": { "内容": "相模原定期巡回サービス【定期巡回・随時対応型訪問介護看護】神奈川県相模原市中央区田名7451-1", "url": "https://www.kaigokensaku.mhlw.go.jp/14/index.php?action_kouhyou_detail_004_kani=true&JigyosyoCd=1492602535-00&ServiceCd=760&Type=search", "url2": null }, "geometry": { "type": "Point", "coordinates": [ 139.3540969, 35.5463647 ] } },
{ "type": "Feature", "properties": { "内容": "相和会訪問看護ステーション【定期巡回・随時対応型訪問介護看護】神奈川県相模原市中央区淵野辺三丁目3番6号第5SKビル内", "url": "https://www.kaigokensaku.mhlw.go.jp/14/index.php?action_kouhyou_detail_004_kani=true&JigyosyoCd=1462690030-00&ServiceCd=760&Type=search", "url2": "https://www.sowa-kai.jp/sowa-houmon/" }, "geometry": { "type": "Point", "coordinates": [ 139.3924046, 35.5713101 ] } },
{ "type": "Feature", "properties": { "内容": "相模原ケアコミュニティそよ風　定期巡回・随時対応型訪問介護看護【定期巡回・随時対応型訪問介護看護】神奈川県相模原市中央区矢部1-5-20相模原ケアコミュニティそよ風", "url": "https://www.kaigokensaku.mhlw.go.jp/14/index.php?action_kouhyou_detail_004_kani=true&JigyosyoCd=1492600711-00&ServiceCd=760&Type=search", "url2": "https://www.sykz.co.jp/shisetsu-zaitaku/143235" }, "geometry": { "type": "Point", "coordinates": [ 139.376076199999943, 35.5731394 ] } },
{ "type": "Feature", "properties": { "内容": "定期巡回・随時対応型訪問介護看護アットプレオ光が丘【定期巡回・随時対応型訪問介護看護】神奈川県相模原市中央区光が丘1-8-7", "url": "https://www.kaigokensaku.mhlw.go.jp/14/index.php?action_kouhyou_detail_004_kani=true&JigyosyoCd=1492602113-00&ServiceCd=760&Type=search", "url2": "https://at-care.co.jp" }, "geometry": { "type": "Point", "coordinates": [ 139.379155700000013, 35.5579074 ] } },
{ "type": "Feature", "properties": { "内容": "ライブラリ淵野辺定期巡回・随時対応型訪問介護看護事業所【定期巡回・随時対応型訪問介護看護】神奈川県相模原市中央区淵野辺4-35-1ライブラリ淵野辺四丁目", "url": "https://www.kaigokensaku.mhlw.go.jp/14/index.php?action_kouhyou_detail_004_kani=true&JigyosyoCd=1492602618-00&ServiceCd=760&Type=search", "url2": "https://care.living-platform.com/facility/63" }, "geometry": { "type": "Point", "coordinates": [ 139.3994379, 35.5689007 ] } },
{ "type": "Feature", "properties": { "内容": "ライブラリ相模大野　定期巡回随時対応型訪問介護看護事業所【定期巡回・随時対応型訪問介護看護】神奈川県相模原市南区相模大野7丁目37-10ライブラリ相模大野南", "url": "https://www.kaigokensaku.mhlw.go.jp/14/index.php?action_kouhyou_detail_004_kani=true&JigyosyoCd=1492601818-00&ServiceCd=760&Type=search", "url2": "http://www.living-platform.com/" }, "geometry": { "type": "Point", "coordinates": [ 139.443264199999987, 35.529139 ] } },
{ "type": "Feature", "properties": { "内容": "そよ風定期巡回　さがみはら南【定期巡回・随時対応型訪問介護看護】神奈川県相模原市南区相模台1丁目8番16号フィールデンス小田急相模原301号室", "url": "https://www.kaigokensaku.mhlw.go.jp/14/index.php?action_kouhyou_detail_004_kani=true&JigyosyoCd=1492601198-00&ServiceCd=760&Type=search", "url2": "https://www.sykz.co.jp/" }, "geometry": { "type": "Point", "coordinates": [ 139.4131162, 35.5187728 ] } },
{ "type": "Feature", "properties": { "内容": "よこすか　みかん【定期巡回・随時対応型訪問介護看護】神奈川県横須賀市長沢１丁目3-15", "url": "https://www.kaigokensaku.mhlw.go.jp/14/index.php?action_kouhyou_detail_004_kani=true&JigyosyoCd=1491900914-00&ServiceCd=760&Type=search", "url2": "https://kango-mikan.com/yokosuka/" }, "geometry": { "type": "Point", "coordinates": [ 139.6757642, 35.2019238 ] } },
{ "type": "Feature", "properties": { "内容": "太陽の家浦賀　定期巡回・随時対応型訪問介護看護【定期巡回・随時対応型訪問介護看護】神奈川県横須賀市浦賀2－3－20太陽の家浦賀", "url": "https://www.kaigokensaku.mhlw.go.jp/14/index.php?action_kouhyou_detail_004_kani=true&JigyosyoCd=1491900492-00&ServiceCd=760&Type=search", "url2": "http://www.ui21.or.jp" }, "geometry": { "type": "Point", "coordinates": [ 139.708719, 35.2538907 ] } },
{ "type": "Feature", "properties": { "内容": "24時間対応型　定期巡回ありがとう【定期巡回・随時対応型訪問介護看護】神奈川県横須賀市武3-2-122階", "url": "https://www.kaigokensaku.mhlw.go.jp/14/index.php?action_kouhyou_detail_004_kani=true&JigyosyoCd=1491901235-00&ServiceCd=760&Type=search", "url2": null }, "geometry": { "type": "Point", "coordinates": [ 139.64870160000001, 35.2261987 ] } },
{ "type": "Feature", "properties": { "内容": "SMC定期巡回・随時対応型ケアステーションひらつか【定期巡回・随時対応型訪問介護看護】神奈川県平塚市真田２丁目６番２７号", "url": "https://www.kaigokensaku.mhlw.go.jp/14/index.php?action_kouhyou_detail_004_kani=true&JigyosyoCd=1492000177-00&ServiceCd=760&Type=search", "url2": "http://www.smcg.jp/care_station_hiratuka/about.html" }, "geometry": { "type": "Point", "coordinates": [ 139.283529300000026, 35.3717853 ] } },
{ "type": "Feature", "properties": { "内容": "高根台ホームヘルプサービス【定期巡回・随時対応型訪問介護看護】神奈川県平塚市高村203番23", "url": "https://www.kaigokensaku.mhlw.go.jp/14/index.php?action_kouhyou_detail_004_kani=true&JigyosyoCd=1492000706-00&ServiceCd=760&Type=search", "url2": "http://www.takanedaihome.or.jp/" }, "geometry": { "type": "Point", "coordinates": [ 139.3063271, 35.3335854 ] } },
{ "type": "Feature", "properties": { "内容": "みどりの園鎌倉【定期巡回・随時対応型訪問介護看護】神奈川県鎌倉市常盤165-8", "url": "https://www.kaigokensaku.mhlw.go.jp/14/index.php?action_kouhyou_detail_004_kani=true&JigyosyoCd=1492100209-00&ServiceCd=760&Type=search", "url2": "https://midorinosono.or.jp/事業者向け情報" }, "geometry": { "type": "Point", "coordinates": [ 139.520684756916808, 35.329760081185903 ] } },
{ "type": "Feature", "properties": { "内容": "定期巡回・随時対応型訪問介護看護ラポール城南【定期巡回・随時対応型訪問介護看護】神奈川県藤沢市城南4-9-8城東ビル１F", "url": "https://www.kaigokensaku.mhlw.go.jp/14/index.php?action_kouhyou_detail_004_kani=true&JigyosyoCd=1492200546-00&ServiceCd=760&Type=search", "url2": "http://www.rapport.or.jp" }, "geometry": { "type": "Point", "coordinates": [ 139.461766300000022, 35.347238 ] } },
{ "type": "Feature", "properties": { "内容": "定期巡回・随時対応型訪問介護看護コンフォータス湘南台【定期巡回・随時対応型訪問介護看護】神奈川県藤沢市湘南台2-23-2", "url": "https://www.kaigokensaku.mhlw.go.jp/14/index.php?action_kouhyou_detail_004_kani=true&JigyosyoCd=1492200694-00&ServiceCd=760&Type=search", "url2": "http://care-net.co.jp" }, "geometry": { "type": "Point", "coordinates": [ 139.4640905, 35.3942517 ] } },
{ "type": "Feature", "properties": { "内容": "リフシア辻堂【定期巡回・随時対応型訪問介護看護】神奈川県藤沢市辻堂5-4-11塩瀬マンション102", "url": "https://www.kaigokensaku.mhlw.go.jp/14/index.php?action_kouhyou_detail_004_kani=true&JigyosyoCd=1492200934-00&ServiceCd=760&Type=search", "url2": null }, "geometry": { "type": "Point", "coordinates": [ 139.4516918, 35.3299255 ] } },
{ "type": "Feature", "properties": { "内容": "定期巡回・随時対応型訪問介護看護ぐるんとびー【定期巡回・随時対応型訪問介護看護】神奈川県藤沢市石川693-6", "url": "https://www.kaigokensaku.mhlw.go.jp/14/index.php?action_kouhyou_detail_004_kani=true&JigyosyoCd=1492201122-00&ServiceCd=760&Type=search", "url2": "https://grundtvig.co.jp/" }, "geometry": { "type": "Point", "coordinates": [ 139.448821400000014, 35.370134299999982 ] } },
{ "type": "Feature", "properties": { "内容": "潤生園ホームヘルプサービス【定期巡回・随時対応型訪問介護看護】神奈川県小田原市蓮正寺９９７-１", "url": "https://www.kaigokensaku.mhlw.go.jp/14/index.php?action_kouhyou_detail_004_kani=true&JigyosyoCd=1492300015-00&ServiceCd=760&Type=search", "url2": "http://www.junseien.jp" }, "geometry": { "type": "Point", "coordinates": [ 139.148525100000029, 35.2848331 ] } },
{ "type": "Feature", "properties": { "内容": "リフシア浜之郷【定期巡回・随時対応型訪問介護看護】神奈川県茅ヶ崎市浜之郷７３８－１", "url": "https://www.kaigokensaku.mhlw.go.jp/14/index.php?action_kouhyou_detail_004_kani=true&JigyosyoCd=1492400278-00&ServiceCd=760&Type=search", "url2": "http://lifsea.co.jp" }, "geometry": { "type": "Point", "coordinates": [ 139.39072550000003, 35.3329339 ] } },
{ "type": "Feature", "properties": { "内容": "有限会社猫の手【定期巡回・随時対応型訪問介護看護】神奈川県逗子市逗子2-6-26逗子駅前クリニックビル3階", "url": "https://www.kaigokensaku.mhlw.go.jp/14/index.php?action_kouhyou_detail_004_kani=true&JigyosyoCd=1492500093-00&ServiceCd=760&Type=search", "url2": "http://www.kaigo-nekonote.jp/nekonote24.html" }, "geometry": { "type": "Point", "coordinates": [ 139.580514507969298, 35.296757532582326 ] } },
{ "type": "Feature", "properties": { "内容": "みかん【定期巡回・随時対応型訪問介護看護】神奈川県三浦市初声町下宮田489-11-3F長嶋ビル3階", "url": "https://www.kaigokensaku.mhlw.go.jp/14/index.php?action_kouhyou_detail_004_kani=true&JigyosyoCd=1492700206-00&ServiceCd=760&Type=search", "url2": "https://kango-mikan.com/" }, "geometry": { "type": "Point", "coordinates": [ 139.6335516, 35.1765817 ] } },
{ "type": "Feature", "properties": { "内容": "医療法人社団　三喜会　介護老人保健施設　ライフプラザ鶴巻【定期巡回・随時対応型訪問介護看護】神奈川県秦野市鶴巻北3-1-3", "url": "https://www.kaigokensaku.mhlw.go.jp/14/index.php?action_kouhyou_detail_004_kani=true&JigyosyoCd=1452880029-00&ServiceCd=760&Type=search", "url2": "http://www.sankikai.or.jp/life-tsurumaki/" }, "geometry": { "type": "Point", "coordinates": [ 139.2761855, 35.3821699 ] } },
{ "type": "Feature", "properties": { "内容": "定期巡回・随時対応型訪問介護看護みちびき【定期巡回・随時対応型訪問介護看護】神奈川県秦野市曽屋二丁目6-30清水ハイツ101号", "url": "https://www.kaigokensaku.mhlw.go.jp/14/index.php?action_kouhyou_detail_004_kani=true&JigyosyoCd=1492800220-00&ServiceCd=760&Type=search", "url2": "https://michibiki-care.jp/" }, "geometry": { "type": "Point", "coordinates": [ 139.227353599999986, 35.3799245 ] } },
{ "type": "Feature", "properties": { "内容": "まるっと・けあ和楽【定期巡回・随時対応型訪問介護看護】神奈川県秦野市緑町15-22", "url": "https://www.kaigokensaku.mhlw.go.jp/14/index.php?action_kouhyou_detail_004_kani=true&JigyosyoCd=1492800360-00&ServiceCd=760&Type=search", "url2": null }, "geometry": { "type": "Point", "coordinates": [ 139.2092901, 35.3753732 ] } },
{ "type": "Feature", "properties": { "内容": "宝命24あつぎ【定期巡回・随時対応型訪問介護看護】厚木市緑ヶ丘5-16-13", "url": "https://www.kaigokensaku.mhlw.go.jp/14/index.php?action_kouhyou_detail_004_kani=true&JigyosyoCd=1492900673-00&ServiceCd=760&Type=search", "url2": "https://homeikango.com/" }, "geometry": { "type": "Point", "coordinates": [ 139.3368735, 35.4527118 ] } },
{ "type": "Feature", "properties": { "内容": "定期巡回・ぷらすわん【定期巡回・随時対応型訪問介護看護】神奈川県大和市林間1-3-3南林間駅前店舗2階", "url": "https://www.kaigokensaku.mhlw.go.jp/14/index.php?action_kouhyou_detail_004_kani=true&JigyosyoCd=1493000614-00&ServiceCd=760&Type=search", "url2": "https://plus-one.help/" }, "geometry": { "type": "Point", "coordinates": [ 139.4504135, 35.4957698 ] } },
{ "type": "Feature", "properties": { "内容": "らんたん【定期巡回・随時対応型訪問介護看護】神奈川県大和市中央3丁目2-30クリオ大和壱番館102号室", "url": "https://www.kaigokensaku.mhlw.go.jp/14/index.php?action_kouhyou_detail_004_kani=true&JigyosyoCd=1493000564-00&ServiceCd=760&Type=search", "url2": "https://ordinarydays.life" }, "geometry": { "type": "Point", "coordinates": [ 139.4558058, 35.4704297 ] } },
{ "type": "Feature", "properties": { "内容": "やまとみかん【定期巡回・随時対応型訪問介護看護】神奈川県大和市南林間2-13-20-101", "url": "https://www.kaigokensaku.mhlw.go.jp/14/index.php?action_kouhyou_detail_004_kani=true&JigyosyoCd=1493000598-00&ServiceCd=760&Type=search", "url2": "https://yamato-mikan.com" }, "geometry": { "type": "Point", "coordinates": [ 139.4455877, 35.4953409 ] } },
{ "type": "Feature", "properties": { "内容": "宝命24【定期巡回・随時対応型訪問介護看護】神奈川県伊勢原市下糟屋3005-2", "url": "https://www.kaigokensaku.mhlw.go.jp/14/index.php?action_kouhyou_detail_004_kani=true&JigyosyoCd=1474001508-00&ServiceCd=760&Type=search", "url2": "https://homeikango.com/" }, "geometry": { "type": "Point", "coordinates": [ 139.320474, 35.4068201 ] } },
{ "type": "Feature", "properties": { "内容": "定期巡回・随時対応型訪問介護看護　絆【定期巡回・随時対応型訪問介護看護】神奈川県伊勢原市高森3004-2", "url": "https://www.kaigokensaku.mhlw.go.jp/14/index.php?action_kouhyou_detail_004_kani=true&JigyosyoCd=1494000126-00&ServiceCd=760&Type=search", "url2": "https://well-age.com/" }, "geometry": { "type": "Point", "coordinates": [ 139.332108853472874, 35.409100418363437 ] } },
{ "type": "Feature", "properties": { "内容": "クローバーいせはら療養支援事業所【定期巡回・随時対応型訪問介護看護】神奈川県伊勢原市上粕屋2545番地1", "url": "https://www.kaigokensaku.mhlw.go.jp/14/index.php?action_kouhyou_detail_004_kani=true&JigyosyoCd=1494000175-00&ServiceCd=760&Type=search", "url2": "https://clover-houmon.jala.co.jp/" }, "geometry": { "type": "Point", "coordinates": [ 139.2912331, 35.4208092 ] } },
{ "type": "Feature", "properties": { "内容": "葉山オハナ　２４在宅サポート【定期巡回・随時対応型訪問介護看護】神奈川県三浦郡葉山町堀内2184-30", "url": "https://www.kaigokensaku.mhlw.go.jp/14/index.php?action_kouhyou_detail_004_kani=true&JigyosyoCd=1491100036-00&ServiceCd=760&Type=search", "url2": "http://www.joyhope-ohana.com/" }, "geometry": { "type": "Point", "coordinates": [ 139.586199500000021, 35.2720886 ] } },
{ "type": "Feature", "properties": { "内容": "２４ヘルパーステーション開成【定期巡回・随時対応型訪問介護看護】神奈川県足柄上郡開成町みなみ5-4-17サウスポート　1階", "url": "https://www.kaigokensaku.mhlw.go.jp/14/index.php?action_kouhyou_detail_004_kani=true&JigyosyoCd=1491400154-00&ServiceCd=760&Type=search", "url2": "http://www.southport.jp" }, "geometry": { "type": "Point", "coordinates": [ 139.128177704368568, 35.320713279480259 ] } },
{ "type": "Feature", "properties": { "内容": "あこもけあ箱根「CASA　ENFERMERA」【定期巡回・随時対応型訪問介護看護】神奈川県足柄下郡箱根町仙石原1291-54あこもけあ箱根「CASA　ENFERMERA」", "url": "https://www.kaigokensaku.mhlw.go.jp/14/index.php?action_kouhyou_detail_004_kani=true&JigyosyoCd=1491500078-00&ServiceCd=760&Type=search", "url2": "http://www.accommocare.com/" }, "geometry": { "type": "Point", "coordinates": [ 139.028053386230482, 35.26437767918982 ] } }
]
}
