{
"type": "FeatureCollection",
"name": "geo_14_特定施設入居者生活介護（軽費老人ホーム）",
"crs": { "type": "name", "properties": { "name": "urn:ogc:def:crs:OGC:1.3:CRS84" } },
"features": [
{ "type": "Feature", "properties": { "内容": "ケアハウスゆうあい【特定施設入居者生活介護（軽費老人ホーム）】神奈川県横浜市戸塚区川上町８４－１", "url": "https://www.kaigokensaku.mhlw.go.jp/14/index.php?action_kouhyou_detail_004_kani=true&JigyosyoCd=1471001550-00&ServiceCd=332&Type=search", "url2": "https://shonanyuuaikai.or.jp/carehouseyuai.html" }, "geometry": { "type": "Point", "coordinates": [ 139.554531008598389, 35.430004860790461 ] } },
{ "type": "Feature", "properties": { "内容": "社会福祉法人白鳳会指定介護付ケアハウス　フォーシーズンズヴィラそよかぜ【特定施設入居者生活介護（軽費老人ホーム）】神奈川県横浜市緑区三保町880", "url": "https://www.kaigokensaku.mhlw.go.jp/14/index.php?action_kouhyou_detail_004_kani=true&JigyosyoCd=1473301321-00&ServiceCd=332&Type=search", "url2": "http://www.4seasons-v.jp/" }, "geometry": { "type": "Point", "coordinates": [ 139.52319030000001, 35.5055605 ] } },
{ "type": "Feature", "properties": { "内容": "ケアハウス　フォンス【特定施設入居者生活介護（軽費老人ホーム）】神奈川県横浜市泉区上飯田町２０８３－１", "url": "https://www.kaigokensaku.mhlw.go.jp/14/index.php?action_kouhyou_detail_004_kani=true&JigyosyoCd=1473600110-00&ServiceCd=332&Type=search", "url2": "https://i-seikoukai.or.jp/facility/595" }, "geometry": { "type": "Point", "coordinates": [ 139.483342, 35.424195200000035 ] } },
{ "type": "Feature", "properties": { "内容": "ケアハウス風知草【特定施設入居者生活介護（軽費老人ホーム）】神奈川県川崎市宮前区野川台3丁目7番1号", "url": "https://www.kaigokensaku.mhlw.go.jp/14/index.php?action_kouhyou_detail_004_kani=true&JigyosyoCd=1475501001-00&ServiceCd=332&Type=search", "url2": "http://www.jurakuen.jp/kawasaki/" }, "geometry": { "type": "Point", "coordinates": [ 139.604139600000053, 35.5749437 ] } },
{ "type": "Feature", "properties": { "内容": "ケアハウス青田風【特定施設入居者生活介護（軽費老人ホーム）】神奈川県川崎市宮前区野川台3-7-1", "url": "https://www.kaigokensaku.mhlw.go.jp/14/index.php?action_kouhyou_detail_004_kani=true&JigyosyoCd=1475500953-00&ServiceCd=332&Type=search", "url2": "http://www.jurakuen.jp/kawasaki/" }, "geometry": { "type": "Point", "coordinates": [ 139.604139600000053, 35.5749437 ] } },
{ "type": "Feature", "properties": { "内容": "軽費老人ホームケアハウス　みたけ【特定施設入居者生活介護（軽費老人ホーム）】神奈川県相模原市中央区下九沢980", "url": "https://www.kaigokensaku.mhlw.go.jp/14/index.php?action_kouhyou_detail_004_kani=true&JigyosyoCd=1472601887-00&ServiceCd=332&Type=search", "url2": "https://mitake.or.jp/kaigo/tokuyou/identification/" }, "geometry": { "type": "Point", "coordinates": [ 139.345678899999939, 35.5744324 ] } },
{ "type": "Feature", "properties": { "内容": "ケアハウス　こもれび【特定施設入居者生活介護（軽費老人ホーム）】神奈川県相模原市南区大野台４－４－３６", "url": "https://www.kaigokensaku.mhlw.go.jp/14/index.php?action_kouhyou_detail_004_kani=true&JigyosyoCd=1472603016-00&ServiceCd=332&Type=search", "url2": "http://www.comolebi.org/" }, "geometry": { "type": "Point", "coordinates": [ 139.402644, 35.5476926 ] } },
{ "type": "Feature", "properties": { "内容": "サンステージ湘南【特定施設入居者生活介護（軽費老人ホーム）】神奈川県平塚市中堂８－１", "url": "https://www.kaigokensaku.mhlw.go.jp/14/index.php?action_kouhyou_detail_004_kani=true&JigyosyoCd=1472001633-00&ServiceCd=332&Type=search", "url2": "https://keishin-kai-honbu.jp/kaigo/pages/63/" }, "geometry": { "type": "Point", "coordinates": [ 139.358600499999966, 35.3344494 ] } },
{ "type": "Feature", "properties": { "内容": "ケアハウス湘南の里【特定施設入居者生活介護（軽費老人ホーム）】神奈川県平塚市万田2-38-1", "url": "https://www.kaigokensaku.mhlw.go.jp/14/index.php?action_kouhyou_detail_004_kani=true&JigyosyoCd=1472004066-00&ServiceCd=332&Type=search", "url2": "http://www.shinkou-kai.or.jp/syounanosato/" }, "geometry": { "type": "Point", "coordinates": [ 139.303386100000012, 35.3273001 ] } },
{ "type": "Feature", "properties": { "内容": "ケアハウスういすたりあ【特定施設入居者生活介護（軽費老人ホーム）】神奈川県平塚市西真土4-23-35", "url": "https://www.kaigokensaku.mhlw.go.jp/14/index.php?action_kouhyou_detail_004_kani=true&JigyosyoCd=1472002631-00&ServiceCd=332&Type=search", "url2": "https://wistaria.jp" }, "geometry": { "type": "Point", "coordinates": [ 139.348906100000022, 35.3641408 ] } },
{ "type": "Feature", "properties": { "内容": "ケアハウス　らんの家【特定施設入居者生活介護（軽費老人ホーム）】神奈川県伊勢原市沼目6丁目1257番地", "url": "https://www.kaigokensaku.mhlw.go.jp/14/index.php?action_kouhyou_detail_004_kani=true&JigyosyoCd=1474000559-00&ServiceCd=332&Type=search", "url2": "http://showyoukai.com/sisetu/ranie/" }, "geometry": { "type": "Point", "coordinates": [ 139.330338200000028, 35.3885651 ] } },
{ "type": "Feature", "properties": { "内容": "つぐみのおかコモンズ【特定施設入居者生活介護（軽費老人ホーム）】神奈川県中郡二宮町富士見が丘2-6-29", "url": "https://www.kaigokensaku.mhlw.go.jp/14/index.php?action_kouhyou_detail_004_kani=true&JigyosyoCd=1471300481-00&ServiceCd=332&Type=search", "url2": "http://jukoukai.jp/tsuguminooka/" }, "geometry": { "type": "Point", "coordinates": [ 139.2603878, 35.3099264 ] } },
{ "type": "Feature", "properties": { "内容": "湘南こいじシニアハイツ【特定施設入居者生活介護（軽費老人ホーム）】神奈川県中郡二宮町山西276-1湘南こいじシニアハイツ", "url": "https://www.kaigokensaku.mhlw.go.jp/14/index.php?action_kouhyou_detail_004_kani=true&JigyosyoCd=1471300606-00&ServiceCd=332&Type=search", "url2": "https://jukoukai.jp/syonankoiji/" }, "geometry": { "type": "Point", "coordinates": [ 139.245164400000021, 35.2926336 ] } }
]
}
