{
"type": "FeatureCollection",
"name": "geo_14_通所リハビリテーション",
"crs": { "type": "name", "properties": { "name": "urn:ogc:def:crs:OGC:1.3:CRS84" } },
"features": [
{ "type": "Feature", "properties": { "内容": "平和病院【通所リハビリテーション】神奈川県横浜市鶴見区東寺尾中台29-1", "url": "https://www.kaigokensaku.mhlw.go.jp/14/index.php?action_kouhyou_detail_004_kani=true&JigyosyoCd=1410100065-00&ServiceCd=160&Type=search", "url2": "http://www.heiwakai.com" }, "geometry": { "type": "Point", "coordinates": [ 139.66544852023776, 35.506790538457793 ] } },
{ "type": "Feature", "properties": { "内容": "うしおだ診療所【通所リハビリテーション】神奈川県横浜市鶴見区本町通1-16-1", "url": "https://www.kaigokensaku.mhlw.go.jp/14/index.php?action_kouhyou_detail_004_kani=true&JigyosyoCd=1410104513-00&ServiceCd=160&Type=search", "url2": "http://www.ushioda-clinic.jp/" }, "geometry": { "type": "Point", "coordinates": [ 139.679729, 35.5026656 ] } },
{ "type": "Feature", "properties": { "内容": "うしおだ老健やすらぎ【通所リハビリテーション】神奈川県横浜市鶴見区矢向１-5-29", "url": "https://www.kaigokensaku.mhlw.go.jp/14/index.php?action_kouhyou_detail_004_kani=true&JigyosyoCd=1450180000-00&ServiceCd=160&Type=search", "url2": "https://www.ushioda-care.jp/" }, "geometry": { "type": "Point", "coordinates": [ 139.678687650401372, 35.529056148247285 ] } },
{ "type": "Feature", "properties": { "内容": "汐田総合病院【通所リハビリテーション】神奈川県横浜市鶴見区矢向1-6-20汐田総合病院3階", "url": "https://www.kaigokensaku.mhlw.go.jp/14/index.php?action_kouhyou_detail_004_kani=true&JigyosyoCd=1410102798-00&ServiceCd=160&Type=search", "url2": "http://www.ushioda.org/" }, "geometry": { "type": "Point", "coordinates": [ 139.678092200000037, 35.5296979 ] } },
{ "type": "Feature", "properties": { "内容": "ふれあい鶴見ホスピタル【通所リハビリテーション】神奈川県横浜市鶴見区東寺尾4-4-22", "url": "https://www.kaigokensaku.mhlw.go.jp/14/index.php?action_kouhyou_detail_004_kani=true&JigyosyoCd=1470101690-00&ServiceCd=160&Type=search", "url2": "http://www.fureai-g.or.jp/tsu/" }, "geometry": { "type": "Point", "coordinates": [ 139.658655899999985, 35.496244 ] } },
{ "type": "Feature", "properties": { "内容": "医療法人社団　藤中整形外科【通所リハビリテーション】神奈川県横浜市神奈川区白幡町６番１９号パレ白楽1階", "url": "https://www.kaigokensaku.mhlw.go.jp/14/index.php?action_kouhyou_detail_004_kani=true&JigyosyoCd=1410203240-00&ServiceCd=160&Type=search", "url2": "http://home.a06.itscom.net/fujinaka/" }, "geometry": { "type": "Point", "coordinates": [ 139.6296089, 35.4917736 ] } },
{ "type": "Feature", "properties": { "内容": "神奈川脳神経外科クリニック【通所リハビリテーション】神奈川県横浜市神奈川区西神奈川1-20-7ビューサイト横浜2F", "url": "https://www.kaigokensaku.mhlw.go.jp/14/index.php?action_kouhyou_detail_004_kani=true&JigyosyoCd=1410204511-00&ServiceCd=160&Type=search", "url2": "https://kanagawa-nsclinic.com/rihabiri/care" }, "geometry": { "type": "Point", "coordinates": [ 139.632316599999967, 35.4801146 ] } },
{ "type": "Feature", "properties": { "内容": "介護老人保健施設　リハリゾートわかたけ【通所リハビリテーション】神奈川県横浜市神奈川区菅田町1826", "url": "https://www.kaigokensaku.mhlw.go.jp/14/index.php?action_kouhyou_detail_004_kani=true&JigyosyoCd=1450280008-00&ServiceCd=160&Type=search", "url2": "http://www.wakatake.net/" }, "geometry": { "type": "Point", "coordinates": [ 139.588004899999987, 35.5004371 ] } },
{ "type": "Feature", "properties": { "内容": "医療法人社団武蔵野会介護老人保健施設牧野ケアセンター【通所リハビリテーション】神奈川県横浜市神奈川区菅田町1481-1", "url": "https://www.kaigokensaku.mhlw.go.jp/14/index.php?action_kouhyou_detail_004_kani=true&JigyosyoCd=1450280057-00&ServiceCd=160&Type=search", "url2": "https://makino-care.jp/" }, "geometry": { "type": "Point", "coordinates": [ 139.5835903, 35.4987659 ] } },
{ "type": "Feature", "properties": { "内容": "介護老人保健施設　神奈川苑【通所リハビリテーション】神奈川県横浜市神奈川区菅田町1989番地", "url": "https://www.kaigokensaku.mhlw.go.jp/14/index.php?action_kouhyou_detail_004_kani=true&JigyosyoCd=1450280032-00&ServiceCd=160&Type=search", "url2": "https://www.kanagawaen.com/" }, "geometry": { "type": "Point", "coordinates": [ 139.588768699999946, 35.495846 ] } },
{ "type": "Feature", "properties": { "内容": "新横浜リハビリテーション病院【通所リハビリテーション】神奈川県横浜市神奈川区菅田町2628-4", "url": "https://www.kaigokensaku.mhlw.go.jp/14/index.php?action_kouhyou_detail_004_kani=true&JigyosyoCd=1410204925-00&ServiceCd=160&Type=search", "url2": "https://www.syr-h.com/" }, "geometry": { "type": "Point", "coordinates": [ 139.59715940000001, 35.4977235 ] } },
{ "type": "Feature", "properties": { "内容": "社会福祉法人恩賜財団済生会支部神奈川県済生会東神奈川リハビリテーション病院【通所リハビリテーション】神奈川県横浜市神奈川区西神奈川1-13-10", "url": "https://www.kaigokensaku.mhlw.go.jp/14/index.php?action_kouhyou_detail_004_kani=true&JigyosyoCd=1410210328-00&ServiceCd=160&Type=search", "url2": "https://www.higashikanagawa.saiseikai.or.jp" }, "geometry": { "type": "Point", "coordinates": [ 139.630712300000027, 35.480565 ] } },
{ "type": "Feature", "properties": { "内容": "介護老人保健施設　ラ・クラルテ【通所リハビリテーション】神奈川県横浜市神奈川区菅田町656-1", "url": "https://www.kaigokensaku.mhlw.go.jp/14/index.php?action_kouhyou_detail_004_kani=true&JigyosyoCd=1450280016-00&ServiceCd=160&Type=search", "url2": "https://hc-mugi.com/" }, "geometry": { "type": "Point", "coordinates": [ 139.573880899999949, 35.4951262 ] } },
{ "type": "Feature", "properties": { "内容": "医療法人明和会亀田病院【通所リハビリテーション】神奈川県横浜市西区御所山町７７番地", "url": "https://www.kaigokensaku.mhlw.go.jp/14/index.php?action_kouhyou_detail_004_kani=true&JigyosyoCd=1410300970-00&ServiceCd=160&Type=search", "url2": "https:www.kameda-hp.jp/" }, "geometry": { "type": "Point", "coordinates": [ 139.6236174, 35.4554407 ] } },
{ "type": "Feature", "properties": { "内容": "医療法人社団愛友会　介護老人保健施設　ハートケア横浜【通所リハビリテーション】神奈川県横浜市西区高島１－４－１８", "url": "https://www.kaigokensaku.mhlw.go.jp/14/index.php?action_kouhyou_detail_004_kani=true&JigyosyoCd=1450380006-00&ServiceCd=160&Type=search", "url2": "https://www.hcyokohama.jp" }, "geometry": { "type": "Point", "coordinates": [ 139.624512099999947, 35.4595559 ] } },
{ "type": "Feature", "properties": { "内容": "医療法人社団敬和会平松整形外科クリニック【通所リハビリテーション】神奈川県横浜市中区千歳町１－２横浜ＴＨビル２０２", "url": "https://www.kaigokensaku.mhlw.go.jp/14/index.php?action_kouhyou_detail_004_kani=true&JigyosyoCd=1410404780-00&ServiceCd=160&Type=search", "url2": "http://www.hiramatsu.or.jp/" }, "geometry": { "type": "Point", "coordinates": [ 139.635198704893497, 35.437998979166643 ] } },
{ "type": "Feature", "properties": { "内容": "石川町整形外科【通所リハビリテーション】神奈川県横浜市中区吉浜町1-2パークスクエア横浜2F", "url": "https://www.kaigokensaku.mhlw.go.jp/14/index.php?action_kouhyou_detail_004_kani=true&JigyosyoCd=1410406678-00&ServiceCd=160&Type=search", "url2": null }, "geometry": { "type": "Point", "coordinates": [ 139.643318565390018, 35.439595426791485 ] } },
{ "type": "Feature", "properties": { "内容": "介護老人保健施設　えきさい横浜【通所リハビリテーション】神奈川県横浜市中区山田町１－１", "url": "https://www.kaigokensaku.mhlw.go.jp/14/index.php?action_kouhyou_detail_004_kani=true&JigyosyoCd=1450480004-00&ServiceCd=160&Type=search", "url2": "https://www.ekisai-yokohama.com" }, "geometry": { "type": "Point", "coordinates": [ 139.634762099999989, 35.4383307 ] } },
{ "type": "Feature", "properties": { "内容": "ふれあい横浜ホスピタル【通所リハビリテーション】神奈川県横浜市中区万代町２－３－３", "url": "https://www.kaigokensaku.mhlw.go.jp/14/index.php?action_kouhyou_detail_004_kani=true&JigyosyoCd=1410401638-00&ServiceCd=160&Type=search", "url2": "https://www.fureai-g.or.jp/fyh/daycare/" }, "geometry": { "type": "Point", "coordinates": [ 139.6354953, 35.4422608 ] } },
{ "type": "Feature", "properties": { "内容": "医療法人博生会　本牧病院付属クリニック【通所リハビリテーション】神奈川県横浜市中区本牧三之谷8-9", "url": "https://www.kaigokensaku.mhlw.go.jp/14/index.php?action_kouhyou_detail_004_kani=true&JigyosyoCd=1410405522-00&ServiceCd=160&Type=search", "url2": "http://www.honmoku-hospital.or.jp/" }, "geometry": { "type": "Point", "coordinates": [ 139.665232300000071, 35.4214913 ] } },
{ "type": "Feature", "properties": { "内容": "医療法人佐藤病院【通所リハビリテーション】神奈川県横浜市南区南太田1-10-3", "url": "https://www.kaigokensaku.mhlw.go.jp/14/index.php?action_kouhyou_detail_004_kani=true&JigyosyoCd=1410500215-00&ServiceCd=160&Type=search", "url2": "http://www.satohospital.com/" }, "geometry": { "type": "Point", "coordinates": [ 139.614680499999963, 35.4358282 ] } },
{ "type": "Feature", "properties": { "内容": "介護老人保健施設レストア横浜【通所リハビリテーション】神奈川県横浜市南区六ッ川3-5-1", "url": "https://www.kaigokensaku.mhlw.go.jp/14/index.php?action_kouhyou_detail_004_kani=true&JigyosyoCd=1450580019-00&ServiceCd=160&Type=search", "url2": "https://restore-y.jp" }, "geometry": { "type": "Point", "coordinates": [ 139.5913737, 35.4330988 ] } },
{ "type": "Feature", "properties": { "内容": "医療法人社団明芳会　イムス横浜狩場脳神経外科病院【通所リハビリテーション】神奈川県横浜市保土ヶ谷区狩場町218番地9", "url": "https://www.kaigokensaku.mhlw.go.jp/14/index.php?action_kouhyou_detail_004_kani=true&JigyosyoCd=1410603381-00&ServiceCd=160&Type=search", "url2": "https://www.karibanouge.com/" }, "geometry": { "type": "Point", "coordinates": [ 139.576492700000017, 35.4336726 ] } },
{ "type": "Feature", "properties": { "内容": "青木整形外科【通所リハビリテーション】神奈川県横浜市保土ヶ谷区星川2-15-12", "url": "https://www.kaigokensaku.mhlw.go.jp/14/index.php?action_kouhyou_detail_004_kani=true&JigyosyoCd=1410610154-00&ServiceCd=160&Type=search", "url2": null }, "geometry": { "type": "Point", "coordinates": [ 139.5904252, 35.4604278 ] } },
{ "type": "Feature", "properties": { "内容": "横浜権太坂中央クリニック【通所リハビリテーション】神奈川県横浜市保土ヶ谷区権太坂三丁目8番16号ロピア権太坂店2階", "url": "https://www.kaigokensaku.mhlw.go.jp/14/index.php?action_kouhyou_detail_004_kani=true&JigyosyoCd=1410610642-00&ServiceCd=160&Type=search", "url2": "https://www.chuoh-cl.jp/" }, "geometry": { "type": "Point", "coordinates": [ 139.575715699999989, 35.4355779 ] } },
{ "type": "Feature", "properties": { "内容": "介護老人保健施設ユトリアム【通所リハビリテーション】神奈川県横浜市保土ケ谷区狩場町200-7", "url": "https://www.kaigokensaku.mhlw.go.jp/14/index.php?action_kouhyou_detail_004_kani=true&JigyosyoCd=1450680009-00&ServiceCd=160&Type=search", "url2": "http://www.yutoriam.com/" }, "geometry": { "type": "Point", "coordinates": [ 139.576351, 35.4403828 ] } },
{ "type": "Feature", "properties": { "内容": "介護老人保健施設　ライフモア保土ヶ谷【通所リハビリテーション】神奈川県横浜市保土ケ谷区新井町291-1", "url": "https://www.kaigokensaku.mhlw.go.jp/14/index.php?action_kouhyou_detail_004_kani=true&JigyosyoCd=1450680025-00&ServiceCd=160&Type=search", "url2": "http://www.lifemore.or.jp" }, "geometry": { "type": "Point", "coordinates": [ 139.558115300000054, 35.4926788 ] } },
{ "type": "Feature", "properties": { "内容": "介護老人保健施設　境木の丘【通所リハビリテーション】神奈川県横浜市保土ケ谷区境木町174-1", "url": "https://www.kaigokensaku.mhlw.go.jp/14/index.php?action_kouhyou_detail_004_kani=true&JigyosyoCd=1450680033-00&ServiceCd=160&Type=search", "url2": "https://www.sakaiginooka.jp/" }, "geometry": { "type": "Point", "coordinates": [ 139.565414520237709, 35.442688844600752 ] } },
{ "type": "Feature", "properties": { "内容": "介護老人保健施設　けいあいの郷　西谷【通所リハビリテーション】神奈川県横浜市保土ケ谷区西谷町1018-2", "url": "https://www.kaigokensaku.mhlw.go.jp/14/index.php?action_kouhyou_detail_004_kani=true&JigyosyoCd=1450680041-00&ServiceCd=160&Type=search", "url2": "http://keiainosato-nishiya.jp/" }, "geometry": { "type": "Point", "coordinates": [ 139.565087299999959, 35.4805416 ] } },
{ "type": "Feature", "properties": { "内容": "横山医院【通所リハビリテーション】神奈川県横浜市保土ヶ谷区峰岡町2-118", "url": "https://www.kaigokensaku.mhlw.go.jp/14/index.php?action_kouhyou_detail_004_kani=true&JigyosyoCd=1410603480-00&ServiceCd=160&Type=search", "url2": "http://clinic-yokoyama.com/" }, "geometry": { "type": "Point", "coordinates": [ 139.596151, 35.4619144 ] } },
{ "type": "Feature", "properties": { "内容": "やそだ整形外科リウマチクリニック【通所リハビリテーション】神奈川県横浜市磯子区洋光台６－７－２７", "url": "https://www.kaigokensaku.mhlw.go.jp/14/index.php?action_kouhyou_detail_004_kani=true&JigyosyoCd=1410702399-00&ServiceCd=160&Type=search", "url2": "https://www.yasoda-clinic.com/" }, "geometry": { "type": "Point", "coordinates": [ 139.596280100000058, 35.372699900000029 ] } },
{ "type": "Feature", "properties": { "内容": "介護老人保健施設　ひとりざわ【通所リハビリテーション】神奈川県横浜市磯子区氷取沢町９３－１", "url": "https://www.kaigokensaku.mhlw.go.jp/14/index.php?action_kouhyou_detail_004_kani=true&JigyosyoCd=1450780023-00&ServiceCd=160&Type=search", "url2": "http://www.kokorocare.net/" }, "geometry": { "type": "Point", "coordinates": [ 139.6083069, 35.3639625 ] } },
{ "type": "Feature", "properties": { "内容": "介護老人保健施設ほのぼの【通所リハビリテーション】神奈川県横浜市磯子区氷取沢町50番地", "url": "https://www.kaigokensaku.mhlw.go.jp/14/index.php?action_kouhyou_detail_004_kani=true&JigyosyoCd=1450780031-00&ServiceCd=160&Type=search", "url2": "https://rouken-honobono.jp/" }, "geometry": { "type": "Point", "coordinates": [ 139.6096956, 35.3655512 ] } },
{ "type": "Feature", "properties": { "内容": "横浜市立脳卒中・神経脊椎センター介護老人保健施設　コスモス【通所リハビリテーション】神奈川県横浜市磯子区滝頭1-2-1", "url": "https://www.kaigokensaku.mhlw.go.jp/14/index.php?action_kouhyou_detail_004_kani=true&JigyosyoCd=1470701184-00&ServiceCd=160&Type=search", "url2": "http://cosmos.jinai.jp/" }, "geometry": { "type": "Point", "coordinates": [ 139.6178079, 35.4220441 ] } },
{ "type": "Feature", "properties": { "内容": "うちのパークサイドクリニック【通所リハビリテーション】神奈川県横浜市磯子区洋光台1-2-20ベルノール洋光台1階", "url": "https://www.kaigokensaku.mhlw.go.jp/14/index.php?action_kouhyou_detail_004_kani=true&JigyosyoCd=1410703306-00&ServiceCd=160&Type=search", "url2": "https://www.uchino-parkside.com" }, "geometry": { "type": "Point", "coordinates": [ 139.59720219999997, 35.3839736 ] } },
{ "type": "Feature", "properties": { "内容": "洋光台中央整形外科クリニック【通所リハビリテーション】神奈川県横浜市磯子区洋光台３-１-３７", "url": "https://www.kaigokensaku.mhlw.go.jp/14/index.php?action_kouhyou_detail_004_kani=true&JigyosyoCd=1410710178-00&ServiceCd=160&Type=search", "url2": "http://www.ycos-clinic.com/" }, "geometry": { "type": "Point", "coordinates": [ 139.5943591, 35.3795146 ] } },
{ "type": "Feature", "properties": { "内容": "医療法人光陽会　横浜磯子介護老人保健施設【通所リハビリテーション】神奈川県横浜市磯子区森１－１６－３", "url": "https://www.kaigokensaku.mhlw.go.jp/14/index.php?action_kouhyou_detail_004_kani=true&JigyosyoCd=1450780015-00&ServiceCd=160&Type=search", "url2": "http://isogorouken.com/" }, "geometry": { "type": "Point", "coordinates": [ 139.614664, 35.3962226 ] } },
{ "type": "Feature", "properties": { "内容": "介護老人保健施設　こもれび【通所リハビリテーション】神奈川県横浜市金沢区釜利谷東5-1-30", "url": "https://www.kaigokensaku.mhlw.go.jp/14/index.php?action_kouhyou_detail_004_kani=true&JigyosyoCd=1450880005-00&ServiceCd=160&Type=search", "url2": "http://www.keisuikai.or.jp/" }, "geometry": { "type": "Point", "coordinates": [ 139.606284800000026, 35.350642 ] } },
{ "type": "Feature", "properties": { "内容": "医療法人社団景翠会　介護老人保健施設　ふるさと【通所リハビリテーション】神奈川県横浜市金沢区柴町３９１－１０", "url": "https://www.kaigokensaku.mhlw.go.jp/14/index.php?action_kouhyou_detail_004_kani=true&JigyosyoCd=1450880039-00&ServiceCd=160&Type=search", "url2": "http://www.keisuikai.or.jp/furusato/" }, "geometry": { "type": "Point", "coordinates": [ 139.635485, 35.3425274 ] } },
{ "type": "Feature", "properties": { "内容": "医療法人社団　協友会　横浜なみきリハビリテーション病院【通所リハビリテーション】神奈川県横浜市金沢区並木2-8-1", "url": "https://www.kaigokensaku.mhlw.go.jp/14/index.php?action_kouhyou_detail_004_kani=true&JigyosyoCd=1410803767-00&ServiceCd=160&Type=search", "url2": "http://www.ynrh.jp/" }, "geometry": { "type": "Point", "coordinates": [ 139.637968099999966, 35.3626969 ] } },
{ "type": "Feature", "properties": { "内容": "介護老人保健施設　能見台パートリア【通所リハビリテーション】神奈川県横浜市金沢区能見台東１０番１号", "url": "https://www.kaigokensaku.mhlw.go.jp/14/index.php?action_kouhyou_detail_004_kani=true&JigyosyoCd=1450880013-00&ServiceCd=160&Type=search", "url2": "https://www.kowakai-patria.com" }, "geometry": { "type": "Point", "coordinates": [ 139.624294299999974, 35.3575584 ] } },
{ "type": "Feature", "properties": { "内容": "介護老人保健施設　あさひな【通所リハビリテーション】神奈川県横浜市金沢区朝比奈町107", "url": "https://www.kaigokensaku.mhlw.go.jp/14/index.php?action_kouhyou_detail_004_kani=true&JigyosyoCd=1450880021-00&ServiceCd=160&Type=search", "url2": "http://www.rouken-asahina.jp/daycare.html" }, "geometry": { "type": "Point", "coordinates": [ 139.591725, 35.3315187 ] } },
{ "type": "Feature", "properties": { "内容": "やまびこクリニック　通所リハビリテーション【通所リハビリテーション】神奈川県横浜市港北区高田町2503-1", "url": "https://www.kaigokensaku.mhlw.go.jp/14/index.php?action_kouhyou_detail_004_kani=true&JigyosyoCd=1410905851-00&ServiceCd=160&Type=search", "url2": "https://www.yamamoto-kinen.or.jp/yamabiko_tsusho/" }, "geometry": { "type": "Point", "coordinates": [ 139.614194600000019, 35.5584436 ] } },
{ "type": "Feature", "properties": { "内容": "介護老人保健施設　ウェルケア新吉田【通所リハビリテーション】神奈川県横浜市港北区新吉田町６０２８－１", "url": "https://www.kaigokensaku.mhlw.go.jp/14/index.php?action_kouhyou_detail_004_kani=true&JigyosyoCd=1450980011-00&ServiceCd=160&Type=search", "url2": "http://www.welcare.or.jp" }, "geometry": { "type": "Point", "coordinates": [ 139.603579699999955, 35.5391995 ] } },
{ "type": "Feature", "properties": { "内容": "新横浜介護老人保健施設　カメリア【通所リハビリテーション】神奈川県横浜市港北区新羽町４０７６－５", "url": "https://www.kaigokensaku.mhlw.go.jp/14/index.php?action_kouhyou_detail_004_kani=true&JigyosyoCd=1450980029-00&ServiceCd=160&Type=search", "url2": "http://www.camellia-kanei.or.jp/" }, "geometry": { "type": "Point", "coordinates": [ 139.601935799999978, 35.5293201 ] } },
{ "type": "Feature", "properties": { "内容": "医療法人社団哺育会　介護老人保健施設　ナーシングプラザ港北【通所リハビリテーション】神奈川県横浜市港北区新吉田町３１７０", "url": "https://www.kaigokensaku.mhlw.go.jp/14/index.php?action_kouhyou_detail_004_kani=true&JigyosyoCd=1450980045-00&ServiceCd=160&Type=search", "url2": "https://np-kouhoku.jp" }, "geometry": { "type": "Point", "coordinates": [ 139.606396200000063, 35.5345696 ] } },
{ "type": "Feature", "properties": { "内容": "福田医院通所リハビリテーション・セレッソ日吉【通所リハビリテーション】神奈川県横浜市港北区日吉本町３丁目２６－１７セレッソ日吉", "url": "https://www.kaigokensaku.mhlw.go.jp/14/index.php?action_kouhyou_detail_004_kani=true&JigyosyoCd=1470900638-00&ServiceCd=160&Type=search", "url2": "http://shinwakai.net/ch_rehabilitation/index.html" }, "geometry": { "type": "Point", "coordinates": [ 139.63790359999993, 35.5500369 ] } },
{ "type": "Feature", "properties": { "内容": "ささき整形外科　通所リハビリテーション【通所リハビリテーション】神奈川県横浜市港北区菊名1-8-12", "url": "https://www.kaigokensaku.mhlw.go.jp/14/index.php?action_kouhyou_detail_004_kani=true&JigyosyoCd=1410910422-00&ServiceCd=160&Type=search", "url2": "https://www.sasakiseikei.jp/outpatient-rehabilitation" }, "geometry": { "type": "Point", "coordinates": [ 139.631211600000029, 35.4996298 ] } },
{ "type": "Feature", "properties": { "内容": "横浜市総合保健医療センター【通所リハビリテーション】神奈川県横浜市港北区鳥山町1735", "url": "https://www.kaigokensaku.mhlw.go.jp/14/index.php?action_kouhyou_detail_004_kani=true&JigyosyoCd=1470902584-00&ServiceCd=160&Type=search", "url2": "https://yccc.jp/care/daycare/" }, "geometry": { "type": "Point", "coordinates": [ 139.609216100000026, 35.509769400000025 ] } },
{ "type": "Feature", "properties": { "内容": "くにもとライフサポートクリニック【通所リハビリテーション】神奈川県横浜市港北区樽町4-4-44", "url": "https://www.kaigokensaku.mhlw.go.jp/14/index.php?action_kouhyou_detail_004_kani=true&JigyosyoCd=1410910315-00&ServiceCd=160&Type=search", "url2": "http://www.kunimoto-lsc.com" }, "geometry": { "type": "Point", "coordinates": [ 139.637898700000051, 35.5280124 ] } },
{ "type": "Feature", "properties": { "内容": "介護老人保健施設　ベルディーナ【通所リハビリテーション】神奈川県横浜市港北区高田西3丁目1番12号", "url": "https://www.kaigokensaku.mhlw.go.jp/14/index.php?action_kouhyou_detail_004_kani=true&JigyosyoCd=1450980078-00&ServiceCd=160&Type=search", "url2": "https://kanagawa-chiga.jp/" }, "geometry": { "type": "Point", "coordinates": [ 139.6206895, 35.5538274 ] } },
{ "type": "Feature", "properties": { "内容": "介護老人保健施設ファイン新横浜【通所リハビリテーション】神奈川県横浜市港北区新羽町１０４１－３", "url": "https://www.kaigokensaku.mhlw.go.jp/14/index.php?action_kouhyou_detail_004_kani=true&JigyosyoCd=1450980060-00&ServiceCd=160&Type=search", "url2": "http://takeuchikai.net/fine-shinyoko/" }, "geometry": { "type": "Point", "coordinates": [ 139.607152199999973, 35.5182102 ] } },
{ "type": "Feature", "properties": { "内容": "医療法人横浜博萌会　西横浜国際総合病院【通所リハビリテーション】神奈川県横浜市戸塚区汲沢町56", "url": "https://www.kaigokensaku.mhlw.go.jp/14/index.php?action_kouhyou_detail_004_kani=true&JigyosyoCd=1411003458-00&ServiceCd=160&Type=search", "url2": "https://www.nishiyokohama.or.jp/homecare/visit_reha" }, "geometry": { "type": "Point", "coordinates": [ 139.514311499999963, 35.3847061 ] } },
{ "type": "Feature", "properties": { "内容": "十慈堂病院【通所リハビリテーション】神奈川県横浜市戸塚区南舞岡１－２３－９", "url": "https://www.kaigokensaku.mhlw.go.jp/14/index.php?action_kouhyou_detail_004_kani=true&JigyosyoCd=1411003847-00&ServiceCd=160&Type=search", "url2": "https://www.jujidou.or.jp" }, "geometry": { "type": "Point", "coordinates": [ 139.557350300000053, 35.3961996 ] } },
{ "type": "Feature", "properties": { "内容": "ふれあい東戸塚ホスピタル【通所リハビリテーション】神奈川県横浜市戸塚区上品濃16-8", "url": "https://www.kaigokensaku.mhlw.go.jp/14/index.php?action_kouhyou_detail_004_kani=true&JigyosyoCd=1411005024-00&ServiceCd=160&Type=search", "url2": "https://www.fureai-g.or.jp/ht-hosp/" }, "geometry": { "type": "Point", "coordinates": [ 139.548061299999972, 35.438849 ] } },
{ "type": "Feature", "properties": { "内容": "介護老人保健施設　ソフィア横浜【通所リハビリテーション】神奈川県横浜市戸塚区東俣野町９１１", "url": "https://www.kaigokensaku.mhlw.go.jp/14/index.php?action_kouhyou_detail_004_kani=true&JigyosyoCd=1451080001-00&ServiceCd=160&Type=search", "url2": "https://www.sophia-pma.jp/pages/55/" }, "geometry": { "type": "Point", "coordinates": [ 139.492585700000063, 35.3643645 ] } },
{ "type": "Feature", "properties": { "内容": "介護老人保健施設　ヒューマンライフケア横浜【通所リハビリテーション】神奈川県横浜市戸塚区戸塚町1800-3", "url": "https://www.kaigokensaku.mhlw.go.jp/14/index.php?action_kouhyou_detail_004_kani=true&JigyosyoCd=1451080019-00&ServiceCd=160&Type=search", "url2": "https://www.hlc-yokohama.com/" }, "geometry": { "type": "Point", "coordinates": [ 139.517219599999976, 35.3819621 ] } },
{ "type": "Feature", "properties": { "内容": "介護老人保健施設　グリーンワーフ東戸塚【通所リハビリテーション】神奈川県横浜市戸塚区川上町１５１", "url": "https://www.kaigokensaku.mhlw.go.jp/14/index.php?action_kouhyou_detail_004_kani=true&JigyosyoCd=1451080027-00&ServiceCd=160&Type=search", "url2": "https://www.greenwharf.com/" }, "geometry": { "type": "Point", "coordinates": [ 139.55243059999998, 35.428292200000016 ] } },
{ "type": "Feature", "properties": { "内容": "医療法人社団協友会　介護老人保健施設　ハートケア横浜小雀【通所リハビリテーション】神奈川県横浜市戸塚区小雀町２２４８－１", "url": "https://www.kaigokensaku.mhlw.go.jp/14/index.php?action_kouhyou_detail_004_kani=true&JigyosyoCd=1451080035-00&ServiceCd=160&Type=search", "url2": "https://www.hc-kosuzume.jp/" }, "geometry": { "type": "Point", "coordinates": [ 139.505926199999976, 35.3717219 ] } },
{ "type": "Feature", "properties": { "内容": "医療法人積愛会　千の星・よこはま【通所リハビリテーション】神奈川県横浜市戸塚区柏尾町１４３４－３", "url": "https://www.kaigokensaku.mhlw.go.jp/14/index.php?action_kouhyou_detail_004_kani=true&JigyosyoCd=1451080076-00&ServiceCd=160&Type=search", "url2": "https://www.y-maiokahp.or.jp/sennohoshi-y/" }, "geometry": { "type": "Point", "coordinates": [ 139.552556, 35.4112753 ] } },
{ "type": "Feature", "properties": { "内容": "介護老人保健施設　うららの里【通所リハビリテーション】神奈川県横浜市戸塚区深谷町１４１２－１１", "url": "https://www.kaigokensaku.mhlw.go.jp/14/index.php?action_kouhyou_detail_004_kani=true&JigyosyoCd=1451080050-00&ServiceCd=160&Type=search", "url2": "https://www.kenyoukai.or.jp/urara/" }, "geometry": { "type": "Point", "coordinates": [ 139.494713300000058, 35.3895831 ] } },
{ "type": "Feature", "properties": { "内容": "医療法人社団　明芳会　イムス横浜東戸塚総合リハビリテーション病院【通所リハビリテーション】神奈川県横浜市戸塚区川上町６９０－２", "url": "https://www.kaigokensaku.mhlw.go.jp/14/index.php?action_kouhyou_detail_004_kani=true&JigyosyoCd=1411002740-00&ServiceCd=160&Type=search", "url2": "https://ims-site.jp/yokohama_higashitotsuka_reha/reha/service/tsushiyo.html" }, "geometry": { "type": "Point", "coordinates": [ 139.544272800000044, 35.4344468 ] } },
{ "type": "Feature", "properties": { "内容": "介護老人保健施設　ヒルズ東戸塚【通所リハビリテーション】神奈川県横浜市戸塚区上品濃１６番地７", "url": "https://www.kaigokensaku.mhlw.go.jp/14/index.php?action_kouhyou_detail_004_kani=true&JigyosyoCd=1451080068-00&ServiceCd=160&Type=search", "url2": "http://www.fureai-g.or.jp/hills/" }, "geometry": { "type": "Point", "coordinates": [ 139.547491900000068, 35.4388129 ] } },
{ "type": "Feature", "properties": { "内容": "介護老人保健施設リハパーク舞岡【通所リハビリテーション】神奈川県横浜市戸塚区舞岡町3048-4", "url": "https://www.kaigokensaku.mhlw.go.jp/14/index.php?action_kouhyou_detail_004_kani=true&JigyosyoCd=1451080084-00&ServiceCd=160&Type=search", "url2": "https://www.shinzen-fukushi.jp/rehapark/" }, "geometry": { "type": "Point", "coordinates": [ 139.5545783, 35.404893 ] } },
{ "type": "Feature", "properties": { "内容": "医療法人社団成仁会長田病院【通所リハビリテーション】神奈川県横浜市港南区丸山台2-2-10", "url": "https://www.kaigokensaku.mhlw.go.jp/14/index.php?action_kouhyou_detail_004_kani=true&JigyosyoCd=1413103314-00&ServiceCd=160&Type=search", "url2": "http://www.osadahp.jp/category" }, "geometry": { "type": "Point", "coordinates": [ 139.5716534, 35.3994833 ] } },
{ "type": "Feature", "properties": { "内容": "かず整形外科クリニック【通所リハビリテーション】神奈川県横浜市港南区丸山台2-26-17", "url": "https://www.kaigokensaku.mhlw.go.jp/14/index.php?action_kouhyou_detail_004_kani=true&JigyosyoCd=1413110434-00&ServiceCd=160&Type=search", "url2": "http://www.kazz-seikei.com/sp/" }, "geometry": { "type": "Point", "coordinates": [ 139.567229200000043, 35.3974375 ] } },
{ "type": "Feature", "properties": { "内容": "介護老人保健施設　すこやか【通所リハビリテーション】神奈川県横浜市港南区下永谷5-81-18", "url": "https://www.kaigokensaku.mhlw.go.jp/14/index.php?action_kouhyou_detail_004_kani=true&JigyosyoCd=1453180015-00&ServiceCd=160&Type=search", "url2": "http://www.meikakai-sukoyaka.jp/" }, "geometry": { "type": "Point", "coordinates": [ 139.560658200000034, 35.4103866 ] } },
{ "type": "Feature", "properties": { "内容": "医療法人　健生会　朝倉クリニック【通所リハビリテーション】神奈川県横浜市港南区上大岡西2-13-16", "url": "https://www.kaigokensaku.mhlw.go.jp/14/index.php?action_kouhyou_detail_004_kani=true&JigyosyoCd=1413104312-00&ServiceCd=160&Type=search", "url2": "http://asakura-c.com/" }, "geometry": { "type": "Point", "coordinates": [ 139.593855304368645, 35.405506773241441 ] } },
{ "type": "Feature", "properties": { "内容": "介護老人保健施設　オアシス【通所リハビリテーション】神奈川県横浜市港南区野庭町146番地1", "url": "https://www.kaigokensaku.mhlw.go.jp/14/index.php?action_kouhyou_detail_004_kani=true&JigyosyoCd=1453180023-00&ServiceCd=160&Type=search", "url2": "https://www.koufuukai.or.jp/" }, "geometry": { "type": "Point", "coordinates": [ 139.575498700000026, 35.3976411 ] } },
{ "type": "Feature", "properties": { "内容": "介護老人保健施設　けいあいの郷　今宿【通所リハビリテーション】神奈川県横浜市旭区今宿東町525-2", "url": "https://www.kaigokensaku.mhlw.go.jp/14/index.php?action_kouhyou_detail_004_kani=true&JigyosyoCd=1453280039-00&ServiceCd=160&Type=search", "url2": "https://keiainosato-imajyuku.jp/" }, "geometry": { "type": "Point", "coordinates": [ 139.53281770000001, 35.4869849 ] } },
{ "type": "Feature", "properties": { "内容": "介護老人保健施設　四季の森【通所リハビリテーション】神奈川県横浜市旭区上白根町778-1", "url": "https://www.kaigokensaku.mhlw.go.jp/14/index.php?action_kouhyou_detail_004_kani=true&JigyosyoCd=1453280054-00&ServiceCd=160&Type=search", "url2": "http://www.shikinomori-keiai.jp" }, "geometry": { "type": "Point", "coordinates": [ 139.53836130000002, 35.4998251 ] } },
{ "type": "Feature", "properties": { "内容": "医療法人社団協友会　介護老人保健施設　ハートケア左近山【通所リハビリテーション】神奈川県横浜市旭区市沢町971-1", "url": "https://www.kaigokensaku.mhlw.go.jp/14/index.php?action_kouhyou_detail_004_kani=true&JigyosyoCd=1453280062-00&ServiceCd=160&Type=search", "url2": "https://hcsakonyama.jp" }, "geometry": { "type": "Point", "coordinates": [ 139.561193095106518, 35.454501131428074 ] } },
{ "type": "Feature", "properties": { "内容": "介護老人保健施設　ほほえみの郷横浜【通所リハビリテーション】神奈川県横浜市旭区下川井町２２０－１", "url": "https://www.kaigokensaku.mhlw.go.jp/14/index.php?action_kouhyou_detail_004_kani=true&JigyosyoCd=1453280120-00&ServiceCd=160&Type=search", "url2": "https://www.hohoemi-sato.com" }, "geometry": { "type": "Point", "coordinates": [ 139.51689680000004, 35.4848128 ] } },
{ "type": "Feature", "properties": { "内容": "医療法人社団恵生会　介護老人保健施設　リハセンターさわやか【通所リハビリテーション】神奈川県横浜市旭区白根町932-1", "url": "https://www.kaigokensaku.mhlw.go.jp/14/index.php?action_kouhyou_detail_004_kani=true&JigyosyoCd=1453280021-00&ServiceCd=160&Type=search", "url2": "https://www.med-keiseikai.or.jp/riha/" }, "geometry": { "type": "Point", "coordinates": [ 139.548932599999944, 35.4984558 ] } },
{ "type": "Feature", "properties": { "内容": "介護老人保健施設ケアホーム横浜【通所リハビリテーション】神奈川県横浜市旭区上白根町1436-1", "url": "https://www.kaigokensaku.mhlw.go.jp/14/index.php?action_kouhyou_detail_004_kani=true&JigyosyoCd=1453280179-00&ServiceCd=160&Type=search", "url2": "https://yokohama.rouken.jp/" }, "geometry": { "type": "Point", "coordinates": [ 139.527075599999989, 35.5006089 ] } },
{ "type": "Feature", "properties": { "内容": "あさひ本宿クリニック【通所リハビリテーション】神奈川県横浜市旭区本宿町90番30", "url": "https://www.kaigokensaku.mhlw.go.jp/14/index.php?action_kouhyou_detail_004_kani=true&JigyosyoCd=1473202255-00&ServiceCd=160&Type=search", "url2": "https://genkimura-group.jp/overview/misatomakotokai/rehabili/" }, "geometry": { "type": "Point", "coordinates": [ 139.539714799999956, 35.4664541 ] } },
{ "type": "Feature", "properties": { "内容": "介護老人保健施設シオンよこはま【通所リハビリテーション】神奈川県横浜市旭区川井宿町１６８－１", "url": "https://www.kaigokensaku.mhlw.go.jp/14/index.php?action_kouhyou_detail_004_kani=true&JigyosyoCd=1453280153-00&ServiceCd=160&Type=search", "url2": "http://rehabili-park.com/sisetu/shion/" }, "geometry": { "type": "Point", "coordinates": [ 139.5157513, 35.4976685 ] } },
{ "type": "Feature", "properties": { "内容": "裕香整形外科【通所リハビリテーション】神奈川県横浜市緑区長津田3-1-43", "url": "https://www.kaigokensaku.mhlw.go.jp/14/index.php?action_kouhyou_detail_004_kani=true&JigyosyoCd=1413310406-00&ServiceCd=160&Type=search", "url2": "http://yukaortho.jp" }, "geometry": { "type": "Point", "coordinates": [ 139.4950964, 35.5346012 ] } },
{ "type": "Feature", "properties": { "内容": "介護老人保健施設みどりの杜【通所リハビリテーション】神奈川県横浜市緑区西八朔町99-1", "url": "https://www.kaigokensaku.mhlw.go.jp/14/index.php?action_kouhyou_detail_004_kani=true&JigyosyoCd=1453380011-00&ServiceCd=160&Type=search", "url2": "http://www.midorinokaze.biz" }, "geometry": { "type": "Point", "coordinates": [ 139.5313701, 35.5267968 ] } },
{ "type": "Feature", "properties": { "内容": "医療法人社団三喜会介護老人保健施設ライフプラザ新緑【通所リハビリテーション】神奈川県横浜市緑区長津田町5708", "url": "https://www.kaigokensaku.mhlw.go.jp/14/index.php?action_kouhyou_detail_004_kani=true&JigyosyoCd=1453380029-00&ServiceCd=160&Type=search", "url2": "https://www.sankikai.or.jp/life-shinmidori" }, "geometry": { "type": "Point", "coordinates": [ 139.482561799999985, 35.5120419 ] } },
{ "type": "Feature", "properties": { "内容": "介護老人保健施設　葵の園・ヨコハマ【通所リハビリテーション】神奈川県横浜市緑区三保町１１８２", "url": "https://www.kaigokensaku.mhlw.go.jp/14/index.php?action_kouhyou_detail_004_kani=true&JigyosyoCd=1453380052-00&ServiceCd=160&Type=search", "url2": "https://www.aoikai.jp/yokohama/" }, "geometry": { "type": "Point", "coordinates": [ 139.5211266, 35.5111959 ] } },
{ "type": "Feature", "properties": { "内容": "医療法人社団桜栄会　横浜セラトピア【通所リハビリテーション】神奈川県横浜市緑区北八朔町１３２３", "url": "https://www.kaigokensaku.mhlw.go.jp/14/index.php?action_kouhyou_detail_004_kani=true&JigyosyoCd=1453380037-00&ServiceCd=160&Type=search", "url2": "https://www.oueikai.or.jp/" }, "geometry": { "type": "Point", "coordinates": [ 139.5410554, 35.5252331 ] } },
{ "type": "Feature", "properties": { "内容": "医療法人社団　哺育会　横浜相原病院【通所リハビリテーション】神奈川県横浜市瀬谷区阿久和南2-3-12", "url": "https://www.kaigokensaku.mhlw.go.jp/14/index.php?action_kouhyou_detail_004_kani=true&JigyosyoCd=1413403151-00&ServiceCd=160&Type=search", "url2": "http://www.yokohama-aihara.jp" }, "geometry": { "type": "Point", "coordinates": [ 139.50349570000003, 35.4467037 ] } },
{ "type": "Feature", "properties": { "内容": "介護老人保健施設　恵の杜【通所リハビリテーション】神奈川県横浜市瀬谷区阿久和南3-29-1", "url": "https://www.kaigokensaku.mhlw.go.jp/14/index.php?action_kouhyou_detail_004_kani=true&JigyosyoCd=1453480027-00&ServiceCd=160&Type=search", "url2": "https://keisei-fukushikai.com/reha" }, "geometry": { "type": "Point", "coordinates": [ 139.504320799999959, 35.4375381 ] } },
{ "type": "Feature", "properties": { "内容": "医療法人社団善仁会　介護老人保健施設　ハートフル瀬谷【通所リハビリテーション】神奈川県横浜市瀬谷区中屋敷2-2-1", "url": "https://www.kaigokensaku.mhlw.go.jp/14/index.php?action_kouhyou_detail_004_kani=true&JigyosyoCd=1453480035-00&ServiceCd=160&Type=search", "url2": "https://www.zenjinkai-group.jp/zenjinkai/care_center/heartful/" }, "geometry": { "type": "Point", "coordinates": [ 139.4790491, 35.4804455 ] } },
{ "type": "Feature", "properties": { "内容": "介護老人保健施設　宮沢の里　はなもも苑【通所リハビリテーション】神奈川県横浜市瀬谷区宮沢4-13-1", "url": "https://www.kaigokensaku.mhlw.go.jp/14/index.php?action_kouhyou_detail_004_kani=true&JigyosyoCd=1453480001-00&ServiceCd=160&Type=search", "url2": "https://hanamomoen.jp/" }, "geometry": { "type": "Point", "coordinates": [ 139.488926523942581, 35.447791595668683 ] } },
{ "type": "Feature", "properties": { "内容": "医療法人社団協友会　介護老人保健施設　リハビリポート横浜【通所リハビリテーション】神奈川県横浜市栄区公田町1050-2", "url": "https://www.kaigokensaku.mhlw.go.jp/14/index.php?action_kouhyou_detail_004_kani=true&JigyosyoCd=1453580001-00&ServiceCd=160&Type=search", "url2": "https://rp-yokohama.jp/" }, "geometry": { "type": "Point", "coordinates": [ 139.561780499999941, 35.3499079 ] } },
{ "type": "Feature", "properties": { "内容": "湘南グリーン介護老人保健施設　上郷【通所リハビリテーション】神奈川県横浜市栄区上郷町１０４５－１", "url": "https://www.kaigokensaku.mhlw.go.jp/14/index.php?action_kouhyou_detail_004_kani=true&JigyosyoCd=1453580016-00&ServiceCd=160&Type=search", "url2": "https://soukoukai.jp/pages/34" }, "geometry": { "type": "Point", "coordinates": [ 139.578587299999981, 35.3566516 ] } },
{ "type": "Feature", "properties": { "内容": "ケアポート・田谷【通所リハビリテーション】神奈川県横浜市栄区田谷町２０３０－３", "url": "https://www.kaigokensaku.mhlw.go.jp/14/index.php?action_kouhyou_detail_004_kani=true&JigyosyoCd=1453585008-00&ServiceCd=160&Type=search", "url2": "https://careport-taya.synology.me/webtest/" }, "geometry": { "type": "Point", "coordinates": [ 139.517425199999934, 35.3726746 ] } },
{ "type": "Feature", "properties": { "内容": "野村医院【通所リハビリテーション】神奈川県横浜市栄区笠間５丁目３１番２４号", "url": "https://www.kaigokensaku.mhlw.go.jp/14/index.php?action_kouhyou_detail_004_kani=true&JigyosyoCd=1413501319-00&ServiceCd=160&Type=search", "url2": "https：//www.nomura－med.jp" }, "geometry": { "type": "Point", "coordinates": [ 139.637963899999988, 35.4436739 ] } },
{ "type": "Feature", "properties": { "内容": "しんぜんクリニック【通所リハビリテーション】神奈川県横浜市泉区弥生台16-1相鉄ライフやよい台1F", "url": "https://www.kaigokensaku.mhlw.go.jp/14/index.php?action_kouhyou_detail_004_kani=true&JigyosyoCd=1413610169-00&ServiceCd=160&Type=search", "url2": "https://www.shinzen-fukushi.jp/clinic/reha_room/" }, "geometry": { "type": "Point", "coordinates": [ 139.5072131, 35.429735700000016 ] } },
{ "type": "Feature", "properties": { "内容": "緑園ゆきひろ整形外科【通所リハビリテーション】神奈川県横浜市泉区緑園3-11-5", "url": "https://www.kaigokensaku.mhlw.go.jp/14/index.php?action_kouhyou_detail_004_kani=true&JigyosyoCd=1413610185-00&ServiceCd=160&Type=search", "url2": "http://www.yukihiro-seikei.com/tusyo.html" }, "geometry": { "type": "Point", "coordinates": [ 139.523057900000026, 35.4206288 ] } },
{ "type": "Feature", "properties": { "内容": "いずみ野整形外科【通所リハビリテーション】神奈川県横浜市泉区和泉町5627-1サザンヒルズいずみ野1F", "url": "https://www.kaigokensaku.mhlw.go.jp/14/index.php?action_kouhyou_detail_004_kani=true&JigyosyoCd=1413610300-00&ServiceCd=160&Type=search", "url2": "https://izumino-seikei.com/" }, "geometry": { "type": "Point", "coordinates": [ 139.4934979, 35.4284075 ] } },
{ "type": "Feature", "properties": { "内容": "介護老人保健施設阿久和鳳荘【通所リハビリテーション】神奈川県横浜市泉区新橋町１７８３", "url": "https://www.kaigokensaku.mhlw.go.jp/14/index.php?action_kouhyou_detail_004_kani=true&JigyosyoCd=1453680006-00&ServiceCd=160&Type=search", "url2": "http://www.hoyukai.org/ootori/" }, "geometry": { "type": "Point", "coordinates": [ 139.511267299999986, 35.4423986 ] } },
{ "type": "Feature", "properties": { "内容": "介護老人保健施設　やよい台仁【通所リハビリテーション】神奈川県横浜市泉区弥生台５５－５５", "url": "https://www.kaigokensaku.mhlw.go.jp/14/index.php?action_kouhyou_detail_004_kani=true&JigyosyoCd=1453680030-00&ServiceCd=160&Type=search", "url2": "https://yayoidai-jin.jp/" }, "geometry": { "type": "Point", "coordinates": [ 139.503479199999987, 35.4260839 ] } },
{ "type": "Feature", "properties": { "内容": "介護老人保健施設ゆめが丘【通所リハビリテーション】神奈川県横浜市泉区和泉町1202", "url": "https://www.kaigokensaku.mhlw.go.jp/14/index.php?action_kouhyou_detail_004_kani=true&JigyosyoCd=1453680071-00&ServiceCd=160&Type=search", "url2": "https://www.rou-yumegaoka.jp/" }, "geometry": { "type": "Point", "coordinates": [ 139.486547800000011, 35.3994631 ] } },
{ "type": "Feature", "properties": { "内容": "横浜いずみ介護老人保健施設【通所リハビリテーション】神奈川県横浜市泉区上飯田町３８７３－１", "url": "https://www.kaigokensaku.mhlw.go.jp/14/index.php?action_kouhyou_detail_004_kani=true&JigyosyoCd=1453680022-00&ServiceCd=160&Type=search", "url2": "https://izumidai.net/izurou" }, "geometry": { "type": "Point", "coordinates": [ 139.483672500000011, 35.4311387 ] } },
{ "type": "Feature", "properties": { "内容": "医療法人社団純正会　介護老人保健施設　エスポワール和泉【通所リハビリテーション】神奈川県横浜市泉区和泉町2604-1", "url": "https://www.kaigokensaku.mhlw.go.jp/14/index.php?action_kouhyou_detail_004_kani=true&JigyosyoCd=1453680048-00&ServiceCd=160&Type=search", "url2": "https://www.esp-izumi.com/" }, "geometry": { "type": "Point", "coordinates": [ 139.4901109, 35.4074917 ] } },
{ "type": "Feature", "properties": { "内容": "介護老人保健施設きららの里【通所リハビリテーション】神奈川県横浜市泉区中田町3462-4", "url": "https://www.kaigokensaku.mhlw.go.jp/14/index.php?action_kouhyou_detail_004_kani=true&JigyosyoCd=1453680055-00&ServiceCd=160&Type=search", "url2": "https://www.kenyoukai.or.jp" }, "geometry": { "type": "Point", "coordinates": [ 139.502101499999981, 35.4249979 ] } },
{ "type": "Feature", "properties": { "内容": "うしく整形外科クリニック【通所リハビリテーション】神奈川県横浜市青葉区美しが丘１－１３－１", "url": "https://www.kaigokensaku.mhlw.go.jp/14/index.php?action_kouhyou_detail_004_kani=true&JigyosyoCd=1413704392-00&ServiceCd=160&Type=search", "url2": "http://ushiku-clinic.com" }, "geometry": { "type": "Point", "coordinates": [ 139.555847710450706, 35.579071300897894 ] } },
{ "type": "Feature", "properties": { "内容": "脇田整形外科【通所リハビリテーション】神奈川県横浜市青葉区あざみ野２－９－１１サンサーラあざみ野ビル４階", "url": "https://www.kaigokensaku.mhlw.go.jp/14/index.php?action_kouhyou_detail_004_kani=true&JigyosyoCd=1413305083-00&ServiceCd=160&Type=search", "url2": "http://www.wakitaseikeigeka.com/" }, "geometry": { "type": "Point", "coordinates": [ 139.552350499999989, 35.5680113 ] } },
{ "type": "Feature", "properties": { "内容": "医療法人社団　明芳会　江田記念病院【通所リハビリテーション】神奈川県横浜市青葉区あざみ野南１－１", "url": "https://www.kaigokensaku.mhlw.go.jp/14/index.php?action_kouhyou_detail_004_kani=true&JigyosyoCd=1413703162-00&ServiceCd=160&Type=search", "url2": "https://www.ims.gr.jp/edakinen/" }, "geometry": { "type": "Point", "coordinates": [ 139.553148, 35.5598539 ] } },
{ "type": "Feature", "properties": { "内容": "介護老人保健施設　青葉の丘【通所リハビリテーション】神奈川県横浜市青葉区元石川町６５６８", "url": "https://www.kaigokensaku.mhlw.go.jp/14/index.php?action_kouhyou_detail_004_kani=true&JigyosyoCd=1453780012-00&ServiceCd=160&Type=search", "url2": "https://www.aobanooka.com/" }, "geometry": { "type": "Point", "coordinates": [ 139.537545200000068, 35.5834421 ] } },
{ "type": "Feature", "properties": { "内容": "介護老人保健施設　横浜シルバープラザ【通所リハビリテーション】神奈川県横浜市青葉区鉄町2075番地5", "url": "https://www.kaigokensaku.mhlw.go.jp/14/index.php?action_kouhyou_detail_004_kani=true&JigyosyoCd=1453780053-00&ServiceCd=160&Type=search", "url2": "https://www.silverplaza.jp/" }, "geometry": { "type": "Point", "coordinates": [ 139.526424300000031, 35.5687271 ] } },
{ "type": "Feature", "properties": { "内容": "医療法人　社団協友会　介護老人保健施設　横浜あおばの里【通所リハビリテーション】神奈川県横浜市青葉区鉄町１３７５", "url": "https://www.kaigokensaku.mhlw.go.jp/14/index.php?action_kouhyou_detail_004_kani=true&JigyosyoCd=1453780020-00&ServiceCd=160&Type=search", "url2": "http://www.aobanosato.com/" }, "geometry": { "type": "Point", "coordinates": [ 139.524758099999985, 35.5635917 ] } },
{ "type": "Feature", "properties": { "内容": "介護老人保健施設リハリゾート青葉【通所リハビリテーション】神奈川県横浜市青葉区奈良４－６－１３", "url": "https://www.kaigokensaku.mhlw.go.jp/14/index.php?action_kouhyou_detail_004_kani=true&JigyosyoCd=1453780046-00&ServiceCd=160&Type=search", "url2": "https://wakatake.net/" }, "geometry": { "type": "Point", "coordinates": [ 139.48268250000001, 35.5504997 ] } },
{ "type": "Feature", "properties": { "内容": "介護老人保健施設　プラチナ・ヴィラ青葉台【通所リハビリテーション】神奈川県横浜市青葉区鴨志田町75-1", "url": "https://www.kaigokensaku.mhlw.go.jp/14/index.php?action_kouhyou_detail_004_kani=true&JigyosyoCd=1453780072-00&ServiceCd=160&Type=search", "url2": "http://www.platinum-villa.jp/" }, "geometry": { "type": "Point", "coordinates": [ 139.5116956, 35.5603238 ] } },
{ "type": "Feature", "properties": { "内容": "すみれが丘そよかぜクリニック【通所リハビリテーション】神奈川県横浜市都筑区すみれが丘１３－３夢別邸すみれが丘", "url": "https://www.kaigokensaku.mhlw.go.jp/14/index.php?action_kouhyou_detail_004_kani=true&JigyosyoCd=1413810074-00&ServiceCd=160&Type=search", "url2": "https://www.soyokaze-clinic.jp/rehabilitation/" }, "geometry": { "type": "Point", "coordinates": [ 139.5767768, 35.5656994 ] } },
{ "type": "Feature", "properties": { "内容": "ウェルケアわきた整形外科【通所リハビリテーション】神奈川県横浜市都筑区仲町台5-1-9仲町台ウェルケアビル　3F・4F", "url": "https://www.kaigokensaku.mhlw.go.jp/14/index.php?action_kouhyou_detail_004_kani=true&JigyosyoCd=1413810405-00&ServiceCd=160&Type=search", "url2": "http://www.wakitaseikeigeka.com" }, "geometry": { "type": "Point", "coordinates": [ 139.585946, 35.5350656 ] } },
{ "type": "Feature", "properties": { "内容": "医療法人　健水会　荏田介護老人保健施設　あすなろ【通所リハビリテーション】神奈川県横浜市都筑区荏田南町4247", "url": "https://www.kaigokensaku.mhlw.go.jp/14/index.php?action_kouhyou_detail_004_kani=true&JigyosyoCd=1450980052-00&ServiceCd=160&Type=search", "url2": "http://www.kensuikai-asunaro.or.jp" }, "geometry": { "type": "Point", "coordinates": [ 139.565044299999954, 35.5553102 ] } },
{ "type": "Feature", "properties": { "内容": "介護老人保健施設　都筑シニアセンター【通所リハビリテーション】神奈川県横浜市都筑区東山田町1357", "url": "https://www.kaigokensaku.mhlw.go.jp/14/index.php?action_kouhyou_detail_004_kani=true&JigyosyoCd=1453880002-00&ServiceCd=160&Type=search", "url2": "http://www.tuduki-senior-c.com" }, "geometry": { "type": "Point", "coordinates": [ 139.603886399999965, 35.5601286 ] } },
{ "type": "Feature", "properties": { "内容": "介護老人保健施設　都筑ハートフルステーション【通所リハビリテーション】神奈川県横浜市都筑区大棚町74-9", "url": "https://www.kaigokensaku.mhlw.go.jp/14/index.php?action_kouhyou_detail_004_kani=true&JigyosyoCd=1453880028-00&ServiceCd=160&Type=search", "url2": "https://www.katsujinkai.org/heartful/" }, "geometry": { "type": "Point", "coordinates": [ 139.597396900000035, 35.5492533 ] } },
{ "type": "Feature", "properties": { "内容": "介護老人保健施設　若葉が丘【通所リハビリテーション】神奈川県横浜市都筑区川和町2674-1", "url": "https://www.kaigokensaku.mhlw.go.jp/14/index.php?action_kouhyou_detail_004_kani=true&JigyosyoCd=1453880036-00&ServiceCd=160&Type=search", "url2": "http://www.e-wakaba.jp/" }, "geometry": { "type": "Point", "coordinates": [ 139.548143500000037, 35.5384399 ] } },
{ "type": "Feature", "properties": { "内容": "横浜茅ヶ崎老人保健施設【通所リハビリテーション】神奈川県横浜市都筑区茅ケ崎東５－８－７", "url": "https://www.kaigokensaku.mhlw.go.jp/14/index.php?action_kouhyou_detail_004_kani=true&JigyosyoCd=1453880010-00&ServiceCd=160&Type=search", "url2": "http://www.myclinic.ne.jp/sinyokohama/pc/free2.html" }, "geometry": { "type": "Point", "coordinates": [ 139.584545738098086, 35.54742792338218 ] } },
{ "type": "Feature", "properties": { "内容": "医療法人社団　朝菊会　介護老人保健施設　ヒルトップ池辺【通所リハビリテーション】神奈川県横浜市都筑区池辺町２２１８", "url": "https://www.kaigokensaku.mhlw.go.jp/14/index.php?action_kouhyou_detail_004_kani=true&JigyosyoCd=1453880044-00&ServiceCd=160&Type=search", "url2": "https://itofukushikai.com/" }, "geometry": { "type": "Point", "coordinates": [ 139.56906129999993, 35.5267 ] } },
{ "type": "Feature", "properties": { "内容": "馬嶋病院【通所リハビリテーション】神奈川県川崎市川崎区日進町24番地15", "url": "https://www.kaigokensaku.mhlw.go.jp/14/index.php?action_kouhyou_detail_004_kani=true&JigyosyoCd=1415000153-00&ServiceCd=160&Type=search", "url2": "http://majima-hospital.or.jp/" }, "geometry": { "type": "Point", "coordinates": [ 139.6939549, 35.5243956 ] } },
{ "type": "Feature", "properties": { "内容": "医療法人啓和会　野末整形外科歯科内科【通所リハビリテーション】神奈川県川崎市川崎区小田５－１－３", "url": "https://www.kaigokensaku.mhlw.go.jp/14/index.php?action_kouhyou_detail_004_kani=true&JigyosyoCd=1415002712-00&ServiceCd=160&Type=search", "url2": "http://www.keiwa-kai.or.jp/" }, "geometry": { "type": "Point", "coordinates": [ 139.703143299999965, 35.5117278 ] } },
{ "type": "Feature", "properties": { "内容": "川崎医療生活協同組合　大師診療所【通所リハビリテーション】神奈川県川崎市川崎区大師町６－８", "url": "https://www.kaigokensaku.mhlw.go.jp/14/index.php?action_kouhyou_detail_004_kani=true&JigyosyoCd=1415002738-00&ServiceCd=160&Type=search", "url2": "http://www.daishi-shinnryoujo.org/index.html" }, "geometry": { "type": "Point", "coordinates": [ 139.731012599999985, 35.5336889 ] } },
{ "type": "Feature", "properties": { "内容": "介護老人保健施設　葵の園・川崎【通所リハビリテーション】神奈川県川崎市川崎区小田栄2-1-6", "url": "https://www.kaigokensaku.mhlw.go.jp/14/index.php?action_kouhyou_detail_004_kani=true&JigyosyoCd=1455080015-00&ServiceCd=160&Type=search", "url2": "https://www.aoikai.jp/kawasaki/" }, "geometry": { "type": "Point", "coordinates": [ 139.709287200000063, 35.5126026 ] } },
{ "type": "Feature", "properties": { "内容": "介護老人保健施設　葵の園・川崎南部【通所リハビリテーション】神奈川県川崎市川崎区田町2-9-2", "url": "https://www.kaigokensaku.mhlw.go.jp/14/index.php?action_kouhyou_detail_004_kani=true&JigyosyoCd=1455080031-00&ServiceCd=160&Type=search", "url2": "http://www.aoikai.jp/kawasakinanbu/" }, "geometry": { "type": "Point", "coordinates": [ 139.746108899999967, 35.5343032 ] } },
{ "type": "Feature", "properties": { "内容": "介護老人保健施設　千の風・川崎【通所リハビリテーション】神奈川県川崎市幸区小向町15-25", "url": "https://www.kaigokensaku.mhlw.go.jp/14/index.php?action_kouhyou_detail_004_kani=true&JigyosyoCd=1455180013-00&ServiceCd=160&Type=search", "url2": "http://www.kenjin.or.jp/sennokaze/kawasaki/index.html" }, "geometry": { "type": "Point", "coordinates": [ 139.6959872, 35.547895 ] } },
{ "type": "Feature", "properties": { "内容": "生駒クリニックデイケアサービス【通所リハビリテーション】神奈川県川崎市幸区南加瀬4-27-6", "url": "https://www.kaigokensaku.mhlw.go.jp/14/index.php?action_kouhyou_detail_004_kani=true&JigyosyoCd=1475101224-00&ServiceCd=160&Type=search", "url2": "https://www.ikomacl.com/" }, "geometry": { "type": "Point", "coordinates": [ 139.6611739, 35.5426908 ] } },
{ "type": "Feature", "properties": { "内容": "島脳神経外科整形外科医院【通所リハビリテーション】神奈川県川崎市中原区井田杉山町２９－１０", "url": "https://www.kaigokensaku.mhlw.go.jp/14/index.php?action_kouhyou_detail_004_kani=true&JigyosyoCd=1415201926-00&ServiceCd=160&Type=search", "url2": "http://www.shima-clinic.com" }, "geometry": { "type": "Point", "coordinates": [ 139.644199699999945, 35.5674504 ] } },
{ "type": "Feature", "properties": { "内容": "はなまるクリニック【通所リハビリテーション】神奈川県川崎市中原区小杉町2丁目313番地ポン・ルテェール小杉1階", "url": "https://www.kaigokensaku.mhlw.go.jp/14/index.php?action_kouhyou_detail_004_kani=true&JigyosyoCd=1415210935-00&ServiceCd=160&Type=search", "url2": "http://www.hanamaru-cl.jp/" }, "geometry": { "type": "Point", "coordinates": [ 139.656901445395931, 35.581862366380037 ] } },
{ "type": "Feature", "properties": { "内容": "ふるや耳鼻咽喉科整形外科医院【通所リハビリテーション】神奈川県川崎市中原区西加瀬4-12", "url": "https://www.kaigokensaku.mhlw.go.jp/14/index.php?action_kouhyou_detail_004_kani=true&JigyosyoCd=1415202791-00&ServiceCd=160&Type=search", "url2": "https://www.furuya-jibika-seikei.jp/" }, "geometry": { "type": "Point", "coordinates": [ 139.659851166270414, 35.562875404203993 ] } },
{ "type": "Feature", "properties": { "内容": "介護老人保健施設　葵の園・武蔵小杉【通所リハビリテーション】神奈川県川崎市中原区今井西町2-58", "url": "https://www.kaigokensaku.mhlw.go.jp/14/index.php?action_kouhyou_detail_004_kani=true&JigyosyoCd=1455280011-00&ServiceCd=160&Type=search", "url2": "https://www.aoikai.jp/musashikosugi/" }, "geometry": { "type": "Point", "coordinates": [ 139.6482542, 35.5767655 ] } },
{ "type": "Feature", "properties": { "内容": "介護老人保健施設　たかつ【通所リハビリテーション】神奈川県川崎市高津区子母口４９８－２", "url": "https://www.kaigokensaku.mhlw.go.jp/14/index.php?action_kouhyou_detail_004_kani=true&JigyosyoCd=1455380001-00&ServiceCd=160&Type=search", "url2": "https://sounkai.com" }, "geometry": { "type": "Point", "coordinates": [ 139.6324727, 35.5724079 ] } },
{ "type": "Feature", "properties": { "内容": "介護老人保健施設　樹の丘【通所リハビリテーション】神奈川県川崎市高津区久地4-19-1", "url": "https://www.kaigokensaku.mhlw.go.jp/14/index.php?action_kouhyou_detail_004_kani=true&JigyosyoCd=1455380019-00&ServiceCd=160&Type=search", "url2": "https://kinooka.com/" }, "geometry": { "type": "Point", "coordinates": [ 139.593572, 35.6089829 ] } },
{ "type": "Feature", "properties": { "内容": "介護老人保健施設　ベルサンテ【通所リハビリテーション】神奈川県川崎市高津区久末703-4", "url": "https://www.kaigokensaku.mhlw.go.jp/14/index.php?action_kouhyou_detail_004_kani=true&JigyosyoCd=1455380035-00&ServiceCd=160&Type=search", "url2": "https://belsante.or.jp/" }, "geometry": { "type": "Point", "coordinates": [ 139.61891154083105, 35.569804238753818 ] } },
{ "type": "Feature", "properties": { "内容": "介護老人保健施設　ゆい【通所リハビリテーション】神奈川県川崎市高津区新作3-7-1", "url": "https://www.kaigokensaku.mhlw.go.jp/14/index.php?action_kouhyou_detail_004_kani=true&JigyosyoCd=1455380027-00&ServiceCd=160&Type=search", "url2": "https://www.kaigo-yui.jp/" }, "geometry": { "type": "Point", "coordinates": [ 139.61755960000005, 35.5848783 ] } },
{ "type": "Feature", "properties": { "内容": "よみうりランドケアセンター【通所リハビリテーション】神奈川県川崎市多摩区菅仙谷4-1-3", "url": "https://www.kaigokensaku.mhlw.go.jp/14/index.php?action_kouhyou_detail_004_kani=true&JigyosyoCd=1455480041-00&ServiceCd=160&Type=search", "url2": "http://www.landcare.jp/" }, "geometry": { "type": "Point", "coordinates": [ 139.522899813244635, 35.621866485906395 ] } },
{ "type": "Feature", "properties": { "内容": "よみうりランドケアセンター（ユニットケア型）【通所リハビリテーション】神奈川県川崎市多摩区菅仙谷4-1-3", "url": "https://www.kaigokensaku.mhlw.go.jp/14/index.php?action_kouhyou_detail_004_kani=true&JigyosyoCd=1455480058-00&ServiceCd=160&Type=search", "url2": "http://www.landcare.jp/" }, "geometry": { "type": "Point", "coordinates": [ 139.5206253, 35.6212778 ] } },
{ "type": "Feature", "properties": { "内容": "介護老人保健施設　三田あすみの丘【通所リハビリテーション】神奈川県川崎市多摩区三田1丁目14番2号", "url": "https://www.kaigokensaku.mhlw.go.jp/14/index.php?action_kouhyou_detail_004_kani=true&JigyosyoCd=1455480033-00&ServiceCd=160&Type=search", "url2": "https://www.misasakai.or.jp/shisetsu/mitaasuminooka.php" }, "geometry": { "type": "Point", "coordinates": [ 139.543626600000039, 35.6111686 ] } },
{ "type": "Feature", "properties": { "内容": "川本整形外科【通所リハビリテーション】神奈川県川崎市宮前区宮前平２－１－３", "url": "https://www.kaigokensaku.mhlw.go.jp/14/index.php?action_kouhyou_detail_004_kani=true&JigyosyoCd=1415502158-00&ServiceCd=160&Type=search", "url2": "https://kawamoto-ortho.com" }, "geometry": { "type": "Point", "coordinates": [ 139.583935273016351, 35.585638902347462 ] } },
{ "type": "Feature", "properties": { "内容": "SOL整形外科スポーツクリニック【通所リハビリテーション】神奈川県川崎市宮前区東有馬5-1-2メディカルプラザD東有馬3F、2F", "url": "https://www.kaigokensaku.mhlw.go.jp/14/index.php?action_kouhyou_detail_004_kani=true&JigyosyoCd=1415510482-00&ServiceCd=160&Type=search", "url2": "https://sol-clinic.jp" }, "geometry": { "type": "Point", "coordinates": [ 139.591690062565618, 35.570978299336197 ] } },
{ "type": "Feature", "properties": { "内容": "介護老人保健施設　ろうけん宮前【通所リハビリテーション】神奈川県川崎市宮前区水沢2丁目20番1号", "url": "https://www.kaigokensaku.mhlw.go.jp/14/index.php?action_kouhyou_detail_004_kani=true&JigyosyoCd=1455580022-00&ServiceCd=160&Type=search", "url2": "http://www.rouken-miyamae.jp/" }, "geometry": { "type": "Point", "coordinates": [ 139.538414200000034, 35.5921215 ] } },
{ "type": "Feature", "properties": { "内容": "老人保健施設レストア川崎【通所リハビリテーション】神奈川県川崎市宮前区犬蔵２－２５－９", "url": "https://www.kaigokensaku.mhlw.go.jp/14/index.php?action_kouhyou_detail_004_kani=true&JigyosyoCd=1455580041-00&ServiceCd=160&Type=search", "url2": "https://restore-k.jp" }, "geometry": { "type": "Point", "coordinates": [ 139.5600258, 35.5860963 ] } },
{ "type": "Feature", "properties": { "内容": "帝京大学老人保健センター【通所リハビリテーション】神奈川県川崎市宮前区野川本町２－１３－６", "url": "https://www.kaigokensaku.mhlw.go.jp/14/index.php?action_kouhyou_detail_004_kani=true&JigyosyoCd=1455580006-00&ServiceCd=160&Type=search", "url2": "https://teikyo.jp/teikyo-rouken/" }, "geometry": { "type": "Point", "coordinates": [ 139.616115460713218, 35.576066175532389 ] } },
{ "type": "Feature", "properties": { "内容": "介護老人保健施設　プラチナ・ヴィラ宮前【通所リハビリテーション】神奈川県川崎市宮前区南野川3丁目23番1号", "url": "https://www.kaigokensaku.mhlw.go.jp/14/index.php?action_kouhyou_detail_004_kani=true&JigyosyoCd=1455580030-00&ServiceCd=160&Type=search", "url2": "http://www.t-group.net" }, "geometry": { "type": "Point", "coordinates": [ 139.612472199999985, 35.569730600000014 ] } },
{ "type": "Feature", "properties": { "内容": "たま日吉台病院通所リハビリテーション【通所リハビリテーション】神奈川県川崎市麻生区王禅寺1105番地", "url": "https://www.kaigokensaku.mhlw.go.jp/14/index.php?action_kouhyou_detail_004_kani=true&JigyosyoCd=1415600671-00&ServiceCd=160&Type=search", "url2": "https://tamahiyoshidai.or.jp" }, "geometry": { "type": "Point", "coordinates": [ 139.5261702, 35.5865168 ] } },
{ "type": "Feature", "properties": { "内容": "介護老人保健施設　アクアピア新百合【通所リハビリテーション】神奈川県川崎市麻生区黒川３１８", "url": "https://www.kaigokensaku.mhlw.go.jp/14/index.php?action_kouhyou_detail_004_kani=true&JigyosyoCd=1455680020-00&ServiceCd=160&Type=search", "url2": "http://www.aquapia.or.jp/" }, "geometry": { "type": "Point", "coordinates": [ 139.469100700000013, 35.6129087 ] } },
{ "type": "Feature", "properties": { "内容": "新百合ケ丘介護老人保健施設　つくしの里【通所リハビリテーション】神奈川県川崎市麻生区上麻生３－１４－２０", "url": "https://www.kaigokensaku.mhlw.go.jp/14/index.php?action_kouhyou_detail_004_kani=true&JigyosyoCd=1455680012-00&ServiceCd=160&Type=search", "url2": "https://www.reimeikai.care" }, "geometry": { "type": "Point", "coordinates": [ 139.50184420000005, 35.5984998 ] } },
{ "type": "Feature", "properties": { "内容": "医療法人財団　明理会　介護老人保健施設　相模原ロイヤルケアセンター【通所リハビリテーション】神奈川県相模原市緑区大島380ｰ1", "url": "https://www.kaigokensaku.mhlw.go.jp/14/index.php?action_kouhyou_detail_004_kani=true&JigyosyoCd=1452680080-00&ServiceCd=160&Type=search", "url2": "https://ims.gr.jp/sagamihara_royal/" }, "geometry": { "type": "Point", "coordinates": [ 139.310501499999987, 35.5820734 ] } },
{ "type": "Feature", "properties": { "内容": "瀬戸の森　通所リハビリテーション【通所リハビリテーション】神奈川県相模原市緑区与瀬1091", "url": "https://www.kaigokensaku.mhlw.go.jp/14/index.php?action_kouhyou_detail_004_kani=true&JigyosyoCd=1471700250-00&ServiceCd=160&Type=search", "url2": "http://simeido-kajiwaraiin.jp/" }, "geometry": { "type": "Point", "coordinates": [ 139.19007590978697, 35.616201149253726 ] } },
{ "type": "Feature", "properties": { "内容": "老人保健施設　なごみの里【通所リハビリテーション】神奈川県相模原市緑区牧野８１１０－２", "url": "https://www.kaigokensaku.mhlw.go.jp/14/index.php?action_kouhyou_detail_004_kani=true&JigyosyoCd=1451780006-00&ServiceCd=160&Type=search", "url2": "https://www.fujino-hp.or.jp/nagomi" }, "geometry": { "type": "Point", "coordinates": [ 139.133264100000019, 35.5920842 ] } },
{ "type": "Feature", "properties": { "内容": "介護老人保健施設　ケアガーデンさがみ湖【通所リハビリテーション】神奈川県相模原市緑区寸沢嵐3333-1", "url": "https://www.kaigokensaku.mhlw.go.jp/14/index.php?action_kouhyou_detail_004_kani=true&JigyosyoCd=1451780014-00&ServiceCd=160&Type=search", "url2": "https://caregarden.xsrv.jp/" }, "geometry": { "type": "Point", "coordinates": [ 139.206771200000077, 35.598163900000017 ] } },
{ "type": "Feature", "properties": { "内容": "介護老人保健施設　グリーンヒルズ相模原【通所リハビリテーション】神奈川県相模原市緑区大島1583-1", "url": "https://www.kaigokensaku.mhlw.go.jp/14/index.php?action_kouhyou_detail_004_kani=true&JigyosyoCd=1452680007-00&ServiceCd=160&Type=search", "url2": "https://koyu.or.jp/hills/" }, "geometry": { "type": "Point", "coordinates": [ 139.3242864, 35.5752418 ] } },
{ "type": "Feature", "properties": { "内容": "晃友リハビリテーション館【通所リハビリテーション】神奈川県相模原市緑区大島1605-1", "url": "https://www.kaigokensaku.mhlw.go.jp/14/index.php?action_kouhyou_detail_004_kani=true&JigyosyoCd=1472603990-00&ServiceCd=160&Type=search", "url2": "https://koyu.or.jp/rehab/" }, "geometry": { "type": "Point", "coordinates": [ 139.3229976, 35.5748697 ] } },
{ "type": "Feature", "properties": { "内容": "田名老人保健施設　光生【通所リハビリテーション】神奈川県相模原市中央区田名7654-1", "url": "https://www.kaigokensaku.mhlw.go.jp/14/index.php?action_kouhyou_detail_004_kani=true&JigyosyoCd=1452680031-00&ServiceCd=160&Type=search", "url2": "https://www.tokujukai.or.jp/kousei/" }, "geometry": { "type": "Point", "coordinates": [ 139.349485100000038, 35.5449458 ] } },
{ "type": "Feature", "properties": { "内容": "医療法人社団仁和会　介護老人保健施設　とき【通所リハビリテーション】神奈川県相模原市中央区相模原4-11-5", "url": "https://www.kaigokensaku.mhlw.go.jp/14/index.php?action_kouhyou_detail_004_kani=true&JigyosyoCd=1452680072-00&ServiceCd=160&Type=search", "url2": "https://jinwakai-toki.com" }, "geometry": { "type": "Point", "coordinates": [ 139.3778426, 35.577072 ] } },
{ "type": "Feature", "properties": { "内容": "医療法人社団小松会　介護老人保健施設　清泉の郷【通所リハビリテーション】神奈川県相模原市中央区上溝1132-1", "url": "https://www.kaigokensaku.mhlw.go.jp/14/index.php?action_kouhyou_detail_004_kani=true&JigyosyoCd=1452680056-00&ServiceCd=160&Type=search", "url2": "http://www.seisen.komatsukai.com" }, "geometry": { "type": "Point", "coordinates": [ 139.374668899999961, 35.5444585 ] } },
{ "type": "Feature", "properties": { "内容": "上溝介護老人保健施設　いずみ【通所リハビリテーション】神奈川県相模原市中央区上溝6-18-40", "url": "https://www.kaigokensaku.mhlw.go.jp/14/index.php?action_kouhyou_detail_004_kani=true&JigyosyoCd=1452680064-00&ServiceCd=160&Type=search", "url2": "https://izumi.meiwa-gr.jp/day" }, "geometry": { "type": "Point", "coordinates": [ 139.357000699999986, 35.5544772 ] } },
{ "type": "Feature", "properties": { "内容": "相和会介護老人保健施設　青葉の郷【通所リハビリテーション】神奈川県相模原市中央区青葉３－３６－１", "url": "https://www.kaigokensaku.mhlw.go.jp/14/index.php?action_kouhyou_detail_004_kani=true&JigyosyoCd=1452680049-00&ServiceCd=160&Type=search", "url2": "https://www.sowa-kai.jp/aoba/" }, "geometry": { "type": "Point", "coordinates": [ 139.389723, 35.5486652 ] } },
{ "type": "Feature", "properties": { "内容": "介護老人保健施設　相模大野【通所リハビリテーション】神奈川県相模原市南区豊町17-36", "url": "https://www.kaigokensaku.mhlw.go.jp/14/index.php?action_kouhyou_detail_004_kani=true&JigyosyoCd=1452680015-00&ServiceCd=160&Type=search", "url2": "https://www.sagamioono.or.jp" }, "geometry": { "type": "Point", "coordinates": [ 139.427386800000022, 35.5282729 ] } },
{ "type": "Feature", "properties": { "内容": "介護老人保健施設　のどか【通所リハビリテーション】神奈川県相模原市南区新磯野５－３６－１", "url": "https://www.kaigokensaku.mhlw.go.jp/14/index.php?action_kouhyou_detail_004_kani=true&JigyosyoCd=1452680023-00&ServiceCd=160&Type=search", "url2": "https://www.smg-net.com/nodoka" }, "geometry": { "type": "Point", "coordinates": [ 139.401661800000056, 35.5128441 ] } },
{ "type": "Feature", "properties": { "内容": "あおき整形外科【通所リハビリテーション】神奈川県相模原市南区上鶴間本町４−４８−２４相模大野メディカルヴィレッジA棟", "url": "https://www.kaigokensaku.mhlw.go.jp/14/index.php?action_kouhyou_detail_004_kani=true&JigyosyoCd=1412608198-00&ServiceCd=160&Type=search", "url2": "https://www.aoki-op.jp/" }, "geometry": { "type": "Point", "coordinates": [ 139.442676, 35.5315253 ] } },
{ "type": "Feature", "properties": { "内容": "さがみ林間病院【通所リハビリテーション】神奈川県相模原市南区上鶴間７－９－１", "url": "https://www.kaigokensaku.mhlw.go.jp/14/index.php?action_kouhyou_detail_004_kani=true&JigyosyoCd=1412611796-00&ServiceCd=160&Type=search", "url2": "https://www.rinkan-hp.com/" }, "geometry": { "type": "Point", "coordinates": [ 139.4419727, 35.5204009 ] } },
{ "type": "Feature", "properties": { "内容": "あきやま医院【通所リハビリテーション】神奈川県横須賀市根岸町1-9-9久里浜スカイマンション2階", "url": "https://www.kaigokensaku.mhlw.go.jp/14/index.php?action_kouhyou_detail_004_kani=true&JigyosyoCd=1411907310-00&ServiceCd=160&Type=search", "url2": "https://tokushoukai.or.jp/daycare/" }, "geometry": { "type": "Point", "coordinates": [ 139.685998899999959, 35.2515132 ] } },
{ "type": "Feature", "properties": { "内容": "黒坂整形外科医院【通所リハビリテーション】神奈川県横須賀市港が丘2-21-4", "url": "https://www.kaigokensaku.mhlw.go.jp/14/index.php?action_kouhyou_detail_004_kani=true&JigyosyoCd=1411910025-00&ServiceCd=160&Type=search", "url2": null }, "geometry": { "type": "Point", "coordinates": [ 139.6279848, 35.2985681 ] } },
{ "type": "Feature", "properties": { "内容": "センペル湘南クリニック【通所リハビリテーション】神奈川県横須賀市湘南国際村1-5-3", "url": "https://www.kaigokensaku.mhlw.go.jp/14/index.php?action_kouhyou_detail_004_kani=true&JigyosyoCd=1411910165-00&ServiceCd=160&Type=search", "url2": null }, "geometry": { "type": "Point", "coordinates": [ 139.61015660000001, 35.2543137 ] } },
{ "type": "Feature", "properties": { "内容": "サンライズファミリークリニック【通所リハビリテーション】神奈川県横須賀市武1-28-5", "url": "https://www.kaigokensaku.mhlw.go.jp/14/index.php?action_kouhyou_detail_004_kani=true&JigyosyoCd=1411911064-00&ServiceCd=160&Type=search", "url2": "http://www.unimedico.jp/sunrise/day-care/" }, "geometry": { "type": "Point", "coordinates": [ 139.6512121, 35.2274244 ] } },
{ "type": "Feature", "properties": { "内容": "介護老人保健施設　衣笠ろうけん【通所リハビリテーション】神奈川県横須賀市小矢部2-23-1", "url": "https://www.kaigokensaku.mhlw.go.jp/14/index.php?action_kouhyou_detail_004_kani=true&JigyosyoCd=1451980002-00&ServiceCd=160&Type=search", "url2": "http://www.kinugasa.or.jp/rouken" }, "geometry": { "type": "Point", "coordinates": [ 139.661653800000067, 35.2554021 ] } },
{ "type": "Feature", "properties": { "内容": "湘南グリーン介護老人保健施設【通所リハビリテーション】神奈川県横須賀市大矢部1-9-32", "url": "https://www.kaigokensaku.mhlw.go.jp/14/index.php?action_kouhyou_detail_004_kani=true&JigyosyoCd=1451980010-00&ServiceCd=160&Type=search", "url2": "https://soukoukai.jp/pages/31/" }, "geometry": { "type": "Point", "coordinates": [ 139.670114199999944, 35.2422033 ] } },
{ "type": "Feature", "properties": { "内容": "介護老人保健施設　ハートケア湘南・芦名【通所リハビリテーション】神奈川県横須賀市芦名1-16-12", "url": "https://www.kaigokensaku.mhlw.go.jp/14/index.php?action_kouhyou_detail_004_kani=true&JigyosyoCd=1451980036-00&ServiceCd=160&Type=search", "url2": "http://www.hc-ashina.jp" }, "geometry": { "type": "Point", "coordinates": [ 139.603902799999986, 35.2290849 ] } },
{ "type": "Feature", "properties": { "内容": "介護老人保健施設　ソレイユカーマ【通所リハビリテーション】神奈川県横須賀市西浦賀５－３２－１", "url": "https://www.kaigokensaku.mhlw.go.jp/14/index.php?action_kouhyou_detail_004_kani=true&JigyosyoCd=1451980044-00&ServiceCd=160&Type=search", "url2": "http://www.soleil-kama.jp" }, "geometry": { "type": "Point", "coordinates": [ 139.720665300000064, 35.2343985 ] } },
{ "type": "Feature", "properties": { "内容": "介護老人保健施設　フィオーレ久里浜【通所リハビリテーション】神奈川県横須賀市神明町１０２８－７", "url": "https://www.kaigokensaku.mhlw.go.jp/14/index.php?action_kouhyou_detail_004_kani=true&JigyosyoCd=1451980051-00&ServiceCd=160&Type=search", "url2": "https://shofukai.or.jp/area-kanagawa/fiore-kurihama" }, "geometry": { "type": "Point", "coordinates": [ 139.69795929999998, 35.2224999 ] } },
{ "type": "Feature", "properties": { "内容": "第二湘南グリーン介護老人保健施設【通所リハビリテーション】神奈川県横須賀市太田和５－８５－１", "url": "https://www.kaigokensaku.mhlw.go.jp/14/index.php?action_kouhyou_detail_004_kani=true&JigyosyoCd=1451980028-00&ServiceCd=160&Type=search", "url2": "https://soukoukai.jp" }, "geometry": { "type": "Point", "coordinates": [ 139.653157400000026, 35.2322627 ] } },
{ "type": "Feature", "properties": { "内容": "介護老人保健施設　野比苑【通所リハビリテーション】神奈川県横須賀市野比1-41-1", "url": "https://www.kaigokensaku.mhlw.go.jp/14/index.php?action_kouhyou_detail_004_kani=true&JigyosyoCd=1451980069-00&ServiceCd=160&Type=search", "url2": "https://nobien.jp/" }, "geometry": { "type": "Point", "coordinates": [ 139.689732400000025, 35.2185893 ] } },
{ "type": "Feature", "properties": { "内容": "第三湘南グリーン介護老人保健施設【通所リハビリテーション】神奈川県横須賀市太田和5-85-20", "url": "https://www.kaigokensaku.mhlw.go.jp/14/index.php?action_kouhyou_detail_004_kani=true&JigyosyoCd=1451980077-00&ServiceCd=160&Type=search", "url2": "https://soukoukai.jp/pages/33/" }, "geometry": { "type": "Point", "coordinates": [ 139.652149099999974, 35.2325738 ] } },
{ "type": "Feature", "properties": { "内容": "介護老人保健施設　しんわ走水荘【通所リハビリテーション】神奈川県横須賀市走水2-5-6", "url": "https://www.kaigokensaku.mhlw.go.jp/14/index.php?action_kouhyou_detail_004_kani=true&JigyosyoCd=1451980085-00&ServiceCd=160&Type=search", "url2": "https://hashirimizu.jp/" }, "geometry": { "type": "Point", "coordinates": [ 139.729773, 35.2642758 ] } },
{ "type": "Feature", "properties": { "内容": "ふれあい平塚ホスピタル【通所リハビリテーション】神奈川県平塚市袖ヶ浜1-12ふれあい平塚ホスピタル", "url": "https://www.kaigokensaku.mhlw.go.jp/14/index.php?action_kouhyou_detail_004_kani=true&JigyosyoCd=1412003549-00&ServiceCd=160&Type=search", "url2": "http://www.fureai-g.or.jp" }, "geometry": { "type": "Point", "coordinates": [ 139.352776799999987, 35.319576 ] } },
{ "type": "Feature", "properties": { "内容": "しんど老人保健施設【通所リハビリテーション】神奈川県平塚市東真土4-5-27", "url": "https://www.kaigokensaku.mhlw.go.jp/14/index.php?action_kouhyou_detail_004_kani=true&JigyosyoCd=1452080018-00&ServiceCd=160&Type=search", "url2": "http://www.kuratakai.or.jp" }, "geometry": { "type": "Point", "coordinates": [ 139.352827899999966, 35.3609995 ] } },
{ "type": "Feature", "properties": { "内容": "医療法人　研水会　介護老人保健施設　あさひの郷【通所リハビリテーション】神奈川県平塚市高村203番21", "url": "https://www.kaigokensaku.mhlw.go.jp/14/index.php?action_kouhyou_detail_004_kani=true&JigyosyoCd=1452080034-00&ServiceCd=160&Type=search", "url2": "http://www.kensuikai.or.jp" }, "geometry": { "type": "Point", "coordinates": [ 139.307476846744493, 35.334335824814403 ] } },
{ "type": "Feature", "properties": { "内容": "介護老人保健施設　湘南シルバーガーデン【通所リハビリテーション】神奈川県平塚市袖ヶ浜1-12", "url": "https://www.kaigokensaku.mhlw.go.jp/14/index.php?action_kouhyou_detail_004_kani=true&JigyosyoCd=1452080042-00&ServiceCd=160&Type=search", "url2": "http://www.fureai-g.or.jp/sg/" }, "geometry": { "type": "Point", "coordinates": [ 139.352796300000023, 35.3195538 ] } },
{ "type": "Feature", "properties": { "内容": "介護老人保健施設フィオーレ湘南真田【通所リハビリテーション】神奈川県平塚市真田３丁目１番１号", "url": "https://www.kaigokensaku.mhlw.go.jp/14/index.php?action_kouhyou_detail_004_kani=true&JigyosyoCd=1452080059-00&ServiceCd=160&Type=search", "url2": "https://shofukai.or.jp/area-kanagawa/fiore-shounansanada" }, "geometry": { "type": "Point", "coordinates": [ 139.283401599999934, 35.3728352 ] } },
{ "type": "Feature", "properties": { "内容": "やました通所リハビリテーション【通所リハビリテーション】神奈川県平塚市山下3-17-11", "url": "https://www.kaigokensaku.mhlw.go.jp/14/index.php?action_kouhyou_detail_004_kani=true&JigyosyoCd=1472001922-00&ServiceCd=160&Type=search", "url2": "https://www.kubotaseikei.com" }, "geometry": { "type": "Point", "coordinates": [ 139.314607300000034, 35.3300026 ] } },
{ "type": "Feature", "properties": { "内容": "介護老人保健施設　社会福祉法人恩賜財団済生会湘南苑【通所リハビリテーション】神奈川県平塚市立野町37-1", "url": "https://www.kaigokensaku.mhlw.go.jp/14/index.php?action_kouhyou_detail_004_kani=true&JigyosyoCd=1452080000-00&ServiceCd=160&Type=search", "url2": "https://www.hiratsuka.saiseikai.or.jp/shonanen/" }, "geometry": { "type": "Point", "coordinates": [ 139.339624400000048, 35.33283 ] } },
{ "type": "Feature", "properties": { "内容": "介護老人保健施設　なでしこの里　リハビリひらつか【通所リハビリテーション】神奈川県平塚市東八幡四丁目19番3号", "url": "https://www.kaigokensaku.mhlw.go.jp/14/index.php?action_kouhyou_detail_004_kani=true&JigyosyoCd=1452080060-00&ServiceCd=160&Type=search", "url2": "https://www.tomei.or.jp/fukushi/nadeshiko/" }, "geometry": { "type": "Point", "coordinates": [ 139.3596905, 35.3512285 ] } },
{ "type": "Feature", "properties": { "内容": "鎌倉リハビリテーション聖テレジア病院通所リハビリテーション【通所リハビリテーション】神奈川県鎌倉市腰越1-2-1", "url": "https://www.kaigokensaku.mhlw.go.jp/14/index.php?action_kouhyou_detail_004_kani=true&JigyosyoCd=1412100857-00&ServiceCd=160&Type=search", "url2": "http://www.st-therese-hp.jp/" }, "geometry": { "type": "Point", "coordinates": [ 139.501035, 35.307926 ] } },
{ "type": "Feature", "properties": { "内容": "ふれあい鎌倉ホスピタル【通所リハビリテーション】神奈川県鎌倉市御成町9-5", "url": "https://www.kaigokensaku.mhlw.go.jp/14/index.php?action_kouhyou_detail_004_kani=true&JigyosyoCd=1412100972-00&ServiceCd=160&Type=search", "url2": "http://www.fureai-g.or.jp/kamakura-hp/" }, "geometry": { "type": "Point", "coordinates": [ 139.548958800000037, 35.3176673 ] } },
{ "type": "Feature", "properties": { "内容": "介護老人保健施設　鎌倉幸寿苑【通所リハビリテーション】神奈川県鎌倉市関谷９１８", "url": "https://www.kaigokensaku.mhlw.go.jp/14/index.php?action_kouhyou_detail_004_kani=true&JigyosyoCd=1452180016-00&ServiceCd=160&Type=search", "url2": "http://www.koujukai.com/" }, "geometry": { "type": "Point", "coordinates": [ 139.510586900000021, 35.3616371 ] } },
{ "type": "Feature", "properties": { "内容": "介護老人保健施設　リハビリケア湘南かまくら【通所リハビリテーション】神奈川県鎌倉市山崎1202-1", "url": "https://www.kaigokensaku.mhlw.go.jp/14/index.php?action_kouhyou_detail_004_kani=true&JigyosyoCd=1452180050-00&ServiceCd=160&Type=search", "url2": "https://www.tokushukai.or.jp/introduction/facility/ns-shonan" }, "geometry": { "type": "Point", "coordinates": [ 139.5269441, 35.3425231 ] } },
{ "type": "Feature", "properties": { "内容": "医療法人徳洲会　介護老人保健施設かまくらしるばーほーむ【通所リハビリテーション】神奈川県鎌倉市雪ノ下１－１０－１", "url": "https://www.kaigokensaku.mhlw.go.jp/14/index.php?action_kouhyou_detail_004_kani=true&JigyosyoCd=1452180068-00&ServiceCd=160&Type=search", "url2": "https://kiyokawa-hp.or.jp/silverhome/" }, "geometry": { "type": "Point", "coordinates": [ 139.5541365, 35.3219967 ] } },
{ "type": "Feature", "properties": { "内容": "介護老人保健施設　かまくら【通所リハビリテーション】神奈川県鎌倉市上町屋宇谷戸750", "url": "https://www.kaigokensaku.mhlw.go.jp/14/index.php?action_kouhyou_detail_004_kani=true&JigyosyoCd=1452180032-00&ServiceCd=160&Type=search", "url2": "https://www.s-aishinkai.jp/roken/" }, "geometry": { "type": "Point", "coordinates": [ 139.522157370947269, 35.337065035054181 ] } },
{ "type": "Feature", "properties": { "内容": "老健ぬかだ【通所リハビリテーション】神奈川県鎌倉市大町4丁目6番6号", "url": "https://www.kaigokensaku.mhlw.go.jp/14/index.php?action_kouhyou_detail_004_kani=true&JigyosyoCd=1452180024-00&ServiceCd=160&Type=search", "url2": "https://nukada.info" }, "geometry": { "type": "Point", "coordinates": [ 139.558262066795351, 35.312045329434106 ] } },
{ "type": "Feature", "properties": { "内容": "医療法人徳洲会　湘南藤沢徳洲会病院【通所リハビリテーション】神奈川県藤沢市辻堂神台1-5-1", "url": "https://www.kaigokensaku.mhlw.go.jp/14/index.php?action_kouhyou_detail_004_kani=true&JigyosyoCd=1412208536-00&ServiceCd=160&Type=search", "url2": "http://fujisawatokushukai.jp" }, "geometry": { "type": "Point", "coordinates": [ 139.444858900000014, 35.3410577 ] } },
{ "type": "Feature", "properties": { "内容": "医療法人知真会湘南真心クリニック【通所リハビリテーション】神奈川県藤沢市菖蒲沢1221-2", "url": "https://www.kaigokensaku.mhlw.go.jp/14/index.php?action_kouhyou_detail_004_kani=true&JigyosyoCd=1412211613-00&ServiceCd=160&Type=search", "url2": "https://www.chishinkai-group.jp/facilities/shonan-tomato" }, "geometry": { "type": "Point", "coordinates": [ 139.442459666656504, 35.399925724706833 ] } },
{ "type": "Feature", "properties": { "内容": "介護老人保健施設　清流苑【通所リハビリテーション】神奈川県藤沢市高谷１１６－１", "url": "https://www.kaigokensaku.mhlw.go.jp/14/index.php?action_kouhyou_detail_004_kani=true&JigyosyoCd=1452280014-00&ServiceCd=160&Type=search", "url2": "https://www.fhp.or.jp/seiryuen/" }, "geometry": { "type": "Point", "coordinates": [ 139.503212500000018, 35.3332015 ] } },
{ "type": "Feature", "properties": { "内容": "介護老人保健施設ふれあいの桜【通所リハビリテーション】神奈川県藤沢市遠藤446-1", "url": "https://www.kaigokensaku.mhlw.go.jp/14/index.php?action_kouhyou_detail_004_kani=true&JigyosyoCd=1452280055-00&ServiceCd=160&Type=search", "url2": "http://www.fureai-g.or.jp/f-sakura" }, "geometry": { "type": "Point", "coordinates": [ 139.429677215344213, 35.37353280590122 ] } },
{ "type": "Feature", "properties": { "内容": "介護老人保健施設　ガーデニア・ごしょみ【通所リハビリテーション】神奈川県藤沢市獺郷218", "url": "https://www.kaigokensaku.mhlw.go.jp/14/index.php?action_kouhyou_detail_004_kani=true&JigyosyoCd=1452280030-00&ServiceCd=160&Type=search", "url2": "https://gardenia.or.jp/" }, "geometry": { "type": "Point", "coordinates": [ 139.410265500000037, 35.396449 ] } },
{ "type": "Feature", "properties": { "内容": "ティー．エイチ．ピー．メディカルクリニック【通所リハビリテーション】神奈川県藤沢市藤沢498", "url": "https://www.kaigokensaku.mhlw.go.jp/14/index.php?action_kouhyou_detail_004_kani=true&JigyosyoCd=1412206084-00&ServiceCd=160&Type=search", "url2": "https://www.fureai-g.or.jp/thp/department/daycare/" }, "geometry": { "type": "Point", "coordinates": [ 139.48417809999998, 35.3391674 ] } },
{ "type": "Feature", "properties": { "内容": "湘南わかば苑【通所リハビリテーション】神奈川県藤沢市石川591", "url": "https://www.kaigokensaku.mhlw.go.jp/14/index.php?action_kouhyou_detail_004_kani=true&JigyosyoCd=1452280022-00&ServiceCd=160&Type=search", "url2": "http://www.swg.or.jp/" }, "geometry": { "type": "Point", "coordinates": [ 139.453044699999964, 35.3701183 ] } },
{ "type": "Feature", "properties": { "内容": "介護老人保健施設ケアパ－ク湘南台【通所リハビリテーション】神奈川県藤沢市円行991番地", "url": "https://www.kaigokensaku.mhlw.go.jp/14/index.php?action_kouhyou_detail_004_kani=true&JigyosyoCd=1452280048-00&ServiceCd=160&Type=search", "url2": "http://www.muratakai.or.jp" }, "geometry": { "type": "Point", "coordinates": [ 139.460163200000011, 35.3870609 ] } },
{ "type": "Feature", "properties": { "内容": "老健リハビリセンター　クローバーヴィラ【通所リハビリテーション】神奈川県藤沢市鵠沼神明3-1-1", "url": "https://www.kaigokensaku.mhlw.go.jp/14/index.php?action_kouhyou_detail_004_kani=true&JigyosyoCd=1452280063-00&ServiceCd=160&Type=search", "url2": "http://www.clover-villa.jp/" }, "geometry": { "type": "Point", "coordinates": [ 139.469004499999983, 35.3387726 ] } },
{ "type": "Feature", "properties": { "内容": "吉田整形外科医院【通所リハビリテーション】神奈川県小田原市扇町4-7-15", "url": "https://www.kaigokensaku.mhlw.go.jp/14/index.php?action_kouhyou_detail_004_kani=true&JigyosyoCd=1412302982-00&ServiceCd=160&Type=search", "url2": "http://jin-yoshidaseikei.jp/" }, "geometry": { "type": "Point", "coordinates": [ 139.1606212, 35.2706838 ] } },
{ "type": "Feature", "properties": { "内容": "もてぎクリニック　リハビリテーションセンター【通所リハビリテーション】神奈川県小田原市蓮正寺275-3", "url": "https://www.kaigokensaku.mhlw.go.jp/14/index.php?action_kouhyou_detail_004_kani=true&JigyosyoCd=1412310381-00&ServiceCd=160&Type=search", "url2": "https://motegiclinic.com/rehabilitation/" }, "geometry": { "type": "Point", "coordinates": [ 139.1497647, 35.2844814 ] } },
{ "type": "Feature", "properties": { "内容": "特定医療法人社団研精会　箱根リハビリテーション病院附属ゆい小田原クリニック【通所リハビリテーション】神奈川県小田原市久野13-1", "url": "https://www.kaigokensaku.mhlw.go.jp/14/index.php?action_kouhyou_detail_004_kani=true&JigyosyoCd=1412310514-00&ServiceCd=160&Type=search", "url2": "https://www.kensei-hakone.com/yui-odawara/" }, "geometry": { "type": "Point", "coordinates": [ 139.1545104, 35.2665109 ] } },
{ "type": "Feature", "properties": { "内容": "介護老人保健施設　水之尾【通所リハビリテーション】神奈川県小田原市水之尾３８－１", "url": "https://www.kaigokensaku.mhlw.go.jp/14/index.php?action_kouhyou_detail_004_kani=true&JigyosyoCd=1452380004-00&ServiceCd=160&Type=search", "url2": "http://ro-ken-mizunoo.weblike.jp/" }, "geometry": { "type": "Point", "coordinates": [ 139.132725700000037, 35.2533785 ] } },
{ "type": "Feature", "properties": { "内容": "山近記念総合病院　介護老人保健施設　わかば【通所リハビリテーション】神奈川県小田原市小八幡3-6-22", "url": "https://www.kaigokensaku.mhlw.go.jp/14/index.php?action_kouhyou_detail_004_kani=true&JigyosyoCd=1452380012-00&ServiceCd=160&Type=search", "url2": "https://www.yamachika-hp.jp/" }, "geometry": { "type": "Point", "coordinates": [ 139.201386100000036, 35.2764106 ] } },
{ "type": "Feature", "properties": { "内容": "介護老人保健施設リバーイースト【通所リハビリテーション】神奈川県小田原市永塚344-1", "url": "https://www.kaigokensaku.mhlw.go.jp/14/index.php?action_kouhyou_detail_004_kani=true&JigyosyoCd=1452380020-00&ServiceCd=160&Type=search", "url2": "https://river-roken.com/" }, "geometry": { "type": "Point", "coordinates": [ 139.181003799999985, 35.3004845 ] } },
{ "type": "Feature", "properties": { "内容": "介護老人保健施設　葵の園・小田原【通所リハビリテーション】神奈川県小田原市曽比字前河原1350番地", "url": "https://www.kaigokensaku.mhlw.go.jp/14/index.php?action_kouhyou_detail_004_kani=true&JigyosyoCd=1472303765-00&ServiceCd=160&Type=search", "url2": "https://www.aoikai.jp/odawara/" }, "geometry": { "type": "Point", "coordinates": [ 139.139838, 35.315722 ] } },
{ "type": "Feature", "properties": { "内容": "介護老人保健施設“悠久”【通所リハビリテーション】神奈川県小田原市延清196-1", "url": "https://www.kaigokensaku.mhlw.go.jp/14/index.php?action_kouhyou_detail_004_kani=true&JigyosyoCd=1452380038-00&ServiceCd=160&Type=search", "url2": "https://yuukyuu-odawara.jp/" }, "geometry": { "type": "Point", "coordinates": [ 139.171841399999948, 35.2943602 ] } },
{ "type": "Feature", "properties": { "内容": "あんず通所リハビリセンター【通所リハビリテーション】神奈川県小田原市酒匂３－９－１２杏林堂クリニック内", "url": "https://www.kaigokensaku.mhlw.go.jp/14/index.php?action_kouhyou_detail_004_kani=true&JigyosyoCd=1472303476-00&ServiceCd=160&Type=search", "url2": "https://kyourindo-cl.com/andu.html" }, "geometry": { "type": "Point", "coordinates": [ 139.188581399999947, 35.2662709 ] } },
{ "type": "Feature", "properties": { "内容": "介護老人保健施設　ふれあいの丘【通所リハビリテーション】神奈川県茅ケ崎市行谷602-1", "url": "https://www.kaigokensaku.mhlw.go.jp/14/index.php?action_kouhyou_detail_004_kani=true&JigyosyoCd=1452480002-00&ServiceCd=160&Type=search", "url2": "http://www.fureai-g.or.jp/oka/" }, "geometry": { "type": "Point", "coordinates": [ 139.413718099999983, 35.3685884 ] } },
{ "type": "Feature", "properties": { "内容": "前田整形外科・内科クリニック【通所リハビリテーション】神奈川県茅ヶ崎市ひばりが丘1-10", "url": "https://www.kaigokensaku.mhlw.go.jp/14/index.php?action_kouhyou_detail_004_kani=true&JigyosyoCd=1412410207-00&ServiceCd=160&Type=search", "url2": "http://maeda-seikei-naika.com/" }, "geometry": { "type": "Point", "coordinates": [ 139.422051300000021, 35.3346883 ] } },
{ "type": "Feature", "properties": { "内容": "介護老人保健施設　茅ヶ崎浜之郷【通所リハビリテーション】神奈川県茅ヶ崎市浜之郷8-1", "url": "https://www.kaigokensaku.mhlw.go.jp/14/index.php?action_kouhyou_detail_004_kani=true&JigyosyoCd=1452480028-00&ServiceCd=160&Type=search", "url2": "http://ro-hama.qwc.jp" }, "geometry": { "type": "Point", "coordinates": [ 139.388122028836051, 35.345549051275633 ] } },
{ "type": "Feature", "properties": { "内容": "介護老人保健施設　ふれあいの渚【通所リハビリテーション】神奈川県茅ケ崎市中島1220番地", "url": "https://www.kaigokensaku.mhlw.go.jp/14/index.php?action_kouhyou_detail_004_kani=true&JigyosyoCd=1452480036-00&ServiceCd=160&Type=search", "url2": "http://www.fureai-g.or.jp/nagisa/" }, "geometry": { "type": "Point", "coordinates": [ 139.3772798, 35.3272424 ] } },
{ "type": "Feature", "properties": { "内容": "介護医療院湘南の丘【通所リハビリテーション】神奈川県茅ケ崎市赤羽根3685", "url": "https://www.kaigokensaku.mhlw.go.jp/14/index.php?action_kouhyou_detail_004_kani=true&JigyosyoCd=14B2400018-00&ServiceCd=160&Type=search", "url2": "https://www.shonan-no-oka.com/" }, "geometry": { "type": "Point", "coordinates": [ 139.434110671827739, 35.352886472374074 ] } },
{ "type": "Feature", "properties": { "内容": "医療法人徳洲会　茅ヶ崎徳洲会病院【通所リハビリテーション】神奈川県茅ヶ崎市幸町14番1号", "url": "https://www.kaigokensaku.mhlw.go.jp/14/index.php?action_kouhyou_detail_004_kani=true&JigyosyoCd=1412410066-00&ServiceCd=160&Type=search", "url2": "https://www.chigasakitokushukai.jp/" }, "geometry": { "type": "Point", "coordinates": [ 139.412596500000063, 35.3308881 ] } },
{ "type": "Feature", "properties": { "内容": "介護老人保健施設ケアパ－ク茅ヶ崎【通所リハビリテーション】神奈川県茅ヶ崎市甘沼151番地", "url": "https://www.kaigokensaku.mhlw.go.jp/14/index.php?action_kouhyou_detail_004_kani=true&JigyosyoCd=1452480044-00&ServiceCd=160&Type=search", "url2": "https://www.muratakai.or.jp/rcpark_chigasaki_riha/about.html" }, "geometry": { "type": "Point", "coordinates": [ 139.420876300000032, 35.3560518 ] } },
{ "type": "Feature", "properties": { "内容": "介護老人保健施設ふれあいの百合【通所リハビリテーション】神奈川県茅ヶ崎市南湖1丁目6番14号", "url": "https://www.kaigokensaku.mhlw.go.jp/14/index.php?action_kouhyou_detail_004_kani=true&JigyosyoCd=1452480051-00&ServiceCd=160&Type=search", "url2": "http://www.fureai-g.or.jp/yuri/" }, "geometry": { "type": "Point", "coordinates": [ 139.3906571, 35.3288853 ] } },
{ "type": "Feature", "properties": { "内容": "かんクリニック　リウマチ・整形外科　通所リハビリテーション【通所リハビリテーション】神奈川県逗子市久木４－２－５ZEROビル１F・２F・３F", "url": "https://www.kaigokensaku.mhlw.go.jp/14/index.php?action_kouhyou_detail_004_kani=true&JigyosyoCd=1412510147-00&ServiceCd=160&Type=search", "url2": "https://www.kang-raclinic.com" }, "geometry": { "type": "Point", "coordinates": [ 139.572085, 35.2988315 ] } },
{ "type": "Feature", "properties": { "内容": "医療法人社団　柏信会　介護老人保健施設　グリーンハウス逗子【通所リハビリテーション】神奈川県逗子市桜山６－１３５５", "url": "https://www.kaigokensaku.mhlw.go.jp/14/index.php?action_kouhyou_detail_004_kani=true&JigyosyoCd=1452580009-00&ServiceCd=160&Type=search", "url2": "https://www.aoki-hospital.or.jp/greenhouse/index.html" }, "geometry": { "type": "Point", "coordinates": [ 139.590252599999985, 35.2928923 ] } },
{ "type": "Feature", "properties": { "内容": "青木病院通所リハビリセンター【通所リハビリテーション】神奈川県逗子市桜山6丁目1336番地", "url": "https://www.kaigokensaku.mhlw.go.jp/14/index.php?action_kouhyou_detail_004_kani=true&JigyosyoCd=1472500121-00&ServiceCd=160&Type=search", "url2": "http://www.aoki-hospital.or.jp/" }, "geometry": { "type": "Point", "coordinates": [ 139.590601452114925, 35.292502694360543 ] } },
{ "type": "Feature", "properties": { "内容": "介護老人保健施設　なのはな苑【通所リハビリテーション】神奈川県三浦市初声町高円坊1040-2", "url": "https://www.kaigokensaku.mhlw.go.jp/14/index.php?action_kouhyou_detail_004_kani=true&JigyosyoCd=1452780005-00&ServiceCd=160&Type=search", "url2": "http://www.bmk.or.jp/nanohana/" }, "geometry": { "type": "Point", "coordinates": [ 139.644863699999974, 35.2032162 ] } },
{ "type": "Feature", "properties": { "内容": "介護老人保健施設　なぎさ【通所リハビリテーション】神奈川県三浦市南下浦町上宮田1308", "url": "https://www.kaigokensaku.mhlw.go.jp/14/index.php?action_kouhyou_detail_004_kani=true&JigyosyoCd=1452780013-00&ServiceCd=160&Type=search", "url2": "https://www.shinjinkai.or.jp/nagisa/riyou/tsusho.html" }, "geometry": { "type": "Point", "coordinates": [ 139.651755, 35.1926641 ] } },
{ "type": "Feature", "properties": { "内容": "医療法人社団佑樹会　介護老人保健施設　めぐみの里【通所リハビリテーション】神奈川県秦野市渋沢1296番地1", "url": "https://www.kaigokensaku.mhlw.go.jp/14/index.php?action_kouhyou_detail_004_kani=true&JigyosyoCd=1452880045-00&ServiceCd=160&Type=search", "url2": "http://www.yuuki-kai.com" }, "geometry": { "type": "Point", "coordinates": [ 139.195423399999981, 35.3666555 ] } },
{ "type": "Feature", "properties": { "内容": "医療法人社団　佑樹会　介護老人保健施設ひまわりの里【通所リハビリテーション】神奈川県秦野市西大竹914番地の1", "url": "https://www.kaigokensaku.mhlw.go.jp/14/index.php?action_kouhyou_detail_004_kani=true&JigyosyoCd=1452880052-00&ServiceCd=160&Type=search", "url2": "http://www.yuuki-kai.com/himawari_top/" }, "geometry": { "type": "Point", "coordinates": [ 139.233453006854262, 35.35398472989533 ] } },
{ "type": "Feature", "properties": { "内容": "通所リハビリテーション　ぬくもりの家【通所リハビリテーション】神奈川県秦野市南矢名2-12-1", "url": "https://www.kaigokensaku.mhlw.go.jp/14/index.php?action_kouhyou_detail_004_kani=true&JigyosyoCd=1412800431-00&ServiceCd=160&Type=search", "url2": "http://e-nukumori.jp" }, "geometry": { "type": "Point", "coordinates": [ 139.272183, 35.3701159 ] } },
{ "type": "Feature", "properties": { "内容": "医療法人社団　三喜会　鶴巻温泉病院【通所リハビリテーション】神奈川県秦野市鶴巻北1-16-1", "url": "https://www.kaigokensaku.mhlw.go.jp/14/index.php?action_kouhyou_detail_004_kani=true&JigyosyoCd=1412800829-00&ServiceCd=160&Type=search", "url2": "https://www.sankikai.or.jp/tsurumaki/" }, "geometry": { "type": "Point", "coordinates": [ 139.279665599999987, 35.3829411 ] } },
{ "type": "Feature", "properties": { "内容": "あべ整形外科【通所リハビリテーション】神奈川県秦野市南矢名１－２－１産興クリニックビル２Ｆ", "url": "https://www.kaigokensaku.mhlw.go.jp/14/index.php?action_kouhyou_detail_004_kani=true&JigyosyoCd=1412810083-00&ServiceCd=160&Type=search", "url2": "https://abe-smc.com/" }, "geometry": { "type": "Point", "coordinates": [ 139.272038699999939, 35.3731653 ] } },
{ "type": "Feature", "properties": { "内容": "秦野老人保健施設みかん　通所リハビリテーション【通所リハビリテーション】神奈川県秦野市平沢2407-2", "url": "https://www.kaigokensaku.mhlw.go.jp/14/index.php?action_kouhyou_detail_004_kani=true&JigyosyoCd=1452880003-00&ServiceCd=160&Type=search", "url2": "http://www.hadano.or.jp" }, "geometry": { "type": "Point", "coordinates": [ 139.193040200000041, 35.3587703 ] } },
{ "type": "Feature", "properties": { "内容": "みかんクリニック通所リハビリテーション　デイケアこ・みかん【通所リハビリテーション】神奈川県秦野市柳町1-20-7", "url": "https://www.kaigokensaku.mhlw.go.jp/14/index.php?action_kouhyou_detail_004_kani=true&JigyosyoCd=1472801339-00&ServiceCd=160&Type=search", "url2": "http://hadano.or.jp/facility/daycare_komikan/index.html" }, "geometry": { "type": "Point", "coordinates": [ 139.1865434, 35.3749098 ] } },
{ "type": "Feature", "properties": { "内容": "医療法人社団　三喜会　介護老人保健施設　ライフプラザ鶴巻【通所リハビリテーション】神奈川県秦野市鶴巻北3-1-3", "url": "https://www.kaigokensaku.mhlw.go.jp/14/index.php?action_kouhyou_detail_004_kani=true&JigyosyoCd=1452880029-00&ServiceCd=160&Type=search", "url2": "http://www.sankikai.or.jp/life-tsurumaki/" }, "geometry": { "type": "Point", "coordinates": [ 139.276205, 35.3821172 ] } },
{ "type": "Feature", "properties": { "内容": "介護老人保健施設さつきの里あつぎ【通所リハビリテーション】神奈川県厚木市船子322-1", "url": "https://www.kaigokensaku.mhlw.go.jp/14/index.php?action_kouhyou_detail_004_kani=true&JigyosyoCd=1452980001-00&ServiceCd=160&Type=search", "url2": "https://www.tomei.or.jp" }, "geometry": { "type": "Point", "coordinates": [ 139.355091799999968, 35.4277471 ] } },
{ "type": "Feature", "properties": { "内容": "介護老人保健施設　コミュニティケア北部【通所リハビリテーション】神奈川県厚木市下荻野９４１－１", "url": "https://www.kaigokensaku.mhlw.go.jp/14/index.php?action_kouhyou_detail_004_kani=true&JigyosyoCd=1452980019-00&ServiceCd=160&Type=search", "url2": "https://care-hokubu.jp/" }, "geometry": { "type": "Point", "coordinates": [ 139.338177, 35.4907869 ] } },
{ "type": "Feature", "properties": { "内容": "介護老人保健施設　ぬるみず【通所リハビリテーション】神奈川県厚木市温水1845-1", "url": "https://www.kaigokensaku.mhlw.go.jp/14/index.php?action_kouhyou_detail_004_kani=true&JigyosyoCd=1452980027-00&ServiceCd=160&Type=search", "url2": "http://nurumizu.com/" }, "geometry": { "type": "Point", "coordinates": [ 139.333688100000018, 35.447911 ] } },
{ "type": "Feature", "properties": { "内容": "介護老人保健施設　さくら【通所リハビリテーション】神奈川県厚木市上古沢１９１５", "url": "https://www.kaigokensaku.mhlw.go.jp/14/index.php?action_kouhyou_detail_004_kani=true&JigyosyoCd=1452980035-00&ServiceCd=160&Type=search", "url2": null }, "geometry": { "type": "Point", "coordinates": [ 139.313995100000056, 35.4632697 ] } },
{ "type": "Feature", "properties": { "内容": "介護老人保健施設　こまち【通所リハビリテーション】神奈川県厚木市小野７６３－１", "url": "https://www.kaigokensaku.mhlw.go.jp/14/index.php?action_kouhyou_detail_004_kani=true&JigyosyoCd=1452980043-00&ServiceCd=160&Type=search", "url2": "http://www.touwakai.com/komachi" }, "geometry": { "type": "Point", "coordinates": [ 137.967908099999931, 36.0381301 ] } },
{ "type": "Feature", "properties": { "内容": "介護老人保健施設さくらサテライト【通所リハビリテーション】神奈川県厚木市上古沢1702番地", "url": "https://www.kaigokensaku.mhlw.go.jp/14/index.php?action_kouhyou_detail_004_kani=true&JigyosyoCd=1452980050-00&ServiceCd=160&Type=search", "url2": "https://goto-seikei.net/" }, "geometry": { "type": "Point", "coordinates": [ 139.309256600000026, 35.4636861 ] } },
{ "type": "Feature", "properties": { "内容": "介護老人保健施設　リハビリケア湘南厚木【通所リハビリテーション】神奈川県厚木市戸田2446-15", "url": "https://www.kaigokensaku.mhlw.go.jp/14/index.php?action_kouhyou_detail_004_kani=true&JigyosyoCd=1452980079-00&ServiceCd=160&Type=search", "url2": "https://www.reha-atsugi.jp" }, "geometry": { "type": "Point", "coordinates": [ 139.369079317721599, 35.400073589021346 ] } },
{ "type": "Feature", "properties": { "内容": "介護老人保健施設ケアセンター上依知【通所リハビリテーション】神奈川県厚木市上依知418-1", "url": "https://www.kaigokensaku.mhlw.go.jp/14/index.php?action_kouhyou_detail_004_kani=true&JigyosyoCd=1452980087-00&ServiceCd=160&Type=search", "url2": "http://seijukai-gp.jp" }, "geometry": { "type": "Point", "coordinates": [ 139.360417990737915, 35.515764687410481 ] } },
{ "type": "Feature", "properties": { "内容": "亀田森の里病院【通所リハビリテーション】神奈川県厚木市森の里3-1-1", "url": "https://www.kaigokensaku.mhlw.go.jp/14/index.php?action_kouhyou_detail_004_kani=true&JigyosyoCd=1412901817-00&ServiceCd=160&Type=search", "url2": "https://medical.kameda.com/morinosato/" }, "geometry": { "type": "Point", "coordinates": [ 139.3105737, 35.4462375 ] } },
{ "type": "Feature", "properties": { "内容": "医療法人　西鶴間メディカルクリニック【通所リハビリテーション】神奈川県大和市西鶴間四丁目1番4号ＫＤスクエア　2階", "url": "https://www.kaigokensaku.mhlw.go.jp/14/index.php?action_kouhyou_detail_004_kani=true&JigyosyoCd=1413001765-00&ServiceCd=160&Type=search", "url2": "http://nmc.or.jp/" }, "geometry": { "type": "Point", "coordinates": [ 139.448547700000063, 35.4873873 ] } },
{ "type": "Feature", "properties": { "内容": "みどり野リハビリテーション病院【通所リハビリテーション】神奈川県大和市中央林間2-6-17", "url": "https://www.kaigokensaku.mhlw.go.jp/14/index.php?action_kouhyou_detail_004_kani=true&JigyosyoCd=1413003324-00&ServiceCd=160&Type=search", "url2": "https://midorino-hp.jp" }, "geometry": { "type": "Point", "coordinates": [ 139.445503699999989, 35.5021877 ] } },
{ "type": "Feature", "properties": { "内容": "介護老人保健施設　成和ナーシングプラザ【通所リハビリテーション】神奈川県大和市南林間9-8-9", "url": "https://www.kaigokensaku.mhlw.go.jp/14/index.php?action_kouhyou_detail_004_kani=true&JigyosyoCd=1453080017-00&ServiceCd=160&Type=search", "url2": "https://www.fureai-g.or.jp/seiwa-np/" }, "geometry": { "type": "Point", "coordinates": [ 139.434603899999956, 35.4950719 ] } },
{ "type": "Feature", "properties": { "内容": "介護老人保健施設　葵の園・大和【通所リハビリテーション】神奈川県大和市深見台１丁目７－３３", "url": "https://www.kaigokensaku.mhlw.go.jp/14/index.php?action_kouhyou_detail_004_kani=true&JigyosyoCd=1453080041-00&ServiceCd=160&Type=search", "url2": "https://www.aoikai.jp/yamato" }, "geometry": { "type": "Point", "coordinates": [ 139.467050400000062, 35.4655035 ] } },
{ "type": "Feature", "properties": { "内容": "南大和クリニック【通所リハビリテーション】神奈川県大和市下和田９４０－１", "url": "https://www.kaigokensaku.mhlw.go.jp/14/index.php?action_kouhyou_detail_004_kani=true&JigyosyoCd=1413002375-00&ServiceCd=160&Type=search", "url2": "http://www.minamiyamato-hosp.or.jp/introduction/group/rehabilitation/index.html" }, "geometry": { "type": "Point", "coordinates": [ 139.468354, 35.4315355 ] } },
{ "type": "Feature", "properties": { "内容": "医療法人社団もみの木もみの木医院【通所リハビリテーション】神奈川県大和市大和南2-6-5", "url": "https://www.kaigokensaku.mhlw.go.jp/14/index.php?action_kouhyou_detail_004_kani=true&JigyosyoCd=1413003126-00&ServiceCd=160&Type=search", "url2": "https://mominokiclinic2.com/" }, "geometry": { "type": "Point", "coordinates": [ 139.463425260773306, 35.467748409924319 ] } },
{ "type": "Feature", "properties": { "内容": "介護老人保健施設　しょうじゅの里大和【通所リハビリテーション】神奈川県大和市上和田２６３３", "url": "https://www.kaigokensaku.mhlw.go.jp/14/index.php?action_kouhyou_detail_004_kani=true&JigyosyoCd=1453080025-00&ServiceCd=160&Type=search", "url2": "http://www.akaedakai.com/yamato/day/service.html" }, "geometry": { "type": "Point", "coordinates": [ 139.470909200000051, 35.4416454 ] } },
{ "type": "Feature", "properties": { "内容": "介護老人保健施設　大地【通所リハビリテーション】神奈川県大和市中央林間9-31-20", "url": "https://www.kaigokensaku.mhlw.go.jp/14/index.php?action_kouhyou_detail_004_kani=true&JigyosyoCd=1453080033-00&ServiceCd=160&Type=search", "url2": "http://www.sensinkai-daichi.com/" }, "geometry": { "type": "Point", "coordinates": [ 139.448217751451125, 35.513988504713801 ] } },
{ "type": "Feature", "properties": { "内容": "医療法人社団仁志会　ＧＲＥＥＮＢＥ【通所リハビリテーション】神奈川県大和市中央5-6-29第２ソーヨービル１階", "url": "https://www.kaigokensaku.mhlw.go.jp/14/index.php?action_kouhyou_detail_004_kani=true&JigyosyoCd=1473003695-00&ServiceCd=160&Type=search", "url2": "https://www.greenbe.or.jp" }, "geometry": { "type": "Point", "coordinates": [ 139.4567294, 35.4682485 ] } },
{ "type": "Feature", "properties": { "内容": "介護老人保健施設ほほえみの丘【通所リハビリテーション】神奈川県伊勢原市下平間700", "url": "https://www.kaigokensaku.mhlw.go.jp/14/index.php?action_kouhyou_detail_004_kani=true&JigyosyoCd=1454080008-00&ServiceCd=160&Type=search", "url2": "http://www.kouseiren.net/hohoemi/" }, "geometry": { "type": "Point", "coordinates": [ 139.32021450000002, 35.3835766 ] } },
{ "type": "Feature", "properties": { "内容": "医療法人社団佑樹会　介護老人保健施設あゆみの里【通所リハビリテーション】神奈川県伊勢原市石田1710番地", "url": "https://www.kaigokensaku.mhlw.go.jp/14/index.php?action_kouhyou_detail_004_kani=true&JigyosyoCd=1454080027-00&ServiceCd=160&Type=search", "url2": "http://yuuki-kai.com/ayumi_top/" }, "geometry": { "type": "Point", "coordinates": [ 139.347080666113413, 35.407856464071862 ] } },
{ "type": "Feature", "properties": { "内容": "医療法人社団松和会介護老人保健施設ききょう苑【通所リハビリテーション】神奈川県伊勢原市沼目6-1237", "url": "https://www.kaigokensaku.mhlw.go.jp/14/index.php?action_kouhyou_detail_004_kani=true&JigyosyoCd=1454080016-00&ServiceCd=160&Type=search", "url2": "http://www.mtnet.jp/kikyo-en/" }, "geometry": { "type": "Point", "coordinates": [ 139.331438, 35.388304 ] } },
{ "type": "Feature", "properties": { "内容": "医療法人社団神愛会オアシス湘南病院【通所リハビリテーション】神奈川県海老名市中河内1227-1", "url": "https://www.kaigokensaku.mhlw.go.jp/14/index.php?action_kouhyou_detail_004_kani=true&JigyosyoCd=1414200853-00&ServiceCd=160&Type=search", "url2": "https://shinnaikai-medical.or.jp/oasisclinic/rehabilitation" }, "geometry": { "type": "Point", "coordinates": [ 139.39161390000001, 35.4196266 ] } },
{ "type": "Feature", "properties": { "内容": "湘陽かしわ台病院【通所リハビリテーション】神奈川県海老名市柏ヶ谷3-11-1", "url": "https://www.kaigokensaku.mhlw.go.jp/14/index.php?action_kouhyou_detail_004_kani=true&JigyosyoCd=1414201398-00&ServiceCd=160&Type=search", "url2": "http://syokashi-hp.or.jp/" }, "geometry": { "type": "Point", "coordinates": [ 139.415509199999974, 35.464457699999983 ] } },
{ "type": "Feature", "properties": { "内容": "社会医療法人ジャパンメディカルアライアンス介護老人保健施設　アゼリア【通所リハビリテーション】神奈川県海老名市中央四丁目16番3号", "url": "https://www.kaigokensaku.mhlw.go.jp/14/index.php?action_kouhyou_detail_004_kani=true&JigyosyoCd=1454280012-00&ServiceCd=160&Type=search", "url2": "https://azalea.jinai.jp" }, "geometry": { "type": "Point", "coordinates": [ 139.385909, 35.4482733 ] } },
{ "type": "Feature", "properties": { "内容": "今里リハビリステーション【通所リハビリテーション】神奈川県海老名市今里1-10-12海老名ケアサポートセンター１階・２階", "url": "https://www.kaigokensaku.mhlw.go.jp/14/index.php?action_kouhyou_detail_004_kani=true&JigyosyoCd=1474201678-00&ServiceCd=160&Type=search", "url2": "https://jinai.jp/cs/kaigo/rehabilitation_imazato.html" }, "geometry": { "type": "Point", "coordinates": [ 139.3896289, 35.4300588 ] } },
{ "type": "Feature", "properties": { "内容": "老人保健施設　えびな【通所リハビリテーション】神奈川県海老名市柏ケ谷6-9-3", "url": "https://www.kaigokensaku.mhlw.go.jp/14/index.php?action_kouhyou_detail_004_kani=true&JigyosyoCd=1454280004-00&ServiceCd=160&Type=search", "url2": "http://www.hanashi-seikeigeka.com" }, "geometry": { "type": "Point", "coordinates": [ 139.410559599999942, 35.4649659 ] } },
{ "type": "Feature", "properties": { "内容": "井上整形外科【通所リハビリテーション】神奈川県座間市入谷西4丁目2-6", "url": "https://www.kaigokensaku.mhlw.go.jp/14/index.php?action_kouhyou_detail_004_kani=true&JigyosyoCd=1414110094-00&ServiceCd=160&Type=search", "url2": "https://inoue-seikei.net/" }, "geometry": { "type": "Point", "coordinates": [ 139.399793600000066, 35.4782637 ] } },
{ "type": "Feature", "properties": { "内容": "介護老人保健施設　神奈川セントラルケアセンター【通所リハビリテーション】神奈川県座間市栗原９１２－２", "url": "https://www.kaigokensaku.mhlw.go.jp/14/index.php?action_kouhyou_detail_004_kani=true&JigyosyoCd=1454180014-00&ServiceCd=160&Type=search", "url2": null }, "geometry": { "type": "Point", "coordinates": [ 139.419053611639384, 35.490656495151072 ] } },
{ "type": "Feature", "properties": { "内容": "介護老人保健施設　老健さがみ【通所リハビリテーション】神奈川県座間市相模が丘６－２１－２７", "url": "https://www.kaigokensaku.mhlw.go.jp/14/index.php?action_kouhyou_detail_004_kani=true&JigyosyoCd=1454180006-00&ServiceCd=160&Type=search", "url2": "https://i-koseikai.com/hp/" }, "geometry": { "type": "Point", "coordinates": [ 139.426609800000051, 35.5063114 ] } },
{ "type": "Feature", "properties": { "内容": "介護老人保健施設　にじの丘足柄【通所リハビリテーション】神奈川県南足柄市岩原６９９", "url": "https://www.kaigokensaku.mhlw.go.jp/14/index.php?action_kouhyou_detail_004_kani=true&JigyosyoCd=1454380002-00&ServiceCd=160&Type=search", "url2": "http://www.kiyoukai.jp/" }, "geometry": { "type": "Point", "coordinates": [ 139.123996199999965, 35.2942282 ] } },
{ "type": "Feature", "properties": { "内容": "介護老人保健施設　メイプル【通所リハビリテーション】神奈川県綾瀬市吉岡2361-7", "url": "https://www.kaigokensaku.mhlw.go.jp/14/index.php?action_kouhyou_detail_004_kani=true&JigyosyoCd=1454480000-00&ServiceCd=160&Type=search", "url2": "https://www.jikoukai.com/care/rehabilitation.html" }, "geometry": { "type": "Point", "coordinates": [ 139.4103407, 35.4273206 ] } },
{ "type": "Feature", "properties": { "内容": "湘南葉山デイケアクリニック【通所リハビリテーション】神奈川県三浦郡葉山町一色1746-2", "url": "https://www.kaigokensaku.mhlw.go.jp/14/index.php?action_kouhyou_detail_004_kani=true&JigyosyoCd=1411100460-00&ServiceCd=160&Type=search", "url2": "https://www.shdc.jp/" }, "geometry": { "type": "Point", "coordinates": [ 139.583916199999976, 35.2664002 ] } },
{ "type": "Feature", "properties": { "内容": "湘南グリーン介護老人保健施設　葉山【通所リハビリテーション】神奈川県三浦郡葉山町一色2448-1", "url": "https://www.kaigokensaku.mhlw.go.jp/14/index.php?action_kouhyou_detail_004_kani=true&JigyosyoCd=1451180009-00&ServiceCd=160&Type=search", "url2": "https://soukoukai.jp/pages/35/" }, "geometry": { "type": "Point", "coordinates": [ 139.570600399999989, 35.2680084 ] } },
{ "type": "Feature", "properties": { "内容": "宗教法人寒川神社　介護老人保健施設　神恵苑【通所リハビリテーション】神奈川県高座郡寒川町宮山１８０－１", "url": "https://www.kaigokensaku.mhlw.go.jp/14/index.php?action_kouhyou_detail_004_kani=true&JigyosyoCd=1451280007-00&ServiceCd=160&Type=search", "url2": "https://shinkeien.jp/" }, "geometry": { "type": "Point", "coordinates": [ 139.382286099999988, 35.3734976 ] } },
{ "type": "Feature", "properties": { "内容": "介護老人保健施設　大磯幸寿苑【通所リハビリテーション】神奈川県中郡大磯町西小磯2466", "url": "https://www.kaigokensaku.mhlw.go.jp/14/index.php?action_kouhyou_detail_004_kani=true&JigyosyoCd=1451380005-00&ServiceCd=160&Type=search", "url2": "http://www.koujukai.com/oiso/" }, "geometry": { "type": "Point", "coordinates": [ 139.298163859524493, 35.321457168781606 ] } },
{ "type": "Feature", "properties": { "内容": "医療法人社団　松和会　望星二宮クリニック　二宮ききょう苑【通所リハビリテーション】神奈川県中郡二宮町二宮769", "url": "https://www.kaigokensaku.mhlw.go.jp/14/index.php?action_kouhyou_detail_004_kani=true&JigyosyoCd=1411301845-00&ServiceCd=160&Type=search", "url2": "http://www.showakai.or.jp/" }, "geometry": { "type": "Point", "coordinates": [ 139.262087899999983, 35.3002914 ] } },
{ "type": "Feature", "properties": { "内容": "介護老人保健施設　グレースヒル・湘南【通所リハビリテーション】神奈川県足柄上郡中井町松本１１３５－１", "url": "https://www.kaigokensaku.mhlw.go.jp/14/index.php?action_kouhyou_detail_004_kani=true&JigyosyoCd=1451480011-00&ServiceCd=160&Type=search", "url2": "http://www.ittokai.or.jp/grace/" }, "geometry": { "type": "Point", "coordinates": [ 139.1953456, 35.3462609 ] } },
{ "type": "Feature", "properties": { "内容": "介護老人保健施設あじさいの郷【通所リハビリテーション】神奈川県足柄上郡開成町金井島1966", "url": "https://www.kaigokensaku.mhlw.go.jp/14/index.php?action_kouhyou_detail_004_kani=true&JigyosyoCd=1451480022-00&ServiceCd=160&Type=search", "url2": "https://katsumata-mc-hp.jp/ajisainosato/" }, "geometry": { "type": "Point", "coordinates": [ 139.111834, 35.3499975 ] } },
{ "type": "Feature", "properties": { "内容": "介護老人保健施設　デンマークイン箱根【通所リハビリテーション】神奈川県足柄下郡箱根町仙石原１２８５", "url": "https://www.kaigokensaku.mhlw.go.jp/14/index.php?action_kouhyou_detail_004_kani=true&JigyosyoCd=1451580000-00&ServiceCd=160&Type=search", "url2": "http://www.kensei-hakone.com/" }, "geometry": { "type": "Point", "coordinates": [ 139.021849370845047, 35.263901127176084 ] } },
{ "type": "Feature", "properties": { "内容": "ニューライフ湯河原【通所リハビリテーション】神奈川県足柄下郡湯河原町吉浜字白沼田１９０６", "url": "https://www.kaigokensaku.mhlw.go.jp/14/index.php?action_kouhyou_detail_004_kani=true&JigyosyoCd=1451580018-00&ServiceCd=160&Type=search", "url2": "http://www.newlife-web.ne.jp/" }, "geometry": { "type": "Point", "coordinates": [ 139.1162157, 35.1599356 ] } },
{ "type": "Feature", "properties": { "内容": "医療法人社団　愛清　介護老人保健施設　せせらぎ【通所リハビリテーション】神奈川県愛甲郡愛川町角田4369-18", "url": "https://www.kaigokensaku.mhlw.go.jp/14/index.php?action_kouhyou_detail_004_kani=true&JigyosyoCd=1451680008-00&ServiceCd=160&Type=search", "url2": "http://www.aisei-dc.jp" }, "geometry": { "type": "Point", "coordinates": [ 139.298777, 35.5273345 ] } },
{ "type": "Feature", "properties": { "内容": "愛川北部病院【通所リハビリテーション】神奈川県愛甲郡愛川町角田281-1", "url": "https://www.kaigokensaku.mhlw.go.jp/14/index.php?action_kouhyou_detail_004_kani=true&JigyosyoCd=1411600469-00&ServiceCd=160&Type=search", "url2": "http://www.hokubu.or.jp/" }, "geometry": { "type": "Point", "coordinates": [ 139.321739067459163, 35.530363193631445 ] } }
]
}
