{
"type": "FeatureCollection",
"name": "geo_14_看護小規模多機能型居宅介護（複合型サービス）",
"crs": { "type": "name", "properties": { "name": "urn:ogc:def:crs:OGC:1.3:CRS84" } },
"features": [
{ "type": "Feature", "properties": { "内容": "ナーシングホームはまあかり【看護小規模多機能型居宅介護（複合型サービス）】神奈川県横浜市西区中央1-15-18", "url": "https://www.kaigokensaku.mhlw.go.jp/14/index.php?action_kouhyou_detail_004_kani=true&JigyosyoCd=1490300231-00&ServiceCd=&Type=search", "url2": "http://www.yokohama-nishiku-med.org" }, "geometry": { "type": "Point", "coordinates": [ 139.6168012, 35.4540949 ] } },
{ "type": "Feature", "properties": { "内容": "ミモザ横浜永田東【看護小規模多機能型居宅介護（複合型サービス）】神奈川県横浜市南区永田東２－２３－５０", "url": "https://www.kaigokensaku.mhlw.go.jp/14/index.php?action_kouhyou_detail_004_kani=true&JigyosyoCd=1490500269-00&ServiceCd=&Type=search", "url2": "https://mimoza-care.com/facility/nursing-small-scale-multifunctional-home-care/post-371/" }, "geometry": { "type": "Point", "coordinates": [ 139.593433, 35.434134 ] } },
{ "type": "Feature", "properties": { "内容": "看護小規模多機能　みのり大岡【看護小規模多機能型居宅介護（複合型サービス）】神奈川県横浜市南区大岡3-12-25", "url": "https://www.kaigokensaku.mhlw.go.jp/14/index.php?action_kouhyou_detail_004_kani=true&JigyosyoCd=1490500566-00&ServiceCd=&Type=search", "url2": "http://minori-care.jp/publics/index/17/" }, "geometry": { "type": "Point", "coordinates": [ 139.6031596, 35.4184771 ] } },
{ "type": "Feature", "properties": { "内容": "複合型サービスふくふく寺前【看護小規模多機能型居宅介護（複合型サービス）】神奈川県横浜市金沢区寺前2-5-38", "url": "https://www.kaigokensaku.mhlw.go.jp/14/index.php?action_kouhyou_detail_004_kani=true&JigyosyoCd=1490800164-00&ServiceCd=&Type=search", "url2": "http://www.zaitaku-nurse.com" }, "geometry": { "type": "Point", "coordinates": [ 139.630143800000042, 35.3377253 ] } },
{ "type": "Feature", "properties": { "内容": "看護小規模多機能型居宅介護ふくふく釜利谷【看護小規模多機能型居宅介護（複合型サービス）】神奈川県横浜市金沢区釜利谷南２－４－２２白山ハイツ", "url": "https://www.kaigokensaku.mhlw.go.jp/14/index.php?action_kouhyou_detail_004_kani=true&JigyosyoCd=1490800461-00&ServiceCd=&Type=search", "url2": "http://www.zaitaku-nurse.com" }, "geometry": { "type": "Point", "coordinates": [ 139.60906503196091, 35.338422700919125 ] } },
{ "type": "Feature", "properties": { "内容": "花織　こうほく【看護小規模多機能型居宅介護（複合型サービス）】神奈川県横浜市港北区篠原町3093-1", "url": "https://www.kaigokensaku.mhlw.go.jp/14/index.php?action_kouhyou_detail_004_kani=true&JigyosyoCd=1490900386-00&ServiceCd=&Type=search", "url2": "https://jala.co.jp/facility/k-kouhoku/" }, "geometry": { "type": "Point", "coordinates": [ 139.615448900000047, 35.5026563 ] } },
{ "type": "Feature", "properties": { "内容": "看護小規模多機能施設　のぞみ【看護小規模多機能型居宅介護（複合型サービス）】神奈川県横浜市港北区日吉本町6-66-3", "url": "https://www.kaigokensaku.mhlw.go.jp/14/index.php?action_kouhyou_detail_004_kani=true&JigyosyoCd=1490900626-00&ServiceCd=&Type=search", "url2": "http://www.welfare-yui.com/" }, "geometry": { "type": "Point", "coordinates": [ 139.6262667, 35.5545367 ] } },
{ "type": "Feature", "properties": { "内容": "ウイル戸塚ステーション【看護小規模多機能型居宅介護（複合型サービス）】神奈川県横浜市戸塚区戸塚町3570-1", "url": "https://www.kaigokensaku.mhlw.go.jp/14/index.php?action_kouhyou_detail_004_kani=true&JigyosyoCd=1491000434-00&ServiceCd=&Type=search", "url2": "https://senior-will.co.jp/will_totsuka/" }, "geometry": { "type": "Point", "coordinates": [ 139.524238500000024, 35.3960711 ] } },
{ "type": "Feature", "properties": { "内容": "複合型サービス事業所アンジュ【看護小規模多機能型居宅介護（複合型サービス）】神奈川県横浜市戸塚区名瀬町793-7", "url": "https://www.kaigokensaku.mhlw.go.jp/14/index.php?action_kouhyou_detail_004_kani=true&JigyosyoCd=1491000491-00&ServiceCd=&Type=search", "url2": "https://ayumi-ange.com/" }, "geometry": { "type": "Point", "coordinates": [ 139.5412119, 35.4339358 ] } },
{ "type": "Feature", "properties": { "内容": "看護小規模多機能型居宅介護　ケアピリカ横浜港南【看護小規模多機能型居宅介護（複合型サービス）】神奈川県横浜市港南区下永谷6-7-23", "url": "https://www.kaigokensaku.mhlw.go.jp/14/index.php?action_kouhyou_detail_004_kani=true&JigyosyoCd=1493100257-00&ServiceCd=&Type=search", "url2": "http://www.handbell-care.com/carepirica/" }, "geometry": { "type": "Point", "coordinates": [ 139.560166400000071, 35.4169412 ] } },
{ "type": "Feature", "properties": { "内容": "看護小規模多機能型居宅介護　クロスハート港南・横浜【看護小規模多機能型居宅介護（複合型サービス）】神奈川県横浜市港南区東永谷1-37-4", "url": "https://www.kaigokensaku.mhlw.go.jp/14/index.php?action_kouhyou_detail_004_kani=true&JigyosyoCd=1493100224-00&ServiceCd=&Type=search", "url2": "https://www.shinkoufukushikai.com/care/kangotakino/konan-kango" }, "geometry": { "type": "Point", "coordinates": [ 139.582014800000024, 35.4074399 ] } },
{ "type": "Feature", "properties": { "内容": "看護小規模多機能型施設　バームハウス【看護小規模多機能型居宅介護（複合型サービス）】神奈川県横浜市旭区さちが丘7番14", "url": "https://www.kaigokensaku.mhlw.go.jp/14/index.php?action_kouhyou_detail_004_kani=true&JigyosyoCd=1493200560-00&ServiceCd=&Type=search", "url2": null }, "geometry": { "type": "Point", "coordinates": [ 139.525433815344229, 35.461960217183638 ] } },
{ "type": "Feature", "properties": { "内容": "看護小規模多機能リベル　四季の森公園【看護小規模多機能型居宅介護（複合型サービス）】神奈川県横浜市旭区上白根町795番2", "url": "https://www.kaigokensaku.mhlw.go.jp/14/index.php?action_kouhyou_detail_004_kani=true&JigyosyoCd=1493200859-00&ServiceCd=&Type=search", "url2": "https://www.libercare.jp/location/multifunctional/shikinomori-koen/" }, "geometry": { "type": "Point", "coordinates": [ 139.5359747, 35.5000107 ] } },
{ "type": "Feature", "properties": { "内容": "太陽の家看多機つむぎ【看護小規模多機能型居宅介護（複合型サービス）】神奈川県横浜市旭区小高町172-8", "url": "https://www.kaigokensaku.mhlw.go.jp/14/index.php?action_kouhyou_detail_004_kani=true&JigyosyoCd=1493200891-00&ServiceCd=&Type=search", "url2": "https://www.ui21.or.jp/" }, "geometry": { "type": "Point", "coordinates": [ 139.554247500000031, 35.4616664 ] } },
{ "type": "Feature", "properties": { "内容": "看護小規模多機能型居宅介護事業所しょうじゅの里三保サテライト【看護小規模多機能型居宅介護（複合型サービス）】神奈川県横浜市緑区三保町2640－220", "url": "https://www.kaigokensaku.mhlw.go.jp/14/index.php?action_kouhyou_detail_004_kani=true&JigyosyoCd=1493300527-00&ServiceCd=&Type=search", "url2": "http://www.akaedakai.com/miho/" }, "geometry": { "type": "Point", "coordinates": [ 139.527044675585074, 35.508429453669642 ] } },
{ "type": "Feature", "properties": { "内容": "看護小規模多機能型居宅介護事業所　しょうじゅの里三ツ境【看護小規模多機能型居宅介護（複合型サービス）】神奈川県横浜市瀬谷区三ツ境78-1", "url": "https://www.kaigokensaku.mhlw.go.jp/14/index.php?action_kouhyou_detail_004_kani=true&JigyosyoCd=1493400418-00&ServiceCd=&Type=search", "url2": "http://www.akaedakai.com/mitsukyo/index.html" }, "geometry": { "type": "Point", "coordinates": [ 139.505274581614657, 35.460058777097984 ] } },
{ "type": "Feature", "properties": { "内容": "ファミリー・ホスピス本郷台ハウス【看護小規模多機能型居宅介護（複合型サービス）】神奈川県横浜市栄区小菅ヶ谷3-31-16", "url": "https://www.kaigokensaku.mhlw.go.jp/14/index.php?action_kouhyou_detail_004_kani=true&JigyosyoCd=1493500316-00&ServiceCd=&Type=search", "url2": "https://family-hospice.co.jp/" }, "geometry": { "type": "Point", "coordinates": [ 139.5544946, 35.3698985 ] } },
{ "type": "Feature", "properties": { "内容": "看護小規模多機能ホーム　こころ【看護小規模多機能型居宅介護（複合型サービス）】神奈川県横浜市栄区桂台西２－２３－１", "url": "https://www.kaigokensaku.mhlw.go.jp/14/index.php?action_kouhyou_detail_004_kani=true&JigyosyoCd=1493500373-00&ServiceCd=&Type=search", "url2": "最終確認中" }, "geometry": { "type": "Point", "coordinates": [ 139.562473299999965, 35.3521067 ] } },
{ "type": "Feature", "properties": { "内容": "たすけあい泉フルール看護小規模多機能型介護事業所【看護小規模多機能型居宅介護（複合型サービス）】神奈川県横浜市泉区中田南二丁目11番40号", "url": "https://www.kaigokensaku.mhlw.go.jp/14/index.php?action_kouhyou_detail_004_kani=true&JigyosyoCd=1493600371-00&ServiceCd=&Type=search", "url2": "https://tasukeai-izumi.net/furu-ru.html" }, "geometry": { "type": "Point", "coordinates": [ 139.51232559999994, 35.4088832 ] } },
{ "type": "Feature", "properties": { "内容": "アットホームやすらぎ【看護小規模多機能型居宅介護（複合型サービス）】神奈川県横浜市泉区和泉町7315-7いずみ光ビル１階", "url": "https://www.kaigokensaku.mhlw.go.jp/14/index.php?action_kouhyou_detail_004_kani=true&JigyosyoCd=1493600405-00&ServiceCd=&Type=search", "url2": "http://izumidai.net/ahyasuragi/" }, "geometry": { "type": "Point", "coordinates": [ 139.484758400000032, 35.4421069 ] } },
{ "type": "Feature", "properties": { "内容": "やさしい手看多機かえりえ荏田西【看護小規模多機能型居宅介護（複合型サービス）】神奈川県横浜市青葉区荏田西2-29-24２階", "url": "https://www.kaigokensaku.mhlw.go.jp/14/index.php?action_kouhyou_detail_004_kani=true&JigyosyoCd=1493700775-00&ServiceCd=&Type=search", "url2": "https://search.yasashiite.com/detail/kantaki_edanishi/" }, "geometry": { "type": "Point", "coordinates": [ 139.550353, 35.552205 ] } },
{ "type": "Feature", "properties": { "内容": "複合型ハウス・メリー【看護小規模多機能型居宅介護（複合型サービス）】神奈川県横浜市青葉区松風台48番地16", "url": "https://www.kaigokensaku.mhlw.go.jp/14/index.php?action_kouhyou_detail_004_kani=true&JigyosyoCd=1493700304-00&ServiceCd=&Type=search", "url2": "https://bear-olive.co.jp" }, "geometry": { "type": "Point", "coordinates": [ 139.508015200000045, 35.5478698 ] } },
{ "type": "Feature", "properties": { "内容": "都筑区医師会ナーシングホーム【看護小規模多機能型居宅介護（複合型サービス）】神奈川県横浜市都筑区牛久保西1-20-21", "url": "https://www.kaigokensaku.mhlw.go.jp/14/index.php?action_kouhyou_detail_004_kani=true&JigyosyoCd=1493800328-00&ServiceCd=&Type=search", "url2": "http://www.tsuzuki-med.org/wp/center/introduction/nursinghome/" }, "geometry": { "type": "Point", "coordinates": [ 139.581446407934578, 35.55671737100198 ] } },
{ "type": "Feature", "properties": { "内容": "さくらカンタキステーション【看護小規模多機能型居宅介護（複合型サービス）】神奈川県横浜市都筑区東山田1-38-24", "url": "https://www.kaigokensaku.mhlw.go.jp/14/index.php?action_kouhyou_detail_004_kani=true&JigyosyoCd=1493800443-00&ServiceCd=&Type=search", "url2": "http://www5.hp-ez.com/hp/homecre" }, "geometry": { "type": "Point", "coordinates": [ 139.599865899999941, 35.566981 ] } },
{ "type": "Feature", "properties": { "内容": "看護小規模多機能型居宅介護川崎ラシクル【看護小規模多機能型居宅介護（複合型サービス）】神奈川県川崎市川崎区日進町5-1川崎市複合福祉センターふくふく", "url": "https://www.kaigokensaku.mhlw.go.jp/14/index.php?action_kouhyou_detail_004_kani=true&JigyosyoCd=1495000703-00&ServiceCd=&Type=search", "url2": "https://www.misasakai.or.jp/" }, "geometry": { "type": "Point", "coordinates": [ 139.692881700000015, 35.525946800000014 ] } },
{ "type": "Feature", "properties": { "内容": "和音【看護小規模多機能型居宅介護（複合型サービス）】神奈川県川崎市幸区北加瀬2-11-5", "url": "https://www.kaigokensaku.mhlw.go.jp/14/index.php?action_kouhyou_detail_004_kani=true&JigyosyoCd=1495100511-00&ServiceCd=&Type=search", "url2": "https://www.cmcare.co.jp/" }, "geometry": { "type": "Point", "coordinates": [ 139.6629857, 35.5512157 ] } },
{ "type": "Feature", "properties": { "内容": "なかはら看護小規模多機能ホーム【看護小規模多機能型居宅介護（複合型サービス）】神奈川県川崎市中原区上平間１２６４メディホープなかはらビル", "url": "https://www.kaigokensaku.mhlw.go.jp/14/index.php?action_kouhyou_detail_004_kani=true&JigyosyoCd=1495200279-00&ServiceCd=&Type=search", "url2": "http://www.kai-go.org/" }, "geometry": { "type": "Point", "coordinates": [ 139.679632565081789, 35.557467761448997 ] } },
{ "type": "Feature", "properties": { "内容": "ヒューマンライフケア宇奈根の宿【看護小規模多機能型居宅介護（複合型サービス）】神奈川県川崎市高津区宇奈根633-2", "url": "https://www.kaigokensaku.mhlw.go.jp/14/index.php?action_kouhyou_detail_004_kani=true&JigyosyoCd=1495300319-00&ServiceCd=&Type=search", "url2": "http://kaigo.human-lifecare.jp/facilities/ks002_Unane/summary.html" }, "geometry": { "type": "Point", "coordinates": [ 139.5998638, 35.6140244 ] } },
{ "type": "Feature", "properties": { "内容": "花織たかつ【看護小規模多機能型居宅介護（複合型サービス）】神奈川県川崎市高津区子母口777かおりたかつ", "url": "https://www.kaigokensaku.mhlw.go.jp/14/index.php?action_kouhyou_detail_004_kani=true&JigyosyoCd=1495300327-00&ServiceCd=&Type=search", "url2": "http://www.kaori-kaigo.com" }, "geometry": { "type": "Point", "coordinates": [ 139.5221477, 35.5530682 ] } },
{ "type": "Feature", "properties": { "内容": "看護小規模多機能型居宅介護よろこび久末【看護小規模多機能型居宅介護（複合型サービス）】神奈川県川崎市高津区久末1800-26ビバース久末１階", "url": "https://www.kaigokensaku.mhlw.go.jp/14/index.php?action_kouhyou_detail_004_kani=true&JigyosyoCd=1495300384-00&ServiceCd=&Type=search", "url2": "http://biseikai.or.jp/hisasue/" }, "geometry": { "type": "Point", "coordinates": [ 139.627895523650039, 35.564413332660322 ] } },
{ "type": "Feature", "properties": { "内容": "ミモザ川崎たちばな【看護小規模多機能型居宅介護（複合型サービス）】神奈川県川崎市高津区子母口999", "url": "https://www.kaigokensaku.mhlw.go.jp/14/index.php?action_kouhyou_detail_004_kani=true&JigyosyoCd=1495300483-00&ServiceCd=&Type=search", "url2": "https://www.mimoza-care.jp/base/kawasaki-tachibana.html" }, "geometry": { "type": "Point", "coordinates": [ 139.627500500000025, 35.5701965 ] } },
{ "type": "Feature", "properties": { "内容": "ななきナーシングホーム野川【看護小規模多機能型居宅介護（複合型サービス）】神奈川県川崎市高津区東野川1-28-17", "url": "https://www.kaigokensaku.mhlw.go.jp/14/index.php?action_kouhyou_detail_004_kani=true&JigyosyoCd=1495300491-00&ServiceCd=&Type=search", "url2": "http://www.nanaki-kaigo.com/" }, "geometry": { "type": "Point", "coordinates": [ 139.616632799999934, 35.5691473 ] } },
{ "type": "Feature", "properties": { "内容": "看護小規模多機能型居宅介護　プラチナコミュニティ梶ヶ谷【看護小規模多機能型居宅介護（複合型サービス）】神奈川県川崎市高津区末長1-41-1", "url": "https://www.kaigokensaku.mhlw.go.jp/14/index.php?action_kouhyou_detail_004_kani=true&JigyosyoCd=1495300541-00&ServiceCd=&Type=search", "url2": "http://platinum-care.jp/kajigaya/" }, "geometry": { "type": "Point", "coordinates": [ 139.605956399999968, 35.5912126 ] } },
{ "type": "Feature", "properties": { "内容": "ナース＆ケアハウス　ふれあい【看護小規模多機能型居宅介護（複合型サービス）】神奈川県川崎市多摩区枡形6-19-8たまふれあいの家　枡形１Ｆ", "url": "https://www.kaigokensaku.mhlw.go.jp/14/index.php?action_kouhyou_detail_004_kani=true&JigyosyoCd=1495400531-00&ServiceCd=&Type=search", "url2": "http://tama-fureai.com/nurse-carehouse/" }, "geometry": { "type": "Point", "coordinates": [ 139.556553099999974, 35.6142236 ] } },
{ "type": "Feature", "properties": { "内容": "看多機かえりえ南生田【看護小規模多機能型居宅介護（複合型サービス）】神奈川県川崎市多摩区南生田4-6-6医療モール2F", "url": "https://www.kaigokensaku.mhlw.go.jp/14/index.php?action_kouhyou_detail_004_kani=true&JigyosyoCd=1495400689-00&ServiceCd=&Type=search", "url2": "htpp://www.yasashiite.com" }, "geometry": { "type": "Point", "coordinates": [ 139.5361934, 35.6023143 ] } },
{ "type": "Feature", "properties": { "内容": "医療法人社団三医会　ナーシングケアホーム長沢ひまわり【看護小規模多機能型居宅介護（複合型サービス）】神奈川県川崎市多摩区長沢1-27-7", "url": "https://www.kaigokensaku.mhlw.go.jp/14/index.php?action_kouhyou_detail_004_kani=true&JigyosyoCd=1495400739-00&ServiceCd=&Type=search", "url2": "https://www.tsurukawakinen.or.jp/visit-nurse/nursing_care_home/" }, "geometry": { "type": "Point", "coordinates": [ 139.5438742, 35.60402160000001 ] } },
{ "type": "Feature", "properties": { "内容": "パナソニックエイジフリーケアセンター川崎向ケ丘遊園・看護小規模多機能【看護小規模多機能型居宅介護（複合型サービス）】神奈川県川崎市多摩区登戸138番地", "url": "https://www.kaigokensaku.mhlw.go.jp/14/index.php?action_kouhyou_detail_004_kani=true&JigyosyoCd=1495400838-00&ServiceCd=&Type=search", "url2": null }, "geometry": { "type": "Point", "coordinates": [ 139.5531863, 35.6230002 ] } },
{ "type": "Feature", "properties": { "内容": "看護小規模多機能型居宅介護　あきざくら【看護小規模多機能型居宅介護（複合型サービス）】神奈川県川崎市宮前区東有馬5丁目16-1", "url": "https://www.kaigokensaku.mhlw.go.jp/14/index.php?action_kouhyou_detail_004_kani=true&JigyosyoCd=1495500777-00&ServiceCd=&Type=search", "url2": "https://shuhokai.or.jp/" }, "geometry": { "type": "Point", "coordinates": [ 139.5956228, 35.5681719 ] } },
{ "type": "Feature", "properties": { "内容": "看護小規模多機能型居宅介護　プラチナコミュニティ有馬【看護小規模多機能型居宅介護（複合型サービス）】神奈川県川崎市宮前区有馬6丁目10-25B", "url": "https://www.kaigokensaku.mhlw.go.jp/14/index.php?action_kouhyou_detail_004_kani=true&JigyosyoCd=1495500538-00&ServiceCd=&Type=search", "url2": "http://platinum-care.jp/" }, "geometry": { "type": "Point", "coordinates": [ 139.582504400000062, 35.570612 ] } },
{ "type": "Feature", "properties": { "内容": "セントケア看護小規模みやまえ【看護小規模多機能型居宅介護（複合型サービス）】神奈川県川崎市宮前区西野川3-10-3", "url": "https://www.kaigokensaku.mhlw.go.jp/14/index.php?action_kouhyou_detail_004_kani=true&JigyosyoCd=1495500744-00&ServiceCd=&Type=search", "url2": null }, "geometry": { "type": "Point", "coordinates": [ 139.603460100000035, 35.571807530368993 ] } },
{ "type": "Feature", "properties": { "内容": "花織みやまえ【看護小規模多機能型居宅介護（複合型サービス）】神奈川県川崎市宮前区梶ヶ谷1483-1", "url": "https://www.kaigokensaku.mhlw.go.jp/14/index.php?action_kouhyou_detail_004_kani=true&JigyosyoCd=1495500298-00&ServiceCd=&Type=search", "url2": "https://jala.co.jp/facility/k-miyamae/" }, "geometry": { "type": "Point", "coordinates": [ 139.603630631352189, 35.580568205585081 ] } },
{ "type": "Feature", "properties": { "内容": "ナーシングホームゆらりん【看護小規模多機能型居宅介護（複合型サービス）】神奈川県川崎市麻生区岡上4-2-26", "url": "https://www.kaigokensaku.mhlw.go.jp/14/index.php?action_kouhyou_detail_004_kani=true&JigyosyoCd=1495600262-00&ServiceCd=&Type=search", "url2": "http://yurarin.jp/" }, "geometry": { "type": "Point", "coordinates": [ 139.480484299999944, 35.580438200000025 ] } },
{ "type": "Feature", "properties": { "内容": "ヴィラージュ虹ヶ丘　看護小規模多機能型居宅介護【看護小規模多機能型居宅介護（複合型サービス）】神奈川県川崎市麻生区虹ヶ丘1丁目22番1-2号", "url": "https://www.kaigokensaku.mhlw.go.jp/14/index.php?action_kouhyou_detail_004_kani=true&JigyosyoCd=1495600312-00&ServiceCd=&Type=search", "url2": "http://www.v-niji.rexw.jp/" }, "geometry": { "type": "Point", "coordinates": [ 139.520321500000023, 35.580056 ] } },
{ "type": "Feature", "properties": { "内容": "セントケア看護小規模たま美【看護小規模多機能型居宅介護（複合型サービス）】神奈川県川崎市麻生区多摩美1-2-4", "url": "https://www.kaigokensaku.mhlw.go.jp/14/index.php?action_kouhyou_detail_004_kani=true&JigyosyoCd=1495600486-00&ServiceCd=&Type=search", "url2": "http://www.saintc-k.com/" }, "geometry": { "type": "Point", "coordinates": [ 139.524589200000037, 35.6159233 ] } },
{ "type": "Feature", "properties": { "内容": "看護小規模多機能　支え合い【看護小規模多機能型居宅介護（複合型サービス）】神奈川県川崎市麻生区栗木3-6-20", "url": "https://www.kaigokensaku.mhlw.go.jp/14/index.php?action_kouhyou_detail_004_kani=true&JigyosyoCd=1495600692-00&ServiceCd=&Type=search", "url2": "https://soerute.co.jp/service/service_sasaeai/" }, "geometry": { "type": "Point", "coordinates": [ 139.471318898741913, 35.604292556037883 ] } },
{ "type": "Feature", "properties": { "内容": "セントケア看護小規模ゆりがおか【看護小規模多機能型居宅介護（複合型サービス）】神奈川県川崎市麻生区高石2-20-12", "url": "https://www.kaigokensaku.mhlw.go.jp/14/index.php?action_kouhyou_detail_004_kani=true&JigyosyoCd=1495600684-00&ServiceCd=&Type=search", "url2": "https://www.saintc-k.com/" }, "geometry": { "type": "Point", "coordinates": [ 139.5131647, 35.6131394 ] } },
{ "type": "Feature", "properties": { "内容": "看護小規模多機能リベル　元橋本【看護小規模多機能型居宅介護（複合型サービス）】神奈川県相模原市緑区元橋本町36番27号", "url": "https://www.kaigokensaku.mhlw.go.jp/14/index.php?action_kouhyou_detail_004_kani=true&JigyosyoCd=1492602568-00&ServiceCd=&Type=search", "url2": "https://www.libercare.jp/location/multifunctional/motohashimoto/" }, "geometry": { "type": "Point", "coordinates": [ 139.3331897, 35.6026443 ] } },
{ "type": "Feature", "properties": { "内容": "看護小規模多機能型居宅介護　花織はしもと【看護小規模多機能型居宅介護（複合型サービス）】神奈川県相模原市緑区東橋本2-27-11", "url": "https://www.kaigokensaku.mhlw.go.jp/14/index.php?action_kouhyou_detail_004_kani=true&JigyosyoCd=1492600976-00&ServiceCd=&Type=search", "url2": "http://www.kaori-kaigo.com" }, "geometry": { "type": "Point", "coordinates": [ 139.341811799999959, 35.5996687 ] } },
{ "type": "Feature", "properties": { "内容": "看護小規模多機能型居宅介護事業所　しょうじゅの里相模原【看護小規模多機能型居宅介護（複合型サービス）】神奈川県相模原市中央区すすきの町22-12", "url": "https://www.kaigokensaku.mhlw.go.jp/14/index.php?action_kouhyou_detail_004_kani=true&JigyosyoCd=1492602022-00&ServiceCd=&Type=search", "url2": "http://www.akaedakai.com/sagamihara/index.html" }, "geometry": { "type": "Point", "coordinates": [ 139.368963900000011, 35.5895172 ] } },
{ "type": "Feature", "properties": { "内容": "セントケア看護小規模清新【看護小規模多機能型居宅介護（複合型サービス）】神奈川県相模原市中央区清新7-8-16", "url": "https://www.kaigokensaku.mhlw.go.jp/14/index.php?action_kouhyou_detail_004_kani=true&JigyosyoCd=1492602105-00&ServiceCd=&Type=search", "url2": "https://www.saintc-k.com/office/3737.html" }, "geometry": { "type": "Point", "coordinates": [ 139.3629554, 35.5748083 ] } },
{ "type": "Feature", "properties": { "内容": "パナソニックエイジフリーケアセンター相模大野・看護小規模多機能【看護小規模多機能型居宅介護（複合型サービス）】神奈川県相模原市南区相模大野5丁目29番6号パナソニックエイジフリーケアセンター相模大野・看護小規模多機能", "url": "https://www.kaigokensaku.mhlw.go.jp/14/index.php?action_kouhyou_detail_004_kani=true&JigyosyoCd=1492602469-00&ServiceCd=&Type=search", "url2": "https://sumai.panasonic.co.jp/agefree/map/detail.php?id=286" }, "geometry": { "type": "Point", "coordinates": [ 139.4327529, 35.5314649 ] } },
{ "type": "Feature", "properties": { "内容": "ゆとり庵麻溝　看護小規模多機能型居宅介護【看護小規模多機能型居宅介護（複合型サービス）】神奈川県相模原市南区下溝1980-2", "url": "https://www.kaigokensaku.mhlw.go.jp/14/index.php?action_kouhyou_detail_004_kani=true&JigyosyoCd=1492601602-00&ServiceCd=&Type=search", "url2": "https://hinode.or.jp/establishment/yutorian-asamizo/" }, "geometry": { "type": "Point", "coordinates": [ 139.381301849702822, 35.525605918115275 ] } },
{ "type": "Feature", "properties": { "内容": "セントケア看護小規模鵜野森【看護小規模多機能型居宅介護（複合型サービス）】神奈川県相模原市南区鵜野森3-18-15", "url": "https://www.kaigokensaku.mhlw.go.jp/14/index.php?action_kouhyou_detail_004_kani=true&JigyosyoCd=1492601917-00&ServiceCd=&Type=search", "url2": "https://www.saintc-k.com/office/3048.html" }, "geometry": { "type": "Point", "coordinates": [ 139.4338127, 35.5420047 ] } },
{ "type": "Feature", "properties": { "内容": "看護小規模多機能型居宅介護エクセレント相模大野【看護小規模多機能型居宅介護（複合型サービス）】神奈川県相模原市南区上鶴間本町1-29-18", "url": "https://www.kaigokensaku.mhlw.go.jp/14/index.php?action_kouhyou_detail_004_kani=true&JigyosyoCd=1492602394-00&ServiceCd=&Type=search", "url2": "https://www.excare.co.jp/facility/09/sagamihara" }, "geometry": { "type": "Point", "coordinates": [ 139.4380179, 35.5356627 ] } },
{ "type": "Feature", "properties": { "内容": "聖ヨゼフ　看護小規模多機能ホーム【看護小規模多機能型居宅介護（複合型サービス）】神奈川県横須賀市緑が丘28", "url": "https://www.kaigokensaku.mhlw.go.jp/14/index.php?action_kouhyou_detail_004_kani=true&JigyosyoCd=1491901151-00&ServiceCd=&Type=search", "url2": "https://www.st-joseph.jp/" }, "geometry": { "type": "Point", "coordinates": [ 139.665907255155986, 35.280472846171605 ] } },
{ "type": "Feature", "properties": { "内容": "セントケア看護小規模衣笠【看護小規模多機能型居宅介護（複合型サービス）】神奈川県横須賀市平作8-19-14", "url": "https://www.kaigokensaku.mhlw.go.jp/14/index.php?action_kouhyou_detail_004_kani=true&JigyosyoCd=1491900377-00&ServiceCd=&Type=search", "url2": "http://www.saintc-k.com/office.php" }, "geometry": { "type": "Point", "coordinates": [ 139.649424400000044, 35.2625709 ] } },
{ "type": "Feature", "properties": { "内容": "太陽の家浦賀　看護小規模多機能型居宅介護【看護小規模多機能型居宅介護（複合型サービス）】神奈川県横須賀市浦賀2-3-20", "url": "https://www.kaigokensaku.mhlw.go.jp/14/index.php?action_kouhyou_detail_004_kani=true&JigyosyoCd=1491900542-00&ServiceCd=&Type=search", "url2": "https://www.ui21.or.jp/" }, "geometry": { "type": "Point", "coordinates": [ 139.708719, 35.2538907 ] } },
{ "type": "Feature", "properties": { "内容": "花織よこすか【看護小規模多機能型居宅介護（複合型サービス）】神奈川県横須賀市長沢1-8-23はるかぜハウス１階", "url": "https://www.kaigokensaku.mhlw.go.jp/14/index.php?action_kouhyou_detail_004_kani=true&JigyosyoCd=1491900930-00&ServiceCd=&Type=search", "url2": "https://jala.co.jp/" }, "geometry": { "type": "Point", "coordinates": [ 139.671936499999987, 35.200033 ] } },
{ "type": "Feature", "properties": { "内容": "聖隷看護小規模多機能横須賀【看護小規模多機能型居宅介護（複合型サービス）】神奈川県横須賀市武3-39-1", "url": "https://www.kaigokensaku.mhlw.go.jp/14/index.php?action_kouhyou_detail_004_kani=true&JigyosyoCd=1491900955-00&ServiceCd=&Type=search", "url2": "http://www.seirei.or.jp/elderlyhome/yokosuka/" }, "geometry": { "type": "Point", "coordinates": [ 139.648831300000012, 35.2208204 ] } },
{ "type": "Feature", "properties": { "内容": "エクセレント湘南平塚【看護小規模多機能型居宅介護（複合型サービス）】神奈川県平塚市入野294-7", "url": "https://www.kaigokensaku.mhlw.go.jp/14/index.php?action_kouhyou_detail_004_kani=true&JigyosyoCd=1492000227-00&ServiceCd=&Type=search", "url2": "http://www.excare.co.jp/facility/09/syounan/index.html" }, "geometry": { "type": "Point", "coordinates": [ 139.31581004601901, 35.350635681063046 ] } },
{ "type": "Feature", "properties": { "内容": "看護小規模多機能型居宅介護施設　だんらん【看護小規模多機能型居宅介護（複合型サービス）】神奈川県平塚市岡崎6200-1", "url": "https://www.kaigokensaku.mhlw.go.jp/14/index.php?action_kouhyou_detail_004_kani=true&JigyosyoCd=1492000276-00&ServiceCd=&Type=search", "url2": "http://shofukai.or.jp" }, "geometry": { "type": "Point", "coordinates": [ 139.30189444081509, 35.377082592254645 ] } },
{ "type": "Feature", "properties": { "内容": "看護小規模多機能型居宅介護　花織ひらつか【看護小規模多機能型居宅介護（複合型サービス）】神奈川県平塚市代官町20-3", "url": "https://www.kaigokensaku.mhlw.go.jp/14/index.php?action_kouhyou_detail_004_kani=true&JigyosyoCd=1492000490-00&ServiceCd=&Type=search", "url2": "https://kaori-kaigo.jala.co.jp/fs/hiratsuka/" }, "geometry": { "type": "Point", "coordinates": [ 139.355413598147607, 35.32656122340471 ] } },
{ "type": "Feature", "properties": { "内容": "エクセレント湘南シーサイド【看護小規模多機能型居宅介護（複合型サービス）】神奈川県平塚市馬入本町12-15", "url": "https://www.kaigokensaku.mhlw.go.jp/14/index.php?action_kouhyou_detail_004_kani=true&JigyosyoCd=1492000607-00&ServiceCd=&Type=search", "url2": "https://www.excare.co.jp/facility/09/seaside" }, "geometry": { "type": "Point", "coordinates": [ 139.36227070000001, 35.3313733 ] } },
{ "type": "Feature", "properties": { "内容": "看護小規模多機能ホーム聖テレジア【看護小規模多機能型居宅介護（複合型サービス）】神奈川県鎌倉市津602-184", "url": "https://www.kaigokensaku.mhlw.go.jp/14/index.php?action_kouhyou_detail_004_kani=true&JigyosyoCd=1492100290-00&ServiceCd=&Type=search", "url2": "http://www.st-therese-hp.jp/" }, "geometry": { "type": "Point", "coordinates": [ 139.503364450787302, 35.313130395288368 ] } },
{ "type": "Feature", "properties": { "内容": "看護小規模多機能型居宅介護　ふぁいと今泉の里【看護小規模多機能型居宅介護（複合型サービス）】神奈川県鎌倉市今泉1－11－8", "url": "https://www.kaigokensaku.mhlw.go.jp/14/index.php?action_kouhyou_detail_004_kani=true&JigyosyoCd=1492100233-00&ServiceCd=&Type=search", "url2": "http://www.hakujukai.co.jp/other/page4.html" }, "geometry": { "type": "Point", "coordinates": [ 139.551395747329707, 35.349434488741629 ] } },
{ "type": "Feature", "properties": { "内容": "ぐるーぷ藤　しがらきの湯【看護小規模多機能型居宅介護（複合型サービス）】神奈川県藤沢市藤が岡1-4-2ぐるーぷ藤一番館", "url": "https://www.kaigokensaku.mhlw.go.jp/14/index.php?action_kouhyou_detail_004_kani=true&JigyosyoCd=1492200447-00&ServiceCd=&Type=search", "url2": "https://npo-fuji.com/kaigo-shogai-service/shigaraki/" }, "geometry": { "type": "Point", "coordinates": [ 139.490624799999978, 35.3442447 ] } },
{ "type": "Feature", "properties": { "内容": "リフシア神明【看護小規模多機能型居宅介護（複合型サービス）】神奈川県藤沢市鵠沼神明2-12-17", "url": "https://www.kaigokensaku.mhlw.go.jp/14/index.php?action_kouhyou_detail_004_kani=true&JigyosyoCd=1492200637-00&ServiceCd=&Type=search", "url2": "https://lifsea.co.jp/syoukibo.html#sm6" }, "geometry": { "type": "Point", "coordinates": [ 139.4710404, 35.3424083 ] } },
{ "type": "Feature", "properties": { "内容": "看護小規模多機能型居宅介護ぐるんとびー駒寄【看護小規模多機能型居宅介護（複合型サービス）】神奈川県藤沢市大庭5529-8シャルマンコーポ湘南ライフタウンB-2、B-3号室", "url": "https://www.kaigokensaku.mhlw.go.jp/14/index.php?action_kouhyou_detail_004_kani=true&JigyosyoCd=1492200884-00&ServiceCd=&Type=search", "url2": "https://www.grundtvig.co.jp/" }, "geometry": { "type": "Point", "coordinates": [ 139.44680006627047, 35.367703321523585 ] } },
{ "type": "Feature", "properties": { "内容": "ゆーゆーテラス長後【看護小規模多機能型居宅介護（複合型サービス）】神奈川県藤沢市高倉570-1", "url": "https://www.kaigokensaku.mhlw.go.jp/14/index.php?action_kouhyou_detail_004_kani=true&JigyosyoCd=1492200892-00&ServiceCd=&Type=search", "url2": "https://heartcare-gr.com/home-nursing/" }, "geometry": { "type": "Point", "coordinates": [ 139.46677046589889, 35.40859043341127 ] } },
{ "type": "Feature", "properties": { "内容": "ウイル長後ステーション【看護小規模多機能型居宅介護（複合型サービス）】神奈川県藤沢市下土棚308-4", "url": "https://www.kaigokensaku.mhlw.go.jp/14/index.php?action_kouhyou_detail_004_kani=true&JigyosyoCd=1492200983-00&ServiceCd=&Type=search", "url2": "https://senior-will.co.jp/will_chogo_st/" }, "geometry": { "type": "Point", "coordinates": [ 139.4619932, 35.4076277 ] } },
{ "type": "Feature", "properties": { "内容": "セントケア看護小規模鵠沼【看護小規模多機能型居宅介護（複合型サービス）】神奈川県藤沢市鵠沼藤が谷4-19-57", "url": "https://www.kaigokensaku.mhlw.go.jp/14/index.php?action_kouhyou_detail_004_kani=true&JigyosyoCd=1492200991-00&ServiceCd=&Type=search", "url2": "https://www.saintc-k.com/office/832.html" }, "geometry": { "type": "Point", "coordinates": [ 139.480001104893461, 35.328068134170771 ] } },
{ "type": "Feature", "properties": { "内容": "看護小規模多機能型居宅介護ウイル六会ステーション【看護小規模多機能型居宅介護（複合型サービス）】神奈川県藤沢市亀井野2-7-1", "url": "https://www.kaigokensaku.mhlw.go.jp/14/index.php?action_kouhyou_detail_004_kani=true&JigyosyoCd=1492200561-00&ServiceCd=&Type=search", "url2": "https://senior-will.co.jp/will_mutsuai/" }, "geometry": { "type": "Point", "coordinates": [ 139.473565, 35.3824923 ] } },
{ "type": "Feature", "properties": { "内容": "看護小規模多機能型居宅介護ぐるんとびーホーム【看護小規模多機能型居宅介護（複合型サービス）】神奈川県藤沢市大庭5682-6パークサイド駒寄3-612", "url": "https://www.kaigokensaku.mhlw.go.jp/14/index.php?action_kouhyou_detail_004_kani=true&JigyosyoCd=1492201098-00&ServiceCd=&Type=search", "url2": "https://www.grundtvig.co.jp/" }, "geometry": { "type": "Point", "coordinates": [ 139.4470696, 35.3688578 ] } },
{ "type": "Feature", "properties": { "内容": "看護小規模多機能型居宅介護施設　たんぽぽ【看護小規模多機能型居宅介護（複合型サービス）】神奈川県小田原市南鴨宮3-40-11階", "url": "https://www.kaigokensaku.mhlw.go.jp/14/index.php?action_kouhyou_detail_004_kani=true&JigyosyoCd=1492300338-00&ServiceCd=&Type=search", "url2": "http://www.shofukai.or.jp/untitled70.html" }, "geometry": { "type": "Point", "coordinates": [ 139.182458774205088, 35.27389154583355 ] } },
{ "type": "Feature", "properties": { "内容": "看護小規模多機能型居宅介護　ナースの森　小田原【看護小規模多機能型居宅介護（複合型サービス）】神奈川県小田原市前川177-6", "url": "https://www.kaigokensaku.mhlw.go.jp/14/index.php?action_kouhyou_detail_004_kani=true&JigyosyoCd=1492300494-00&ServiceCd=&Type=search", "url2": "https://na-sunomori.jp/" }, "geometry": { "type": "Point", "coordinates": [ 139.1900841, 35.2803816 ] } },
{ "type": "Feature", "properties": { "内容": "看護小規模多機能型居宅介護事業所　結の家　りあん【看護小規模多機能型居宅介護（複合型サービス）】神奈川県茅ケ崎市香川5-4-20結の家　りあん", "url": "https://www.kaigokensaku.mhlw.go.jp/14/index.php?action_kouhyou_detail_004_kani=true&JigyosyoCd=1492400286-00&ServiceCd=&Type=search", "url2": "https://yui-web.net/" }, "geometry": { "type": "Point", "coordinates": [ 139.39855884788517, 35.356988599745726 ] } },
{ "type": "Feature", "properties": { "内容": "セントケア看護小規模松が丘【看護小規模多機能型居宅介護（複合型サービス）】神奈川県茅ヶ崎市松が丘1-4-9", "url": "https://www.kaigokensaku.mhlw.go.jp/14/index.php?action_kouhyou_detail_004_kani=true&JigyosyoCd=1492400385-00&ServiceCd=&Type=search", "url2": "http://www.saintc-k.com" }, "geometry": { "type": "Point", "coordinates": [ 139.423296, 35.3281805 ] } },
{ "type": "Feature", "properties": { "内容": "リフシア矢畑【看護小規模多機能型居宅介護（複合型サービス）】神奈川県茅ケ崎市矢畑63-1", "url": "https://www.kaigokensaku.mhlw.go.jp/14/index.php?action_kouhyou_detail_004_kani=true&JigyosyoCd=1492400252-00&ServiceCd=&Type=search", "url2": "http://lifsea.co.jp" }, "geometry": { "type": "Point", "coordinates": [ 139.393261299999949, 35.3360587 ] } },
{ "type": "Feature", "properties": { "内容": "看護小規模多機能型居宅介護事業所ゆごころ【看護小規模多機能型居宅介護（複合型サービス）】神奈川県三浦市南下浦町菊名1258-3", "url": "https://www.kaigokensaku.mhlw.go.jp/14/index.php?action_kouhyou_detail_004_kani=true&JigyosyoCd=1492700248-00&ServiceCd=&Type=search", "url2": "https://www.shakyo-miura.com/" }, "geometry": { "type": "Point", "coordinates": [ 139.6433006, 35.1662792 ] } },
{ "type": "Feature", "properties": { "内容": "看護小規模多機能型居宅介護　つるかめ庵【看護小規模多機能型居宅介護（複合型サービス）】神奈川県秦野市曽屋805-7", "url": "https://www.kaigokensaku.mhlw.go.jp/14/index.php?action_kouhyou_detail_004_kani=true&JigyosyoCd=1492800162-00&ServiceCd=&Type=search", "url2": "https://takumicare.jp/service/tsurukamean.html" }, "geometry": { "type": "Point", "coordinates": [ 139.213385300000027, 35.3801157 ] } },
{ "type": "Feature", "properties": { "内容": "看護小規模多機能型居宅介護事業いわしぐも【看護小規模多機能型居宅介護（複合型サービス）】神奈川県厚木市戸室1-29-1", "url": "https://www.kaigokensaku.mhlw.go.jp/14/index.php?action_kouhyou_detail_004_kani=true&JigyosyoCd=1492900210-00&ServiceCd=&Type=search", "url2": "https://www.tomei.or.jp/fukushi/motherhome" }, "geometry": { "type": "Point", "coordinates": [ 139.352953599999978, 35.4505862 ] } },
{ "type": "Feature", "properties": { "内容": "看護小規模多機能リベル　厚木【看護小規模多機能型居宅介護（複合型サービス）】神奈川県厚木市恩名3-21-8", "url": "https://www.kaigokensaku.mhlw.go.jp/14/index.php?action_kouhyou_detail_004_kani=true&JigyosyoCd=1492900681-00&ServiceCd=&Type=search", "url2": "https://www.libercare.jp/location/multifunctional/atsugi/" }, "geometry": { "type": "Point", "coordinates": [ 139.349306899999988, 35.4398812 ] } },
{ "type": "Feature", "properties": { "内容": "げんきステーションあくしゅ【看護小規模多機能型居宅介護（複合型サービス）】神奈川県大和市上和田846-6", "url": "https://www.kaigokensaku.mhlw.go.jp/14/index.php?action_kouhyou_detail_004_kani=true&JigyosyoCd=1493000358-00&ServiceCd=&Type=search", "url2": "https://www.since1950-keiaikai-yamato.or.jp/" }, "geometry": { "type": "Point", "coordinates": [ 139.467745199999968, 35.4528995 ] } },
{ "type": "Feature", "properties": { "内容": "セントケア看護小規模上草柳【看護小規模多機能型居宅介護（複合型サービス）】神奈川県大和市上草柳８－１３－１７", "url": "https://www.kaigokensaku.mhlw.go.jp/14/index.php?action_kouhyou_detail_004_kani=true&JigyosyoCd=1493000457-00&ServiceCd=&Type=search", "url2": null }, "geometry": { "type": "Point", "coordinates": [ 139.44870549999996, 35.4816382 ] } },
{ "type": "Feature", "properties": { "内容": "セントケア看護小規模つきみ野【看護小規模多機能型居宅介護（複合型サービス）】神奈川県大和市つきみ野2-7-18", "url": "https://www.kaigokensaku.mhlw.go.jp/14/index.php?action_kouhyou_detail_004_kani=true&JigyosyoCd=1493000531-00&ServiceCd=&Type=search", "url2": "https://www.saintc-k.com" }, "geometry": { "type": "Point", "coordinates": [ 139.4633749, 35.5050654 ] } },
{ "type": "Feature", "properties": { "内容": "セントケア看護小規模つるま【看護小規模多機能型居宅介護（複合型サービス）】神奈川県大和市上草柳8-13-173階", "url": "https://www.kaigokensaku.mhlw.go.jp/14/index.php?action_kouhyou_detail_004_kani=true&JigyosyoCd=1493000689-00&ServiceCd=&Type=search", "url2": "https:www.saintc-k.com/" }, "geometry": { "type": "Point", "coordinates": [ 139.4487033, 35.4816347 ] } },
{ "type": "Feature", "properties": { "内容": "宝命の郷【看護小規模多機能型居宅介護（複合型サービス）】神奈川県伊勢原市下糟屋3005-2", "url": "https://www.kaigokensaku.mhlw.go.jp/14/index.php?action_kouhyou_detail_004_kani=true&JigyosyoCd=1494000183-00&ServiceCd=&Type=search", "url2": "https://homeikango.com/" }, "geometry": { "type": "Point", "coordinates": [ 139.3204215, 35.4068215 ] } },
{ "type": "Feature", "properties": { "内容": "ゆいのかんたき海老名【看護小規模多機能型居宅介護（複合型サービス）】神奈川県海老名市社家2-4-14", "url": "https://www.kaigokensaku.mhlw.go.jp/14/index.php?action_kouhyou_detail_004_kani=true&JigyosyoCd=1494200205-00&ServiceCd=&Type=search", "url2": "https://yui-kango.com/facility/yuinokantaki_ebina/" }, "geometry": { "type": "Point", "coordinates": [ 139.3803638, 35.4278223 ] } },
{ "type": "Feature", "properties": { "内容": "ゆいのかんたき綾瀬【看護小規模多機能型居宅介護（複合型サービス）】神奈川県綾瀬市寺尾台1丁目14番33号", "url": "https://www.kaigokensaku.mhlw.go.jp/14/index.php?action_kouhyou_detail_004_kani=true&JigyosyoCd=1494400193-00&ServiceCd=&Type=search", "url2": "https://yui-kango.com/facility/yuinokantaki" }, "geometry": { "type": "Point", "coordinates": [ 139.421516961376966, 35.456306717622681 ] } },
{ "type": "Feature", "properties": { "内容": "看護小規模多機能型居宅介護　湘南ユイット【看護小規模多機能型居宅介護（複合型サービス）】神奈川県中郡二宮町山西２５６−９", "url": "https://www.kaigokensaku.mhlw.go.jp/14/index.php?action_kouhyou_detail_004_kani=true&JigyosyoCd=1491300131-00&ServiceCd=&Type=search", "url2": "https://jukoukai.jp/" }, "geometry": { "type": "Point", "coordinates": [ 139.245702869989913, 35.293002679452663 ] } },
{ "type": "Feature", "properties": { "内容": "ナーシングホーム真鶴【看護小規模多機能型居宅介護（複合型サービス）】神奈川県足柄下郡真鶴町真鶴475-1", "url": "https://www.kaigokensaku.mhlw.go.jp/14/index.php?action_kouhyou_detail_004_kani=true&JigyosyoCd=1491500136-00&ServiceCd=&Type=search", "url2": "https://manazuru.jadecom.or.jp/" }, "geometry": { "type": "Point", "coordinates": [ 139.1371121, 35.1574646 ] } }
]
}
