{
"type": "FeatureCollection",
"name": "geo_14_指定療養通所介護",
"crs": { "type": "name", "properties": { "name": "urn:ogc:def:crs:OGC:1.3:CRS84" } },
"features": [
{ "type": "Feature", "properties": { "内容": "横浜さくらんぼ療養通所介護【指定療養通所介護】神奈川県横浜市中区翁町１－５－５関内スクエアービル１Ｆ", "url": "https://www.kaigokensaku.mhlw.go.jp/14/index.php?action_kouhyou_detail_004_kani=true&JigyosyoCd=1470401645-00&ServiceCd=&Type=search", "url2": "http://sakura-nurse.jp" }, "geometry": { "type": "Point", "coordinates": [ 139.637395199999986, 35.441297 ] } },
{ "type": "Feature", "properties": { "内容": "悠ＹＯＵ療養通所【指定療養通所介護】神奈川県横浜市磯子区原町6-15ライオンズマンション根岸103", "url": "https://www.kaigokensaku.mhlw.go.jp/14/index.php?action_kouhyou_detail_004_kani=true&JigyosyoCd=1490700281-00&ServiceCd=&Type=search", "url2": "http://www.yu-noki.co.jp" }, "geometry": { "type": "Point", "coordinates": [ 139.628228400000012, 35.4174176 ] } },
{ "type": "Feature", "properties": { "内容": "横浜旭さくらんぼ療養通所介護【指定療養通所介護】神奈川県横浜市旭区鶴ヶ峰本町３－６－３０久星鶴ヶ峰ハイツ１Ｆ", "url": "https://www.kaigokensaku.mhlw.go.jp/14/index.php?action_kouhyou_detail_004_kani=true&JigyosyoCd=1473202214-00&ServiceCd=&Type=search", "url2": "http://sakura-nurse.jp/" }, "geometry": { "type": "Point", "coordinates": [ 139.5396895, 35.4788498 ] } },
{ "type": "Feature", "properties": { "内容": "青葉区医師会　療養通所介護事業所【指定療養通所介護】神奈川県横浜市青葉区荏田北3-8-6", "url": "https://www.kaigokensaku.mhlw.go.jp/14/index.php?action_kouhyou_detail_004_kani=true&JigyosyoCd=1473701546-00&ServiceCd=&Type=search", "url2": "https://www.aobakumc.or.jp/daycare.html" }, "geometry": { "type": "Point", "coordinates": [ 139.54884549999997, 35.5590623 ] } },
{ "type": "Feature", "properties": { "内容": "療養通所介護まこと【指定療養通所介護】神奈川県川崎市川崎区大師駅前1-2-9ディアーナ川崎大師1F", "url": "https://www.kaigokensaku.mhlw.go.jp/14/index.php?action_kouhyou_detail_004_kani=true&JigyosyoCd=1495000612-00&ServiceCd=&Type=search", "url2": "https://daishist.org/" }, "geometry": { "type": "Point", "coordinates": [ 139.726639620446861, 35.533680457974022 ] } },
{ "type": "Feature", "properties": { "内容": "ゆりがおか療養デイサービスセンター【指定療養通所介護】神奈川県川崎市麻生区高石5-1-39", "url": "https://www.kaigokensaku.mhlw.go.jp/14/index.php?action_kouhyou_detail_004_kani=true&JigyosyoCd=1495600395-00&ServiceCd=&Type=search", "url2": null }, "geometry": { "type": "Point", "coordinates": [ 139.520244300000059, 35.6072282 ] } },
{ "type": "Feature", "properties": { "内容": "ハローケアセンター【指定療養通所介護】神奈川県相模原市中央区相模原6-24-14光南ビル1階A号室", "url": "https://www.kaigokensaku.mhlw.go.jp/14/index.php?action_kouhyou_detail_004_kani=true&JigyosyoCd=1472607702-00&ServiceCd=&Type=search", "url2": "http://www.hellonurse.co.jp/dayservice.html" }, "geometry": { "type": "Point", "coordinates": [ 139.375884499999984, 35.5743558 ] } },
{ "type": "Feature", "properties": { "内容": "ぴっころもんど　さがみはら【指定療養通所介護】神奈川県相模原市南区大野台3-25-19エンプレス102", "url": "https://www.kaigokensaku.mhlw.go.jp/14/index.php?action_kouhyou_detail_004_kani=true&JigyosyoCd=1492601693-00&ServiceCd=&Type=search", "url2": "https://tampopo-piccolo.com/about-piccolo" }, "geometry": { "type": "Point", "coordinates": [ 139.400669799999946, 35.550666499999977 ] } },
{ "type": "Feature", "properties": { "内容": "療養通所マザー　デイサービスにじ【指定療養通所介護】神奈川県茅ヶ崎市柳島1-9-8", "url": "https://www.kaigokensaku.mhlw.go.jp/14/index.php?action_kouhyou_detail_004_kani=true&JigyosyoCd=1472402468-00&ServiceCd=&Type=search", "url2": "https://mothershonan.com/" }, "geometry": { "type": "Point", "coordinates": [ 139.383793132540859, 35.324253752730975 ] } }
]
}
