{
"type": "FeatureCollection",
"name": "geo_14_訪問入浴介護",
"crs": { "type": "name", "properties": { "name": "urn:ogc:def:crs:OGC:1.3:CRS84" } },
"features": [
{ "type": "Feature", "properties": { "内容": "アースサポート横浜鶴見【訪問入浴介護】神奈川県横浜市鶴見区鶴見中央5丁目11番2号", "url": "https://www.kaigokensaku.mhlw.go.jp/14/index.php?action_kouhyou_detail_004_kani=true&JigyosyoCd=1470100833-00&ServiceCd=120&Type=search", "url2": "https://www.earthsupport.co.jp/offices/yokohamatsurumi" }, "geometry": { "type": "Point", "coordinates": [ 139.677748599999973, 35.50326 ] } },
{ "type": "Feature", "properties": { "内容": "ニチイケアセンター鶴見中央【訪問入浴介護】神奈川県横浜市鶴見区鶴見中央4-16-3トミヤビル701", "url": "https://www.kaigokensaku.mhlw.go.jp/14/index.php?action_kouhyou_detail_004_kani=true&JigyosyoCd=1470101872-00&ServiceCd=120&Type=search", "url2": "https://www.nichiigakkan.co.jp/" }, "geometry": { "type": "Point", "coordinates": [ 139.678335106745863, 35.506767068892032 ] } },
{ "type": "Feature", "properties": { "内容": "アスケア訪問入浴　鶴見【訪問入浴介護】神奈川県横浜市鶴見区鶴見中央二丁目2-4鶴見ダイカンプラザ204号室", "url": "https://www.kaigokensaku.mhlw.go.jp/14/index.php?action_kouhyou_detail_004_kani=true&JigyosyoCd=1470103910-00&ServiceCd=120&Type=search", "url2": "https://www.as-care.co.jp/" }, "geometry": { "type": "Point", "coordinates": [ 139.6788719, 35.5109449 ] } },
{ "type": "Feature", "properties": { "内容": "セントケア神奈川【訪問入浴介護】神奈川県横浜市神奈川区大口通128-7", "url": "https://www.kaigokensaku.mhlw.go.jp/14/index.php?action_kouhyou_detail_004_kani=true&JigyosyoCd=1470201425-00&ServiceCd=120&Type=search", "url2": "http://www.saintc-k.com/" }, "geometry": { "type": "Point", "coordinates": [ 139.645676500000036, 35.4903943 ] } },
{ "type": "Feature", "properties": { "内容": "アスケア訪問入浴　六角橋【訪問入浴介護】神奈川県横浜市神奈川区六角橋6丁目20-7ナガツナビル", "url": "https://www.kaigokensaku.mhlw.go.jp/14/index.php?action_kouhyou_detail_004_kani=true&JigyosyoCd=1470203470-00&ServiceCd=120&Type=search", "url2": "https://www.as-care.co.jp/" }, "geometry": { "type": "Point", "coordinates": [ 139.6187483, 35.4934868 ] } },
{ "type": "Feature", "properties": { "内容": "入浴サービス　イリス　神奈川【訪問入浴介護】神奈川県横浜市神奈川区子安通2-270", "url": "https://www.kaigokensaku.mhlw.go.jp/14/index.php?action_kouhyou_detail_004_kani=true&JigyosyoCd=1470201003-00&ServiceCd=120&Type=search", "url2": "http://www.i-iris.co.jp" }, "geometry": { "type": "Point", "coordinates": [ 139.652818148444794, 35.485320399667891 ] } },
{ "type": "Feature", "properties": { "内容": "アースサポート横浜【訪問入浴介護】神奈川県横浜市西区岡野2丁目2番20号202", "url": "https://www.kaigokensaku.mhlw.go.jp/14/index.php?action_kouhyou_detail_004_kani=true&JigyosyoCd=1470300029-00&ServiceCd=120&Type=search", "url2": "https://www.earthsupport.co.jp/offices/yokohama" }, "geometry": { "type": "Point", "coordinates": [ 139.613355, 35.459842 ] } },
{ "type": "Feature", "properties": { "内容": "ツクイ横浜南浅間【訪問入浴介護】神奈川県横浜市西区南浅間町21-1", "url": "https://www.kaigokensaku.mhlw.go.jp/14/index.php?action_kouhyou_detail_004_kani=true&JigyosyoCd=1470301746-00&ServiceCd=120&Type=search", "url2": "https://www.tsukui.net/home-care/2595/" }, "geometry": { "type": "Point", "coordinates": [ 139.60810017553257, 35.454595743153995 ] } },
{ "type": "Feature", "properties": { "内容": "セントケア横浜【訪問入浴介護】神奈川県横浜市南区永田東1-1-7アーバンフラット井土ヶ谷2F", "url": "https://www.kaigokensaku.mhlw.go.jp/14/index.php?action_kouhyou_detail_004_kani=true&JigyosyoCd=1470501527-00&ServiceCd=120&Type=search", "url2": "http://www.saintc-k.com/" }, "geometry": { "type": "Point", "coordinates": [ 139.600343299999963, 35.434134 ] } },
{ "type": "Feature", "properties": { "内容": "株式会社ケアサービス　訪問入浴　横浜南【訪問入浴介護】神奈川県横浜市南区花之木町3-52-15シルク花之木1階", "url": "https://www.kaigokensaku.mhlw.go.jp/14/index.php?action_kouhyou_detail_004_kani=true&JigyosyoCd=1470400340-00&ServiceCd=120&Type=search", "url2": "https://www.care.co.jp/office/hn_yokohamaminami" }, "geometry": { "type": "Point", "coordinates": [ 139.608420631937577, 35.431444206496366 ] } },
{ "type": "Feature", "properties": { "内容": "桜樹の森訪問入浴サービス【訪問入浴介護】神奈川県横浜市南区永田南1-2-37", "url": "https://www.kaigokensaku.mhlw.go.jp/14/index.php?action_kouhyou_detail_004_kani=true&JigyosyoCd=1470501261-00&ServiceCd=120&Type=search", "url2": "https://shuhokai.or.jp" }, "geometry": { "type": "Point", "coordinates": [ 139.597154428836092, 35.428771928875435 ] } },
{ "type": "Feature", "properties": { "内容": "セントケア保土ヶ谷【訪問入浴介護】神奈川県横浜市保土ヶ谷区上星川2-49-25", "url": "https://www.kaigokensaku.mhlw.go.jp/14/index.php?action_kouhyou_detail_004_kani=true&JigyosyoCd=1470601111-00&ServiceCd=120&Type=search", "url2": "http://www.saintc-k.com/" }, "geometry": { "type": "Point", "coordinates": [ 139.578241899999966, 35.4747899 ] } },
{ "type": "Feature", "properties": { "内容": "アスケア訪問入浴　保土ヶ谷【訪問入浴介護】神奈川県横浜市保土ヶ谷区西久保町128-3サクラホーム1F", "url": "https://www.kaigokensaku.mhlw.go.jp/14/index.php?action_kouhyou_detail_004_kani=true&JigyosyoCd=1470601335-00&ServiceCd=120&Type=search", "url2": "https://www.as-care.co.jp/" }, "geometry": { "type": "Point", "coordinates": [ 139.602500740089482, 35.44874710970165 ] } },
{ "type": "Feature", "properties": { "内容": "セントケア磯子【訪問入浴介護】神奈川県横浜市磯子区中原2-1-17サンライトツチヤビル1階", "url": "https://www.kaigokensaku.mhlw.go.jp/14/index.php?action_kouhyou_detail_004_kani=true&JigyosyoCd=1470701101-00&ServiceCd=120&Type=search", "url2": "http://www.saintc-k.com/" }, "geometry": { "type": "Point", "coordinates": [ 139.617055599999958, 35.3884958 ] } },
{ "type": "Feature", "properties": { "内容": "ハートケア　つくし【訪問入浴介護】神奈川県横浜市磯子区広地町７－１２", "url": "https://www.kaigokensaku.mhlw.go.jp/14/index.php?action_kouhyou_detail_004_kani=true&JigyosyoCd=1470701143-00&ServiceCd=120&Type=search", "url2": "https://kaigo-heart.wixsite.com/tukusiisogo" }, "geometry": { "type": "Point", "coordinates": [ 139.6231851, 35.416939400000011 ] } },
{ "type": "Feature", "properties": { "内容": "スマイル金沢【訪問入浴介護】神奈川県横浜市金沢区谷津町403", "url": "https://www.kaigokensaku.mhlw.go.jp/14/index.php?action_kouhyou_detail_004_kani=true&JigyosyoCd=1470802016-00&ServiceCd=120&Type=search", "url2": "https://smile-kaigo.net/publics/index/113/" }, "geometry": { "type": "Point", "coordinates": [ 139.621280699999943, 35.3445187 ] } },
{ "type": "Feature", "properties": { "内容": "アースサポート金沢八景【訪問入浴介護】神奈川県横浜市金沢区六浦1丁目12番21号ベラカーサ2階", "url": "https://www.kaigokensaku.mhlw.go.jp/14/index.php?action_kouhyou_detail_004_kani=true&JigyosyoCd=1470800945-00&ServiceCd=120&Type=search", "url2": "https://www.earthsupport.co.jp/offices/kanazawahakkei" }, "geometry": { "type": "Point", "coordinates": [ 139.6203974, 35.3253236 ] } },
{ "type": "Feature", "properties": { "内容": "ニチイケアセンター富岡東入浴【訪問入浴介護】神奈川県横浜市金沢区富岡東4-2-1", "url": "https://www.kaigokensaku.mhlw.go.jp/14/index.php?action_kouhyou_detail_004_kani=true&JigyosyoCd=1470800275-00&ServiceCd=120&Type=search", "url2": "https://www.nichii-kaigo.jp/base/base-result/05L37/" }, "geometry": { "type": "Point", "coordinates": [ 139.635548800000038, 35.3720233 ] } },
{ "type": "Feature", "properties": { "内容": "セントケアウィル金沢【訪問入浴介護】神奈川県横浜市金沢区泥亀2-8-14", "url": "https://www.kaigokensaku.mhlw.go.jp/14/index.php?action_kouhyou_detail_004_kani=true&JigyosyoCd=1470802909-00&ServiceCd=120&Type=search", "url2": "https://www.saintc-k.com/office/3884.html" }, "geometry": { "type": "Point", "coordinates": [ 139.6252422, 35.3375691 ] } },
{ "type": "Feature", "properties": { "内容": "ハウネス福祉センター【訪問入浴介護】神奈川県横浜市港北区菊名3-22-15", "url": "https://www.kaigokensaku.mhlw.go.jp/14/index.php?action_kouhyou_detail_004_kani=true&JigyosyoCd=1470900109-00&ServiceCd=120&Type=search", "url2": "http://www.hawness.co.jp" }, "geometry": { "type": "Point", "coordinates": [ 139.633435800000029, 35.5088254 ] } },
{ "type": "Feature", "properties": { "内容": "まごの手介護サービス横浜北営業所【訪問入浴介護】神奈川県横浜市港北区菊名6-19-23メゾンアンソレイユ1階", "url": "https://www.kaigokensaku.mhlw.go.jp/14/index.php?action_kouhyou_detail_004_kani=true&JigyosyoCd=1473301222-00&ServiceCd=120&Type=search", "url2": "https://magonote.co.jp/office/#yokohamakita" }, "geometry": { "type": "Point", "coordinates": [ 139.632621800000038, 35.5144443 ] } },
{ "type": "Feature", "properties": { "内容": "アスケア訪問入浴　港北【訪問入浴介護】神奈川県横浜市港北区大倉山1-8-5", "url": "https://www.kaigokensaku.mhlw.go.jp/14/index.php?action_kouhyou_detail_004_kani=true&JigyosyoCd=1470902337-00&ServiceCd=120&Type=search", "url2": "https://www.as-care.co.jp/" }, "geometry": { "type": "Point", "coordinates": [ 139.6284584, 35.5098113 ] } },
{ "type": "Feature", "properties": { "内容": "欅の大樹訪問入浴サ－ビス【訪問入浴介護】神奈川県横浜市港北区綱島西1-10-10第5吉田ビル3階", "url": "https://www.kaigokensaku.mhlw.go.jp/14/index.php?action_kouhyou_detail_004_kani=true&JigyosyoCd=1470902063-00&ServiceCd=120&Type=search", "url2": "https://www.shuhokai.or.jp/office/kohoku-ku/hn-keyaki.php" }, "geometry": { "type": "Point", "coordinates": [ 139.6323933, 35.5370142 ] } },
{ "type": "Feature", "properties": { "内容": "アースサポート横浜港北【訪問入浴介護】神奈川県横浜市港北区師岡町329番地１", "url": "https://www.kaigokensaku.mhlw.go.jp/14/index.php?action_kouhyou_detail_004_kani=true&JigyosyoCd=1470902568-00&ServiceCd=120&Type=search", "url2": "https://www.earthsupport.co.jp/offices/yokohamakouhoku" }, "geometry": { "type": "Point", "coordinates": [ 139.636285199999946, 35.5205049 ] } },
{ "type": "Feature", "properties": { "内容": "株式会社ケアサービス　訪問入浴港北【訪問入浴介護】神奈川県横浜市港北区大豆戸町４８０－１", "url": "https://www.kaigokensaku.mhlw.go.jp/14/index.php?action_kouhyou_detail_004_kani=true&JigyosyoCd=1470900430-00&ServiceCd=120&Type=search", "url2": "https://www.care.co.jp/office/hn_kouhoku" }, "geometry": { "type": "Point", "coordinates": [ 139.627201099999979, 35.513686300000018 ] } },
{ "type": "Feature", "properties": { "内容": "株式会社ティー・シー・エス　横浜営業所【訪問入浴介護】神奈川県横浜市戸塚区上矢部町１７９３－１安西マンション1階101号室", "url": "https://www.kaigokensaku.mhlw.go.jp/14/index.php?action_kouhyou_detail_004_kani=true&JigyosyoCd=1471000156-00&ServiceCd=120&Type=search", "url2": "https://tcs-h.net/company" }, "geometry": { "type": "Point", "coordinates": [ 139.529727545727269, 35.418846733826278 ] } },
{ "type": "Feature", "properties": { "内容": "アースサポート横浜戸塚【訪問入浴介護】神奈川県横浜市戸塚区戸塚町167番地", "url": "https://www.kaigokensaku.mhlw.go.jp/14/index.php?action_kouhyou_detail_004_kani=true&JigyosyoCd=1471002301-00&ServiceCd=120&Type=search", "url2": "https://www.earthsupport.co.jp/" }, "geometry": { "type": "Point", "coordinates": [ 139.531835300000012, 35.3959324 ] } },
{ "type": "Feature", "properties": { "内容": "ツクイ横浜戸塚【訪問入浴介護】神奈川県横浜市戸塚区汲沢１－１２－１POCタウン１階", "url": "https://www.kaigokensaku.mhlw.go.jp/14/index.php?action_kouhyou_detail_004_kani=true&JigyosyoCd=1471003689-00&ServiceCd=120&Type=search", "url2": "https://www.tsukui.net/home-care/2026/" }, "geometry": { "type": "Point", "coordinates": [ 139.5198962, 35.400551700000015 ] } },
{ "type": "Feature", "properties": { "内容": "株式会社お元気福祉サービス【訪問入浴介護】神奈川県横浜市港南区上永谷1-39-23", "url": "https://www.kaigokensaku.mhlw.go.jp/14/index.php?action_kouhyou_detail_004_kani=true&JigyosyoCd=1470500438-00&ServiceCd=120&Type=search", "url2": "https://www.ogenki-pikapika.com" }, "geometry": { "type": "Point", "coordinates": [ 139.576599128577868, 35.405760864641046 ] } },
{ "type": "Feature", "properties": { "内容": "セントケア港南【訪問入浴介護】神奈川県横浜市港南区丸山台3-30-10関場ビル2F", "url": "https://www.kaigokensaku.mhlw.go.jp/14/index.php?action_kouhyou_detail_004_kani=true&JigyosyoCd=1471001972-00&ServiceCd=120&Type=search", "url2": "http://www.saintc-k.com/" }, "geometry": { "type": "Point", "coordinates": [ 139.566619602035701, 35.397426376654074 ] } },
{ "type": "Feature", "properties": { "内容": "株式会社　楽　ホット【訪問入浴介護】神奈川県横浜市港南区上永谷2-18-3-102", "url": "https://www.kaigokensaku.mhlw.go.jp/14/index.php?action_kouhyou_detail_004_kani=true&JigyosyoCd=1473100301-00&ServiceCd=120&Type=search", "url2": "https://www.hot-care.com/" }, "geometry": { "type": "Point", "coordinates": [ 139.571610547256114, 35.404810800091632 ] } },
{ "type": "Feature", "properties": { "内容": "くらき福祉サービス株式会社港南営業所【訪問入浴介護】神奈川県横浜市港南区上大岡西3-10-6エクセルマンション102", "url": "https://www.kaigokensaku.mhlw.go.jp/14/index.php?action_kouhyou_detail_004_kani=true&JigyosyoCd=1473100350-00&ServiceCd=120&Type=search", "url2": "https://kuraki.care" }, "geometry": { "type": "Point", "coordinates": [ 139.597646661342196, 35.403600883088608 ] } },
{ "type": "Feature", "properties": { "内容": "ツクイ横浜港南【訪問入浴介護】神奈川県横浜市港南区日野中央2-29-8", "url": "https://www.kaigokensaku.mhlw.go.jp/14/index.php?action_kouhyou_detail_004_kani=true&JigyosyoCd=1473102950-00&ServiceCd=120&Type=search", "url2": "https://www.tsukui.net/home-care/2010/" }, "geometry": { "type": "Point", "coordinates": [ 139.584014713116062, 35.384402254988366 ] } },
{ "type": "Feature", "properties": { "内容": "アサヒサンクリーン在宅介護センター港南【訪問入浴介護】神奈川県横浜市港南区日野南１―５－１３勇吉サンハイツ203号室", "url": "https://www.kaigokensaku.mhlw.go.jp/14/index.php?action_kouhyou_detail_004_kani=true&JigyosyoCd=1473103008-00&ServiceCd=120&Type=search", "url2": "https://www.as-care.co.jp/" }, "geometry": { "type": "Point", "coordinates": [ 139.5780588, 35.3813004 ] } },
{ "type": "Feature", "properties": { "内容": "社会福祉法人創生会　特別養護老人ホーム　あだちホーム【訪問入浴介護】神奈川県横浜市旭区上川井町2287", "url": "https://www.kaigokensaku.mhlw.go.jp/14/index.php?action_kouhyou_detail_004_kani=true&JigyosyoCd=1473200200-00&ServiceCd=120&Type=search", "url2": "https://adachihome.net" }, "geometry": { "type": "Point", "coordinates": [ 139.496242, 35.5014033 ] } },
{ "type": "Feature", "properties": { "内容": "さくら苑訪問入浴サービス【訪問入浴介護】神奈川県横浜市旭区下川井町360番地", "url": "https://www.kaigokensaku.mhlw.go.jp/14/index.php?action_kouhyou_detail_004_kani=true&JigyosyoCd=1473201133-00&ServiceCd=120&Type=search", "url2": "http://shuhokai.or.jp/office/asahi-ku/hn-sakuraen.php" }, "geometry": { "type": "Point", "coordinates": [ 139.516710800000027, 35.4831935 ] } },
{ "type": "Feature", "properties": { "内容": "あっぷる旭ケアステーション【訪問入浴介護】神奈川県横浜市旭区鶴ケ峰本町1-26-13カームヒルズ2階", "url": "https://www.kaigokensaku.mhlw.go.jp/14/index.php?action_kouhyou_detail_004_kani=true&JigyosyoCd=1473200770-00&ServiceCd=120&Type=search", "url2": "https://www.apple-kaigo.co.jp/" }, "geometry": { "type": "Point", "coordinates": [ 139.537875799999938, 35.4787887 ] } },
{ "type": "Feature", "properties": { "内容": "セントケアあさひ【訪問入浴介護】神奈川県横浜市旭区鶴ヶ峰本町1-2-17鶴ヶ峰井上ビル101", "url": "https://www.kaigokensaku.mhlw.go.jp/14/index.php?action_kouhyou_detail_004_kani=true&JigyosyoCd=1473203782-00&ServiceCd=120&Type=search", "url2": null }, "geometry": { "type": "Point", "coordinates": [ 139.543897486048706, 35.475538309193631 ] } },
{ "type": "Feature", "properties": { "内容": "アスケア訪問入浴　横浜旭【訪問入浴介護】神奈川県横浜市旭区東希望が丘57-29土屋貸店舗・事務所　１F", "url": "https://www.kaigokensaku.mhlw.go.jp/14/index.php?action_kouhyou_detail_004_kani=true&JigyosyoCd=1473202057-00&ServiceCd=120&Type=search", "url2": "https://www.as-care.co.jp/" }, "geometry": { "type": "Point", "coordinates": [ 139.516857671041862, 35.463782273468595 ] } },
{ "type": "Feature", "properties": { "内容": "アサヒサンクリーン在宅介護センター横浜緑【訪問入浴介護】神奈川県横浜市緑区中山町1-27-6シロタ中山ハイツB201", "url": "https://www.kaigokensaku.mhlw.go.jp/14/index.php?action_kouhyou_detail_004_kani=true&JigyosyoCd=1473301701-00&ServiceCd=120&Type=search", "url2": "http://www.asahi-sun-clean.co.jp" }, "geometry": { "type": "Point", "coordinates": [ 139.538646628390865, 35.515581948165014 ] } },
{ "type": "Feature", "properties": { "内容": "訪問入浴　おふろ家さん【訪問入浴介護】神奈川県横浜市緑区長津田四丁目１２番８号長津田ハイツA号室", "url": "https://www.kaigokensaku.mhlw.go.jp/14/index.php?action_kouhyou_detail_004_kani=true&JigyosyoCd=1473302741-00&ServiceCd=120&Type=search", "url2": null }, "geometry": { "type": "Point", "coordinates": [ 139.492375900000013, 35.5322643 ] } },
{ "type": "Feature", "properties": { "内容": "おふろーど訪問入浴ステーション【訪問入浴介護】神奈川県横浜市瀬谷区三ツ境107-6タウンコート三ツ境303", "url": "https://www.kaigokensaku.mhlw.go.jp/14/index.php?action_kouhyou_detail_004_kani=true&JigyosyoCd=1473402038-00&ServiceCd=120&Type=search", "url2": "https://www.offloadkk.jp/" }, "geometry": { "type": "Point", "coordinates": [ 139.500542500000023, 35.467746500000018 ] } },
{ "type": "Feature", "properties": { "内容": "水明の大地訪問入浴サービス【訪問入浴介護】神奈川県横浜市栄区笠間2-17-4土居ビル1階", "url": "https://www.kaigokensaku.mhlw.go.jp/14/index.php?action_kouhyou_detail_004_kani=true&JigyosyoCd=1473501367-00&ServiceCd=120&Type=search", "url2": "https://shuhokai.or.jp/office/sakae-ku/hn-suimei.php" }, "geometry": { "type": "Point", "coordinates": [ 139.534751799999981, 35.3586513 ] } },
{ "type": "Feature", "properties": { "内容": "ツクイ横浜栄【訪問入浴介護】神奈川県横浜市栄区桂町274-7エステート美和・桂201号", "url": "https://www.kaigokensaku.mhlw.go.jp/14/index.php?action_kouhyou_detail_004_kani=true&JigyosyoCd=1473501623-00&ServiceCd=120&Type=search", "url2": null }, "geometry": { "type": "Point", "coordinates": [ 139.5518784, 35.3623782 ] } },
{ "type": "Feature", "properties": { "内容": "セントケア横浜泉【訪問入浴介護】神奈川県横浜市泉区和泉中央南四丁目1-1ストリームプラザ2C", "url": "https://www.kaigokensaku.mhlw.go.jp/14/index.php?action_kouhyou_detail_004_kani=true&JigyosyoCd=1473601225-00&ServiceCd=120&Type=search", "url2": null }, "geometry": { "type": "Point", "coordinates": [ 139.488147400000031, 35.416653200000034 ] } },
{ "type": "Feature", "properties": { "内容": "アスケア訪問入浴　横浜泉【訪問入浴介護】神奈川県横浜市泉区和泉町6224-3いずみ野マート3号室", "url": "https://www.kaigokensaku.mhlw.go.jp/14/index.php?action_kouhyou_detail_004_kani=true&JigyosyoCd=1473601365-00&ServiceCd=120&Type=search", "url2": "https://www.as-care.co.jp/" }, "geometry": { "type": "Point", "coordinates": [ 139.494106915344247, 35.43151035146753 ] } },
{ "type": "Feature", "properties": { "内容": "アスケア訪問入浴　荏田【訪問入浴介護】神奈川県横浜市青葉区市ヶ尾町1466-4ベルシェモアテナント1階A,B号室", "url": "https://www.kaigokensaku.mhlw.go.jp/14/index.php?action_kouhyou_detail_004_kani=true&JigyosyoCd=1473702254-00&ServiceCd=120&Type=search", "url2": "https://www.as-care.co.jp/" }, "geometry": { "type": "Point", "coordinates": [ 139.553990238623101, 35.564068381908598 ] } },
{ "type": "Feature", "properties": { "内容": "カインドライフサービス【訪問入浴介護】神奈川県横浜市青葉区美しが丘5-5-12佐登屋興産第2ビル103", "url": "https://www.kaigokensaku.mhlw.go.jp/14/index.php?action_kouhyou_detail_004_kani=true&JigyosyoCd=1473702296-00&ServiceCd=120&Type=search", "url2": null }, "geometry": { "type": "Point", "coordinates": [ 139.554227800000035, 35.5762935 ] } },
{ "type": "Feature", "properties": { "内容": "アースサポート横浜青葉【訪問入浴介護】神奈川県横浜市青葉区市ヶ尾町1728番地5宮嶋ビル１F", "url": "https://www.kaigokensaku.mhlw.go.jp/14/index.php?action_kouhyou_detail_004_kani=true&JigyosyoCd=1473701959-00&ServiceCd=120&Type=search", "url2": "https://www.earthsupport.co.jp/" }, "geometry": { "type": "Point", "coordinates": [ 139.5371854, 35.5557542 ] } },
{ "type": "Feature", "properties": { "内容": "セントケアあおば【訪問入浴介護】神奈川県横浜市青葉区市ヶ尾町529-7森ビル103号室", "url": "https://www.kaigokensaku.mhlw.go.jp/14/index.php?action_kouhyou_detail_004_kani=true&JigyosyoCd=1473704607-00&ServiceCd=120&Type=search", "url2": null }, "geometry": { "type": "Point", "coordinates": [ 139.545558199999988, 35.5446477 ] } },
{ "type": "Feature", "properties": { "内容": "うちんく訪問入浴　都筑【訪問入浴介護】神奈川県横浜市都筑区荏田南3-13-29", "url": "https://www.kaigokensaku.mhlw.go.jp/14/index.php?action_kouhyou_detail_004_kani=true&JigyosyoCd=1473802963-00&ServiceCd=120&Type=search", "url2": "https://www.wakashi.co.jp" }, "geometry": { "type": "Point", "coordinates": [ 139.5537626, 35.5481238 ] } },
{ "type": "Feature", "properties": { "内容": "セントケア都筑【訪問入浴介護】神奈川県横浜市都筑区仲町台3-1-20フレックスハイツ101号室", "url": "https://www.kaigokensaku.mhlw.go.jp/14/index.php?action_kouhyou_detail_004_kani=true&JigyosyoCd=1473803029-00&ServiceCd=120&Type=search", "url2": "https://www.saintc-k.com/office/4061.html" }, "geometry": { "type": "Point", "coordinates": [ 139.594020199999989, 35.5357917 ] } },
{ "type": "Feature", "properties": { "内容": "ツクイ川崎中島【訪問入浴介護】神奈川県川崎市川崎区中島3-7-3落合店舗1階", "url": "https://www.kaigokensaku.mhlw.go.jp/14/index.php?action_kouhyou_detail_004_kani=true&JigyosyoCd=1475004121-00&ServiceCd=120&Type=search", "url2": "https://www.tsukui.net" }, "geometry": { "type": "Point", "coordinates": [ 139.7164354, 35.5266597 ] } },
{ "type": "Feature", "properties": { "内容": "アースサポート川崎南【訪問入浴介護】神奈川県川崎市川崎区本町1丁目7番4号第二平川ビル10B", "url": "https://www.kaigokensaku.mhlw.go.jp/14/index.php?action_kouhyou_detail_004_kani=true&JigyosyoCd=1475002018-00&ServiceCd=120&Type=search", "url2": "https://www.earthsupport.co.jp" }, "geometry": { "type": "Point", "coordinates": [ 139.7027177, 35.5327166 ] } },
{ "type": "Feature", "properties": { "内容": "アスケア訪問入浴　川崎南【訪問入浴介護】神奈川県川崎市川崎区小川町12-3武村ビル　２０1号室", "url": "https://www.kaigokensaku.mhlw.go.jp/14/index.php?action_kouhyou_detail_004_kani=true&JigyosyoCd=1475001853-00&ServiceCd=120&Type=search", "url2": "https://www.as-care.co.jp/" }, "geometry": { "type": "Point", "coordinates": [ 139.69896540000002, 35.5271508 ] } },
{ "type": "Feature", "properties": { "内容": "セントケア中原幸【訪問入浴介護】神奈川県川崎市幸区鹿島田1-18-19福禄ビルディング", "url": "https://www.kaigokensaku.mhlw.go.jp/14/index.php?action_kouhyou_detail_004_kani=true&JigyosyoCd=1475101026-00&ServiceCd=120&Type=search", "url2": "http://www.saintc-k.com/" }, "geometry": { "type": "Point", "coordinates": [ 139.676216379601328, 35.551254705283142 ] } },
{ "type": "Feature", "properties": { "内容": "アスケア訪問入浴　川崎【訪問入浴介護】神奈川県川崎市幸区鹿島田3-23-4鹿島田3丁目店舗1F", "url": "https://www.kaigokensaku.mhlw.go.jp/14/index.php?action_kouhyou_detail_004_kani=true&JigyosyoCd=1475101380-00&ServiceCd=120&Type=search", "url2": "https://www.as-care.co.jp/" }, "geometry": { "type": "Point", "coordinates": [ 139.669394927855024, 35.558660625915806 ] } },
{ "type": "Feature", "properties": { "内容": "アースサポート川崎【訪問入浴介護】神奈川県川崎市中原区新丸子町761番5号", "url": "https://www.kaigokensaku.mhlw.go.jp/14/index.php?action_kouhyou_detail_004_kani=true&JigyosyoCd=1475200018-00&ServiceCd=120&Type=search", "url2": "https://www.earthsupport.co.jp/" }, "geometry": { "type": "Point", "coordinates": [ 139.660169194442688, 35.579628819110475 ] } },
{ "type": "Feature", "properties": { "内容": "パナソニックエイジフリーケアセンターなかはら・訪問入浴【訪問入浴介護】神奈川県川崎市中原区上平間１３８６－１第２ヤマサンビル２階", "url": "https://www.kaigokensaku.mhlw.go.jp/14/index.php?action_kouhyou_detail_004_kani=true&JigyosyoCd=1475200737-00&ServiceCd=120&Type=search", "url2": "http://panasonic.co.jp/es/pesaf/" }, "geometry": { "type": "Point", "coordinates": [ 139.6792246, 35.5596905 ] } },
{ "type": "Feature", "properties": { "内容": "ツクイ川崎中原【訪問入浴介護】神奈川県川崎市中原区木月2-8-5MKビル1階B", "url": "https://www.kaigokensaku.mhlw.go.jp/14/index.php?action_kouhyou_detail_004_kani=true&JigyosyoCd=1475203061-00&ServiceCd=120&Type=search", "url2": "https://www.tsukui.net/home-care/2042/" }, "geometry": { "type": "Point", "coordinates": [ 139.654859, 35.5644245 ] } },
{ "type": "Feature", "properties": { "内容": "アスケア訪問入浴　中原【訪問入浴介護】神奈川県川崎市中原区下小田中1-10-17Ｋ建物　１階", "url": "https://www.kaigokensaku.mhlw.go.jp/14/index.php?action_kouhyou_detail_004_kani=true&JigyosyoCd=1475201222-00&ServiceCd=120&Type=search", "url2": "https://www.as-care.co.jp/" }, "geometry": { "type": "Point", "coordinates": [ 139.636751674595445, 35.581507095420605 ] } },
{ "type": "Feature", "properties": { "内容": "パナソニックエイジフリーケアセンター川崎ちとせ・訪問入浴【訪問入浴介護】神奈川県川崎市高津区千年768番地", "url": "https://www.kaigokensaku.mhlw.go.jp/14/index.php?action_kouhyou_detail_004_kani=true&JigyosyoCd=1475303697-00&ServiceCd=120&Type=search", "url2": "https://sumai.panasonic.jp/agefree/map/detail.php?id=412" }, "geometry": { "type": "Point", "coordinates": [ 139.6272759, 35.5797261 ] } },
{ "type": "Feature", "properties": { "内容": "アスケア訪問入浴　高津【訪問入浴介護】神奈川県川崎市高津区千年新町26番7", "url": "https://www.kaigokensaku.mhlw.go.jp/14/index.php?action_kouhyou_detail_004_kani=true&JigyosyoCd=1475301485-00&ServiceCd=120&Type=search", "url2": "https://www.as-care.co.jp/" }, "geometry": { "type": "Point", "coordinates": [ 139.627835140353596, 35.581987453995652 ] } },
{ "type": "Feature", "properties": { "内容": "うちんく訪問入浴　高津【訪問入浴介護】神奈川県川崎市高津区久地1-46-16", "url": "https://www.kaigokensaku.mhlw.go.jp/14/index.php?action_kouhyou_detail_004_kani=true&JigyosyoCd=1475303754-00&ServiceCd=120&Type=search", "url2": "https://www.wakashi.co.jp" }, "geometry": { "type": "Point", "coordinates": [ 139.60266390000001, 35.6071083 ] } },
{ "type": "Feature", "properties": { "内容": "アースサポート登戸【訪問入浴介護】神奈川県川崎市多摩区登戸3356番1号", "url": "https://www.kaigokensaku.mhlw.go.jp/14/index.php?action_kouhyou_detail_004_kani=true&JigyosyoCd=1475400352-00&ServiceCd=120&Type=search", "url2": "https://www.earthsupport.co.jp/offices/east_japan/noborito.php" }, "geometry": { "type": "Point", "coordinates": [ 139.570298500000035, 35.6195059 ] } },
{ "type": "Feature", "properties": { "内容": "アサヒサンクリーン在宅介護センター川崎多摩【訪問入浴介護】神奈川県川崎市多摩区登戸1917飯島邸1Ｆ", "url": "https://www.kaigokensaku.mhlw.go.jp/14/index.php?action_kouhyou_detail_004_kani=true&JigyosyoCd=1475401384-00&ServiceCd=120&Type=search", "url2": "https://www.asahi-sun-clean.co.jp/" }, "geometry": { "type": "Point", "coordinates": [ 139.563027536276223, 35.617921182174364 ] } },
{ "type": "Feature", "properties": { "内容": "秋桜の丘訪問入浴サービス【訪問入浴介護】神奈川県川崎市宮前区東有馬5-16-1", "url": "https://www.kaigokensaku.mhlw.go.jp/14/index.php?action_kouhyou_detail_004_kani=true&JigyosyoCd=1475502959-00&ServiceCd=120&Type=search", "url2": "https://shuhokai.or.jp/office/miyamae-ku/hn-akizakura.php" }, "geometry": { "type": "Point", "coordinates": [ 139.5956228, 35.56822426253985 ] } },
{ "type": "Feature", "properties": { "内容": "セントケア川崎宮前【訪問入浴介護】神奈川県川崎市宮前区馬絹6-10-9アズマ宮崎台マンション201", "url": "https://www.kaigokensaku.mhlw.go.jp/14/index.php?action_kouhyou_detail_004_kani=true&JigyosyoCd=1475500987-00&ServiceCd=120&Type=search", "url2": "http://www.saintc-k.com/" }, "geometry": { "type": "Point", "coordinates": [ 139.5947069, 35.5822815 ] } },
{ "type": "Feature", "properties": { "内容": "ニチイケアセンター宮前平【訪問入浴介護】神奈川県川崎市宮前区宮崎5-14-1サバーバントーワ１階", "url": "https://www.kaigokensaku.mhlw.go.jp/14/index.php?action_kouhyou_detail_004_kani=true&JigyosyoCd=1475501159-00&ServiceCd=120&Type=search", "url2": "https://www.nichiigakkan.co.jp/" }, "geometry": { "type": "Point", "coordinates": [ 139.5866907, 35.5899609 ] } },
{ "type": "Feature", "properties": { "内容": "セントケアあさお【訪問入浴介護】神奈川県川崎市麻生区多摩美1-2-4", "url": "https://www.kaigokensaku.mhlw.go.jp/14/index.php?action_kouhyou_detail_004_kani=true&JigyosyoCd=1475601199-00&ServiceCd=120&Type=search", "url2": "https://www.saintc-k.com" }, "geometry": { "type": "Point", "coordinates": [ 139.524597250926206, 35.61598358928746 ] } },
{ "type": "Feature", "properties": { "内容": "ツクイ川崎麻生【訪問入浴介護】神奈川県川崎市麻生区片平3-5-11", "url": "https://www.kaigokensaku.mhlw.go.jp/14/index.php?action_kouhyou_detail_004_kani=true&JigyosyoCd=1475602403-00&ServiceCd=120&Type=search", "url2": "https://www.tsukui.net/" }, "geometry": { "type": "Point", "coordinates": [ 139.493556899999987, 35.592234 ] } },
{ "type": "Feature", "properties": { "内容": "スマイル城山【訪問入浴介護】神奈川県相模原市緑区久保沢1-5-16", "url": "https://www.kaigokensaku.mhlw.go.jp/14/index.php?action_kouhyou_detail_004_kani=true&JigyosyoCd=1472604626-00&ServiceCd=120&Type=search", "url2": "https://smile-kaigo.net/publics/index/49/" }, "geometry": { "type": "Point", "coordinates": [ 139.303976599999942, 35.5958924 ] } },
{ "type": "Feature", "properties": { "内容": "株式会社　まちづくり公社【訪問入浴介護】神奈川県相模原市中央区矢部2-4-17", "url": "https://www.kaigokensaku.mhlw.go.jp/14/index.php?action_kouhyou_detail_004_kani=true&JigyosyoCd=1472600228-00&ServiceCd=120&Type=search", "url2": "https://machizukurikousya.com/" }, "geometry": { "type": "Point", "coordinates": [ 139.381453500000021, 35.574625 ] } },
{ "type": "Feature", "properties": { "内容": "セントケア相模原【訪問入浴介護】神奈川県相模原市中央区清新１-１-１２相模原丸正ビル１階", "url": "https://www.kaigokensaku.mhlw.go.jp/14/index.php?action_kouhyou_detail_004_kani=true&JigyosyoCd=1472603776-00&ServiceCd=120&Type=search", "url2": "http://www.saintc-k.com/" }, "geometry": { "type": "Point", "coordinates": [ 139.365993759216281, 35.581372544487735 ] } },
{ "type": "Feature", "properties": { "内容": "アスケア訪問入浴　相模原【訪問入浴介護】神奈川県相模原市中央区相模原4-2-9第二相模原ビル4階", "url": "https://www.kaigokensaku.mhlw.go.jp/14/index.php?action_kouhyou_detail_004_kani=true&JigyosyoCd=1472604915-00&ServiceCd=120&Type=search", "url2": "https://www.as-care.co.jp/" }, "geometry": { "type": "Point", "coordinates": [ 139.372680044180271, 35.579595485132579 ] } },
{ "type": "Feature", "properties": { "内容": "ツクイ相模台【訪問入浴介護】神奈川県相模原市南区相模台3-17-9ユニハイトビル1階", "url": "https://www.kaigokensaku.mhlw.go.jp/14/index.php?action_kouhyou_detail_004_kani=true&JigyosyoCd=1472610813-00&ServiceCd=120&Type=search", "url2": "https://www.tsukui.net/home-care/2069/" }, "geometry": { "type": "Point", "coordinates": [ 139.414369, 35.5101308 ] } },
{ "type": "Feature", "properties": { "内容": "セントケア相模大野【訪問入浴介護】神奈川県相模原市南区上鶴間本町4-50-30プラザ野澤1Ｆ", "url": "https://www.kaigokensaku.mhlw.go.jp/14/index.php?action_kouhyou_detail_004_kani=true&JigyosyoCd=1472603792-00&ServiceCd=120&Type=search", "url2": "https://www.saintc-k.com/office/1079.html" }, "geometry": { "type": "Point", "coordinates": [ 139.444885200000044, 35.5314804 ] } },
{ "type": "Feature", "properties": { "内容": "入浴サービス　イリス　古淵【訪問入浴介護】神奈川県相模原市南区古淵3-6-8アペックス古淵108", "url": "https://www.kaigokensaku.mhlw.go.jp/14/index.php?action_kouhyou_detail_004_kani=true&JigyosyoCd=1472611530-00&ServiceCd=120&Type=search", "url2": "https://www.i-iris.co.jp/" }, "geometry": { "type": "Point", "coordinates": [ 139.421925499999986, 35.553479299999985 ] } },
{ "type": "Feature", "properties": { "内容": "アスケア訪問入浴　古淵【訪問入浴介護】神奈川県相模原市南区古淵3-12-4パサニアビル201号室", "url": "https://www.kaigokensaku.mhlw.go.jp/14/index.php?action_kouhyou_detail_004_kani=true&JigyosyoCd=1472611571-00&ServiceCd=120&Type=search", "url2": "https://www.as-care.co.jp/" }, "geometry": { "type": "Point", "coordinates": [ 139.4193158, 35.5542664 ] } },
{ "type": "Feature", "properties": { "内容": "アースサポート相模大野【訪問入浴介護】神奈川県相模原市南区上鶴間本町4丁目9番12号", "url": "https://www.kaigokensaku.mhlw.go.jp/14/index.php?action_kouhyou_detail_004_kani=true&JigyosyoCd=1472606134-00&ServiceCd=120&Type=search", "url2": "https://www.earthsupport.co.jp/offices/sagamiohno" }, "geometry": { "type": "Point", "coordinates": [ 139.441771499999959, 35.5327635 ] } },
{ "type": "Feature", "properties": { "内容": "スマイル横須賀【訪問入浴介護】神奈川県横須賀市根岸町5-20-16", "url": "https://www.kaigokensaku.mhlw.go.jp/14/index.php?action_kouhyou_detail_004_kani=true&JigyosyoCd=1471901247-00&ServiceCd=120&Type=search", "url2": "http://smile-kaigo.net/publics/index/73/&anchor_link=page73#page73" }, "geometry": { "type": "Point", "coordinates": [ 139.682079193254168, 35.254185476504141 ] } },
{ "type": "Feature", "properties": { "内容": "セントケア久里浜【訪問入浴介護】神奈川県横須賀市野比3-3-1トーク湘南野比101", "url": "https://www.kaigokensaku.mhlw.go.jp/14/index.php?action_kouhyou_detail_004_kani=true&JigyosyoCd=1471903482-00&ServiceCd=120&Type=search", "url2": "http://www.saintc-k.com/" }, "geometry": { "type": "Point", "coordinates": [ 139.688440899999932, 35.2158453 ] } },
{ "type": "Feature", "properties": { "内容": "ツクイ北久里浜【訪問入浴介護】神奈川県横須賀市根岸町3-1-5シーアイマンション久里浜1階店舗2号", "url": "https://www.kaigokensaku.mhlw.go.jp/14/index.php?action_kouhyou_detail_004_kani=true&JigyosyoCd=1471907210-00&ServiceCd=120&Type=search", "url2": "http://www.tsukui.net/home-care/2109/" }, "geometry": { "type": "Point", "coordinates": [ 139.685213800000014, 35.252436 ] } },
{ "type": "Feature", "properties": { "内容": "ニチイケアセンター湘南山手【訪問入浴介護】神奈川県横須賀市吉井4-20-10", "url": "https://www.kaigokensaku.mhlw.go.jp/14/index.php?action_kouhyou_detail_004_kani=true&JigyosyoCd=1471900926-00&ServiceCd=120&Type=search", "url2": "http://www.nichiigakkan.co.jp" }, "geometry": { "type": "Point", "coordinates": [ 139.705783200000042, 35.2504578 ] } },
{ "type": "Feature", "properties": { "内容": "アースサポート横須賀【訪問入浴介護】神奈川県横須賀市根岸町1丁目7番11号", "url": "https://www.kaigokensaku.mhlw.go.jp/14/index.php?action_kouhyou_detail_004_kani=true&JigyosyoCd=1471903219-00&ServiceCd=120&Type=search", "url2": "https://www.earthsupport.co.jp/offices/yokosuka" }, "geometry": { "type": "Point", "coordinates": [ 139.6856656, 35.2525381 ] } },
{ "type": "Feature", "properties": { "内容": "アスケア訪問入浴　追浜【訪問入浴介護】神奈川県横須賀市浦郷町4-12追浜会館共同ビルＢ棟２階", "url": "https://www.kaigokensaku.mhlw.go.jp/14/index.php?action_kouhyou_detail_004_kani=true&JigyosyoCd=1471907715-00&ServiceCd=120&Type=search", "url2": "https://www.as-care.co.jp/" }, "geometry": { "type": "Point", "coordinates": [ 139.6331351, 35.3168255 ] } },
{ "type": "Feature", "properties": { "内容": "アスケア訪問入浴　横須賀【訪問入浴介護】神奈川県横須賀市久里浜5-11-8杉浦ビル1F", "url": "https://www.kaigokensaku.mhlw.go.jp/14/index.php?action_kouhyou_detail_004_kani=true&JigyosyoCd=1471904233-00&ServiceCd=120&Type=search", "url2": "https://www.as-care.co.jp/" }, "geometry": { "type": "Point", "coordinates": [ 139.693817307318113, 35.263315320073104 ] } },
{ "type": "Feature", "properties": { "内容": "サン・ライフ福祉サービスセンター　湘南事業所【訪問入浴介護】神奈川県平塚市馬入本町13-2-1", "url": "https://www.kaigokensaku.mhlw.go.jp/14/index.php?action_kouhyou_detail_004_kani=true&JigyosyoCd=1472000023-00&ServiceCd=120&Type=search", "url2": "https://www.sunlife.jp/care/menu03.html" }, "geometry": { "type": "Point", "coordinates": [ 139.362483600000019, 35.3312832 ] } },
{ "type": "Feature", "properties": { "内容": "株式会社ティー・シー・エス平塚本社【訪問入浴介護】神奈川県平塚市土屋７７２－１", "url": "https://www.kaigokensaku.mhlw.go.jp/14/index.php?action_kouhyou_detail_004_kani=true&JigyosyoCd=1472000056-00&ServiceCd=120&Type=search", "url2": "http://www.tcs-h.co.jp/" }, "geometry": { "type": "Point", "coordinates": [ 139.25329320000003, 35.3454855 ] } },
{ "type": "Feature", "properties": { "内容": "アースサポート平塚【訪問入浴介護】神奈川県平塚市明石町5番8号", "url": "https://www.kaigokensaku.mhlw.go.jp/14/index.php?action_kouhyou_detail_004_kani=true&JigyosyoCd=1472000874-00&ServiceCd=120&Type=search", "url2": "https://www.earthsupport.co.jp/offices/hiratsuka" }, "geometry": { "type": "Point", "coordinates": [ 139.348442317057788, 35.331561788847971 ] } },
{ "type": "Feature", "properties": { "内容": "アスケア訪問入浴　平塚【訪問入浴介護】神奈川県平塚市代官町5-8新堀ギター平塚ビル301", "url": "https://www.kaigokensaku.mhlw.go.jp/14/index.php?action_kouhyou_detail_004_kani=true&JigyosyoCd=1472001898-00&ServiceCd=120&Type=search", "url2": "https://www.as-care.co.jp/" }, "geometry": { "type": "Point", "coordinates": [ 139.356245400000034, 35.3303692 ] } },
{ "type": "Feature", "properties": { "内容": "セントケア大船【訪問入浴介護】神奈川県鎌倉市大船2-17-3ヨシダビル２０１号室", "url": "https://www.kaigokensaku.mhlw.go.jp/14/index.php?action_kouhyou_detail_004_kani=true&JigyosyoCd=1472101714-00&ServiceCd=120&Type=search", "url2": "http://www.saintc-k.com/" }, "geometry": { "type": "Point", "coordinates": [ 139.534457059149702, 35.353540431041992 ] } },
{ "type": "Feature", "properties": { "内容": "セントケア鎌倉【訪問入浴介護】神奈川県鎌倉市大町1-10-21カマクラガーデンハウス１階", "url": "https://www.kaigokensaku.mhlw.go.jp/14/index.php?action_kouhyou_detail_004_kani=true&JigyosyoCd=1472101722-00&ServiceCd=120&Type=search", "url2": "http://www.saintc-k.com" }, "geometry": { "type": "Point", "coordinates": [ 139.5538444, 35.3146566 ] } },
{ "type": "Feature", "properties": { "内容": "ツクイ鎌倉【訪問入浴介護】神奈川県鎌倉市岡本2-1-19第二日信ビル101", "url": "https://www.kaigokensaku.mhlw.go.jp/14/index.php?action_kouhyou_detail_004_kani=true&JigyosyoCd=1472103439-00&ServiceCd=120&Type=search", "url2": "http://www.tsukui.net" }, "geometry": { "type": "Point", "coordinates": [ 139.5282975, 35.3516787 ] } },
{ "type": "Feature", "properties": { "内容": "ツクイ藤沢羽鳥【訪問入浴介護】神奈川県藤沢市羽鳥3-17-22", "url": "https://www.kaigokensaku.mhlw.go.jp/14/index.php?action_kouhyou_detail_004_kani=true&JigyosyoCd=1472206968-00&ServiceCd=120&Type=search", "url2": "https://www.tsukui.net/" }, "geometry": { "type": "Point", "coordinates": [ 139.45825210000001, 35.3462121 ] } },
{ "type": "Feature", "properties": { "内容": "LAND【訪問入浴介護】神奈川県藤沢市善行1−18−8ベルデメゾン神山202", "url": "https://www.kaigokensaku.mhlw.go.jp/14/index.php?action_kouhyou_detail_004_kani=true&JigyosyoCd=1472207263-00&ServiceCd=120&Type=search", "url2": "https://csf252.cloud-line.com" }, "geometry": { "type": "Point", "coordinates": [ 139.470659500000011, 35.3631581 ] } },
{ "type": "Feature", "properties": { "内容": "合同会社湘南福祉入浴サービス【訪問入浴介護】神奈川県藤沢市本町4-7-28", "url": "https://www.kaigokensaku.mhlw.go.jp/14/index.php?action_kouhyou_detail_004_kani=true&JigyosyoCd=1472207339-00&ServiceCd=120&Type=search", "url2": "https://shonan1126.com" }, "geometry": { "type": "Point", "coordinates": [ 139.479586803704819, 35.346795281881967 ] } },
{ "type": "Feature", "properties": { "内容": "アスケア訪問入浴　藤沢【訪問入浴介護】神奈川県藤沢市川名187-3川名ビル2F", "url": "https://www.kaigokensaku.mhlw.go.jp/14/index.php?action_kouhyou_detail_004_kani=true&JigyosyoCd=1472203239-00&ServiceCd=120&Type=search", "url2": "https://www.as-care.co.jp/" }, "geometry": { "type": "Point", "coordinates": [ 139.494677200000098, 35.3342736 ] } },
{ "type": "Feature", "properties": { "内容": "まごの手介護サービス湘南営業所【訪問入浴介護】神奈川県藤沢市石川5-29-8", "url": "https://www.kaigokensaku.mhlw.go.jp/14/index.php?action_kouhyou_detail_004_kani=true&JigyosyoCd=1472203262-00&ServiceCd=120&Type=search", "url2": "http://magonote.co.jp/office/" }, "geometry": { "type": "Point", "coordinates": [ 139.450649227880831, 35.382042032966673 ] } },
{ "type": "Feature", "properties": { "内容": "アースサポート小田原【訪問入浴介護】神奈川県小田原市久野83", "url": "https://www.kaigokensaku.mhlw.go.jp/14/index.php?action_kouhyou_detail_004_kani=true&JigyosyoCd=1472301173-00&ServiceCd=120&Type=search", "url2": "https://www.earthsupport.co.jp/offices/odawara" }, "geometry": { "type": "Point", "coordinates": [ 139.151194867897402, 35.269068334324793 ] } },
{ "type": "Feature", "properties": { "内容": "ゆぷらす訪問入浴介護【訪問入浴介護】神奈川県小田原市城山1-16-8", "url": "https://www.kaigokensaku.mhlw.go.jp/14/index.php?action_kouhyou_detail_004_kani=true&JigyosyoCd=1472303518-00&ServiceCd=120&Type=search", "url2": "https://www.yuplus26.jp" }, "geometry": { "type": "Point", "coordinates": [ 139.156348211126897, 35.25888907945815 ] } },
{ "type": "Feature", "properties": { "内容": "株式会社　エスティサービス　小田原営業所【訪問入浴介護】神奈川県小田原市鴨宮343-2", "url": "https://www.kaigokensaku.mhlw.go.jp/14/index.php?action_kouhyou_detail_004_kani=true&JigyosyoCd=1472300647-00&ServiceCd=120&Type=search", "url2": "http://www.st-service.co.jp" }, "geometry": { "type": "Point", "coordinates": [ 139.180013499999973, 35.280207 ] } },
{ "type": "Feature", "properties": { "内容": "セントケア茅ケ崎【訪問入浴介護】神奈川県茅ケ崎市共恵1-16-16", "url": "https://www.kaigokensaku.mhlw.go.jp/14/index.php?action_kouhyou_detail_004_kani=true&JigyosyoCd=1472401502-00&ServiceCd=120&Type=search", "url2": "http://www.saintc-k.com/" }, "geometry": { "type": "Point", "coordinates": [ 139.398869900000022, 35.326549 ] } },
{ "type": "Feature", "properties": { "内容": "アースサポート茅ヶ崎【訪問入浴介護】神奈川県茅ヶ崎市若松町1番7号", "url": "https://www.kaigokensaku.mhlw.go.jp/14/index.php?action_kouhyou_detail_004_kani=true&JigyosyoCd=1472402013-00&ServiceCd=120&Type=search", "url2": "https://www.earthsupport.co.jp/offices/chigasaki" }, "geometry": { "type": "Point", "coordinates": [ 139.415404599999988, 35.3321354 ] } },
{ "type": "Feature", "properties": { "内容": "ツクイ茅ヶ崎浜見平【訪問入浴介護】神奈川県茅ヶ崎市浜見平11-1BRANCH茅ヶ崎2-D", "url": "https://www.kaigokensaku.mhlw.go.jp/14/index.php?action_kouhyou_detail_004_kani=true&JigyosyoCd=1472403094-00&ServiceCd=120&Type=search", "url2": "https://www.tsukui.net" }, "geometry": { "type": "Point", "coordinates": [ 139.388741399999986, 35.3229878 ] } },
{ "type": "Feature", "properties": { "内容": "アスケア訪問入浴　茅ヶ崎【訪問入浴介護】神奈川県茅ケ崎市元町4-9-1林本ビル3階A号室", "url": "https://www.kaigokensaku.mhlw.go.jp/14/index.php?action_kouhyou_detail_004_kani=true&JigyosyoCd=1472403326-00&ServiceCd=120&Type=search", "url2": "https://www.as-care.co.jp" }, "geometry": { "type": "Point", "coordinates": [ 139.4059091, 35.332793 ] } },
{ "type": "Feature", "properties": { "内容": "訪問入浴のテイカバ【訪問入浴介護】神奈川県逗子市新宿2-14-14田中アパート202", "url": "https://www.kaigokensaku.mhlw.go.jp/14/index.php?action_kouhyou_detail_004_kani=true&JigyosyoCd=1472501111-00&ServiceCd=120&Type=search", "url2": null }, "geometry": { "type": "Point", "coordinates": [ 139.569272424096681, 35.295285730554248 ] } },
{ "type": "Feature", "properties": { "内容": "株式会社　エスティサービス秦野営業所【訪問入浴介護】神奈川県秦野市寿町２－１６", "url": "https://www.kaigokensaku.mhlw.go.jp/14/index.php?action_kouhyou_detail_004_kani=true&JigyosyoCd=1472800158-00&ServiceCd=120&Type=search", "url2": "http://www.st-service.co.jp" }, "geometry": { "type": "Point", "coordinates": [ 139.228473, 35.3753611 ] } },
{ "type": "Feature", "properties": { "内容": "アサヒサンクリーン在宅介護センター秦野【訪問入浴介護】神奈川県秦野市本町1-11-14フレールヒルズ秦野本町101", "url": "https://www.kaigokensaku.mhlw.go.jp/14/index.php?action_kouhyou_detail_004_kani=true&JigyosyoCd=1472801347-00&ServiceCd=120&Type=search", "url2": "http://www.asahi-sun-clean.co.jp" }, "geometry": { "type": "Point", "coordinates": [ 139.227448200000026, 35.3741195 ] } },
{ "type": "Feature", "properties": { "内容": "株式会社　丸新【訪問入浴介護】神奈川県厚木市下川入862", "url": "https://www.kaigokensaku.mhlw.go.jp/14/index.php?action_kouhyou_detail_004_kani=true&JigyosyoCd=1472900081-00&ServiceCd=120&Type=search", "url2": "http://www.marushin2000.co.jp" }, "geometry": { "type": "Point", "coordinates": [ 139.350043611639421, 35.507472161459603 ] } },
{ "type": "Feature", "properties": { "内容": "有限会社　まごの手介護サービス　厚木営業所【訪問入浴介護】神奈川県厚木市温水2238-3", "url": "https://www.kaigokensaku.mhlw.go.jp/14/index.php?action_kouhyou_detail_004_kani=true&JigyosyoCd=1472900644-00&ServiceCd=120&Type=search", "url2": "https://magonote.co.jp/" }, "geometry": { "type": "Point", "coordinates": [ 139.3341547, 35.4493553 ] } },
{ "type": "Feature", "properties": { "内容": "ツクイ厚木【訪問入浴介護】神奈川県厚木市栄町1-1-8ホテルマイステイズ厚木ビル１階", "url": "https://www.kaigokensaku.mhlw.go.jp/14/index.php?action_kouhyou_detail_004_kani=true&JigyosyoCd=1472902798-00&ServiceCd=120&Type=search", "url2": "http://www.tsukui.net" }, "geometry": { "type": "Point", "coordinates": [ 139.358961099999988, 35.4397743 ] } },
{ "type": "Feature", "properties": { "内容": "アスケア訪問入浴　厚木【訪問入浴介護】神奈川県厚木市旭町3-2-1DIAビル1階", "url": "https://www.kaigokensaku.mhlw.go.jp/14/index.php?action_kouhyou_detail_004_kani=true&JigyosyoCd=1472902947-00&ServiceCd=120&Type=search", "url2": "https://www.as-care.co.jp" }, "geometry": { "type": "Point", "coordinates": [ 139.3696531, 35.4386578 ] } },
{ "type": "Feature", "properties": { "内容": "アースサポート大和【訪問入浴介護】神奈川県大和市大和南2丁目10番3号", "url": "https://www.kaigokensaku.mhlw.go.jp/14/index.php?action_kouhyou_detail_004_kani=true&JigyosyoCd=1473000444-00&ServiceCd=120&Type=search", "url2": "http://www.earthsupport.co.jp" }, "geometry": { "type": "Point", "coordinates": [ 139.465856, 35.4658201 ] } },
{ "type": "Feature", "properties": { "内容": "おうち銭湯　かめ印【訪問入浴介護】神奈川県大和市中央7-7-3", "url": "https://www.kaigokensaku.mhlw.go.jp/14/index.php?action_kouhyou_detail_004_kani=true&JigyosyoCd=1473002499-00&ServiceCd=120&Type=search", "url2": null }, "geometry": { "type": "Point", "coordinates": [ 139.46262232513115, 35.464084184460617 ] } },
{ "type": "Feature", "properties": { "内容": "入浴サービス　イリス　南林間【訪問入浴介護】神奈川県大和市林間1-20-13シーザーパレス101号室", "url": "https://www.kaigokensaku.mhlw.go.jp/14/index.php?action_kouhyou_detail_004_kani=true&JigyosyoCd=1473003612-00&ServiceCd=120&Type=search", "url2": "https://www.i-iris.co.jp/" }, "geometry": { "type": "Point", "coordinates": [ 139.4514264, 35.498096900000014 ] } },
{ "type": "Feature", "properties": { "内容": "有限会社　まごの手介護サービス【訪問入浴介護】神奈川県大和市深見東1-2-36", "url": "https://www.kaigokensaku.mhlw.go.jp/14/index.php?action_kouhyou_detail_004_kani=true&JigyosyoCd=1473000378-00&ServiceCd=120&Type=search", "url2": "https://magonote.co.jp/" }, "geometry": { "type": "Point", "coordinates": [ 139.466363900000033, 35.475790500000016 ] } },
{ "type": "Feature", "properties": { "内容": "訪問入浴　湯ネット【訪問入浴介護】神奈川県大和市福田1624関水貸家5号室", "url": "https://www.kaigokensaku.mhlw.go.jp/14/index.php?action_kouhyou_detail_004_kani=true&JigyosyoCd=1473003760-00&ServiceCd=120&Type=search", "url2": null }, "geometry": { "type": "Point", "coordinates": [ 139.463314200000013, 35.4270407 ] } },
{ "type": "Feature", "properties": { "内容": "アスケア訪問入浴　海老名【訪問入浴介護】神奈川県海老名市国分北2-5-8えびすＭ.ＰⅡ", "url": "https://www.kaigokensaku.mhlw.go.jp/14/index.php?action_kouhyou_detail_004_kani=true&JigyosyoCd=1474200563-00&ServiceCd=120&Type=search", "url2": "https://www.as-care.co.jp/" }, "geometry": { "type": "Point", "coordinates": [ 139.4014856, 35.452859 ] } },
{ "type": "Feature", "properties": { "内容": "あおば福祉サービス　訪問入浴介護【訪問入浴介護】神奈川県座間市四ツ谷638", "url": "https://www.kaigokensaku.mhlw.go.jp/14/index.php?action_kouhyou_detail_004_kani=true&JigyosyoCd=1474100649-00&ServiceCd=120&Type=search", "url2": "http://www.aoba-med.co.jp/" }, "geometry": { "type": "Point", "coordinates": [ 139.387662348785284, 35.473260031195309 ] } },
{ "type": "Feature", "properties": { "内容": "株式会社　ティー・シー・エス　足柄営業所【訪問入浴介護】神奈川県南足柄市狩野１２８メリーコーポ１０１", "url": "https://www.kaigokensaku.mhlw.go.jp/14/index.php?action_kouhyou_detail_004_kani=true&JigyosyoCd=1474300140-00&ServiceCd=120&Type=search", "url2": "http://www.tcs-h.co.jp/" }, "geometry": { "type": "Point", "coordinates": [ 139.107702300000028, 35.316685 ] } },
{ "type": "Feature", "properties": { "内容": "ツクイ南足柄【訪問入浴介護】神奈川県南足柄市雨坪439-1", "url": "https://www.kaigokensaku.mhlw.go.jp/14/index.php?action_kouhyou_detail_004_kani=true&JigyosyoCd=1474300637-00&ServiceCd=120&Type=search", "url2": "https://www.tsukui.net/" }, "geometry": { "type": "Point", "coordinates": [ 139.0946789, 35.3250047 ] } },
{ "type": "Feature", "properties": { "内容": "にちようび訪問入浴看護【訪問入浴介護】神奈川県高座郡寒川町中瀬3-9リトルウッド湘南102号室", "url": "https://www.kaigokensaku.mhlw.go.jp/14/index.php?action_kouhyou_detail_004_kani=true&JigyosyoCd=1471200566-00&ServiceCd=120&Type=search", "url2": "https://nichiyoubi.co.jp/" }, "geometry": { "type": "Point", "coordinates": [ 139.38926349999997, 35.3644625 ] } },
{ "type": "Feature", "properties": { "内容": "株式会社ティー・シー・エス湯河原営業所【訪問入浴介護】神奈川県足柄下郡湯河原町土肥２－３－１２ジョリクラウド湯河原１階", "url": "https://www.kaigokensaku.mhlw.go.jp/14/index.php?action_kouhyou_detail_004_kani=true&JigyosyoCd=1471500106-00&ServiceCd=120&Type=search", "url2": "http://tcs-h.net" }, "geometry": { "type": "Point", "coordinates": [ 139.1081696, 35.1455529 ] } }
]
}
