{
"type": "FeatureCollection",
"name": "geo_14_短期入所療養介護（介護老人保健施設）",
"crs": { "type": "name", "properties": { "name": "urn:ogc:def:crs:OGC:1.3:CRS84" } },
"features": [
{ "type": "Feature", "properties": { "内容": "うしおだ老健やすらぎ【短期入所療養介護（介護老人保健施設）】神奈川県横浜市鶴見区矢向1-5-29", "url": "https://www.kaigokensaku.mhlw.go.jp/14/index.php?action_kouhyou_detail_004_kani=true&JigyosyoCd=1450180000-00&ServiceCd=220&Type=search", "url2": "https://www.ushioda-care.jp/" }, "geometry": { "type": "Point", "coordinates": [ 139.678655663700226, 35.529041379184235 ] } },
{ "type": "Feature", "properties": { "内容": "介護老人保健施設リハリゾートわかたけ【短期入所療養介護（介護老人保健施設）】神奈川県横浜市神奈川区菅田町1826", "url": "https://www.kaigokensaku.mhlw.go.jp/14/index.php?action_kouhyou_detail_004_kani=true&JigyosyoCd=1450280008-00&ServiceCd=220&Type=search", "url2": "http://www.wakatake.net/" }, "geometry": { "type": "Point", "coordinates": [ 139.588004899999987, 35.5004371 ] } },
{ "type": "Feature", "properties": { "内容": "医療法人社団武蔵野会介護老人保健施設牧野ケアセンター【短期入所療養介護（介護老人保健施設）】神奈川県横浜市神奈川区菅田町1481-1", "url": "https://www.kaigokensaku.mhlw.go.jp/14/index.php?action_kouhyou_detail_004_kani=true&JigyosyoCd=1450280057-00&ServiceCd=220&Type=search", "url2": "https://makino-care.jp/" }, "geometry": { "type": "Point", "coordinates": [ 139.5835903, 35.4987659 ] } },
{ "type": "Feature", "properties": { "内容": "医療法人社団武蔵野会介護老人保健施設牧野ケアセンターユニット型【短期入所療養介護（介護老人保健施設）】神奈川県横浜市神奈川区菅田町1481-1", "url": "https://www.kaigokensaku.mhlw.go.jp/14/index.php?action_kouhyou_detail_004_kani=true&JigyosyoCd=1450280065-00&ServiceCd=220&Type=search", "url2": "https://makino-care.jp/" }, "geometry": { "type": "Point", "coordinates": [ 139.5835903, 35.4987659 ] } },
{ "type": "Feature", "properties": { "内容": "介護老人保健施設　神奈川苑【短期入所療養介護（介護老人保健施設）】神奈川県横浜市神奈川区菅田町1989番地", "url": "https://www.kaigokensaku.mhlw.go.jp/14/index.php?action_kouhyou_detail_004_kani=true&JigyosyoCd=1450280032-00&ServiceCd=220&Type=search", "url2": "https://www.kanagawaen.com/" }, "geometry": { "type": "Point", "coordinates": [ 139.588768699999946, 35.495846 ] } },
{ "type": "Feature", "properties": { "内容": "介護老人保健施設　ラ・クラルテ【短期入所療養介護（介護老人保健施設）】神奈川県横浜市神奈川区菅田町656-1", "url": "https://www.kaigokensaku.mhlw.go.jp/14/index.php?action_kouhyou_detail_004_kani=true&JigyosyoCd=1450280016-00&ServiceCd=220&Type=search", "url2": "https://hc-mugi.com/" }, "geometry": { "type": "Point", "coordinates": [ 139.573880899999949, 35.4951262 ] } },
{ "type": "Feature", "properties": { "内容": "医療法人社団　愛友会　介護老人保健施設　ハートケア横浜【短期入所療養介護（介護老人保健施設）】神奈川県横浜市西区高島１－４－１８", "url": "https://www.kaigokensaku.mhlw.go.jp/14/index.php?action_kouhyou_detail_004_kani=true&JigyosyoCd=1450380006-00&ServiceCd=220&Type=search", "url2": "https://www.hcyokohama.jp" }, "geometry": { "type": "Point", "coordinates": [ 139.624512099999947, 35.4595559 ] } },
{ "type": "Feature", "properties": { "内容": "介護老人保健施設　えきさい横浜【短期入所療養介護（介護老人保健施設）】神奈川県横浜市中区山田町１－１", "url": "https://www.kaigokensaku.mhlw.go.jp/14/index.php?action_kouhyou_detail_004_kani=true&JigyosyoCd=1450480004-00&ServiceCd=220&Type=search", "url2": "https://www.ekisai-yokohama.com" }, "geometry": { "type": "Point", "coordinates": [ 139.6348882, 35.4382465 ] } },
{ "type": "Feature", "properties": { "内容": "介護老人保健施設レストア横浜【短期入所療養介護（介護老人保健施設）】神奈川県横浜市南区六ッ川３－５－１", "url": "https://www.kaigokensaku.mhlw.go.jp/14/index.php?action_kouhyou_detail_004_kani=true&JigyosyoCd=1450580019-00&ServiceCd=220&Type=search", "url2": "https://restore-y.jp" }, "geometry": { "type": "Point", "coordinates": [ 139.5913737, 35.4330988 ] } },
{ "type": "Feature", "properties": { "内容": "介護老人保健施設ユトリアム【短期入所療養介護（介護老人保健施設）】神奈川県横浜市保土ケ谷区狩場町200-7", "url": "https://www.kaigokensaku.mhlw.go.jp/14/index.php?action_kouhyou_detail_004_kani=true&JigyosyoCd=1450680009-00&ServiceCd=220&Type=search", "url2": "http://www.yutoriam.com/" }, "geometry": { "type": "Point", "coordinates": [ 139.576351, 35.4403828 ] } },
{ "type": "Feature", "properties": { "内容": "介護老人保健施設　ライフモア保土ヶ谷【短期入所療養介護（介護老人保健施設）】神奈川県横浜市保土ケ谷区新井町291-1", "url": "https://www.kaigokensaku.mhlw.go.jp/14/index.php?action_kouhyou_detail_004_kani=true&JigyosyoCd=1450680025-00&ServiceCd=220&Type=search", "url2": "http://www.lifemore.or.jp" }, "geometry": { "type": "Point", "coordinates": [ 139.558115300000054, 35.4926788 ] } },
{ "type": "Feature", "properties": { "内容": "介護老人保健施設　境木の丘【短期入所療養介護（介護老人保健施設）】神奈川県横浜市保土ケ谷区境木町１７４－１", "url": "https://www.kaigokensaku.mhlw.go.jp/14/index.php?action_kouhyou_detail_004_kani=true&JigyosyoCd=1450680033-00&ServiceCd=220&Type=search", "url2": "https://www.sakaiginooka.jp/" }, "geometry": { "type": "Point", "coordinates": [ 139.565462799999978, 35.4425184 ] } },
{ "type": "Feature", "properties": { "内容": "介護老人保健施設　けいあいの郷　西谷【短期入所療養介護（介護老人保健施設）】神奈川県横浜市保土ケ谷区西谷町1018-2", "url": "https://www.kaigokensaku.mhlw.go.jp/14/index.php?action_kouhyou_detail_004_kani=true&JigyosyoCd=1450680041-00&ServiceCd=220&Type=search", "url2": "http://keiainosato-nishiya.jp/" }, "geometry": { "type": "Point", "coordinates": [ 139.565087299999959, 35.4805416 ] } },
{ "type": "Feature", "properties": { "内容": "横浜市立脳卒中・神経脊椎センター介護老人保健施設コスモス【短期入所療養介護（介護老人保健施設）】神奈川県横浜市磯子区滝頭1-2-1", "url": "https://www.kaigokensaku.mhlw.go.jp/14/index.php?action_kouhyou_detail_004_kani=true&JigyosyoCd=1470701184-00&ServiceCd=220&Type=search", "url2": "http://cosmos.jinai.jp/" }, "geometry": { "type": "Point", "coordinates": [ 139.6178079, 35.4220441 ] } },
{ "type": "Feature", "properties": { "内容": "介護老人保健施設ひとりざわ【短期入所療養介護（介護老人保健施設）】神奈川県横浜市磯子区氷取沢町９３－１", "url": "https://www.kaigokensaku.mhlw.go.jp/14/index.php?action_kouhyou_detail_004_kani=true&JigyosyoCd=1450780023-00&ServiceCd=220&Type=search", "url2": "http://www.kokorocare.net/" }, "geometry": { "type": "Point", "coordinates": [ 139.6083069, 35.3639625 ] } },
{ "type": "Feature", "properties": { "内容": "介護老人保健施設ほのぼの【短期入所療養介護（介護老人保健施設）】神奈川県横浜市磯子区氷取沢町50番地", "url": "https://www.kaigokensaku.mhlw.go.jp/14/index.php?action_kouhyou_detail_004_kani=true&JigyosyoCd=1450780031-00&ServiceCd=220&Type=search", "url2": "https://rouken-honobono.jp/" }, "geometry": { "type": "Point", "coordinates": [ 139.6096956, 35.3655512 ] } },
{ "type": "Feature", "properties": { "内容": "介護老人保健施設ひとりざわ　ユニット館【短期入所療養介護（介護老人保健施設）】神奈川県横浜市磯子区氷取沢町93-1", "url": "https://www.kaigokensaku.mhlw.go.jp/14/index.php?action_kouhyou_detail_004_kani=true&JigyosyoCd=1450780049-00&ServiceCd=220&Type=search", "url2": "http://www.kokorocare.net/" }, "geometry": { "type": "Point", "coordinates": [ 139.6083069, 35.3639625 ] } },
{ "type": "Feature", "properties": { "内容": "医療法人光陽会　横浜磯子介護老人保健施設【短期入所療養介護（介護老人保健施設）】神奈川県横浜市磯子区森１－１６－３", "url": "https://www.kaigokensaku.mhlw.go.jp/14/index.php?action_kouhyou_detail_004_kani=true&JigyosyoCd=1450780015-00&ServiceCd=220&Type=search", "url2": "http://isogorouken.com/" }, "geometry": { "type": "Point", "coordinates": [ 139.614664, 35.3962226 ] } },
{ "type": "Feature", "properties": { "内容": "介護老人保健施設　こもれび【短期入所療養介護（介護老人保健施設）】神奈川県横浜市金沢区釜利谷東5-1-30", "url": "https://www.kaigokensaku.mhlw.go.jp/14/index.php?action_kouhyou_detail_004_kani=true&JigyosyoCd=1450880005-00&ServiceCd=220&Type=search", "url2": "http://www.keisuikai.or.jp/komorebi/" }, "geometry": { "type": "Point", "coordinates": [ 139.606284800000026, 35.350642 ] } },
{ "type": "Feature", "properties": { "内容": "医療法人社団景翠会　介護老人保健施設　ふるさと【短期入所療養介護（介護老人保健施設）】神奈川県横浜市金沢区柴町３９１－１０", "url": "https://www.kaigokensaku.mhlw.go.jp/14/index.php?action_kouhyou_detail_004_kani=true&JigyosyoCd=1450880039-00&ServiceCd=220&Type=search", "url2": "http://www.keisuikai.or.jp/furusato/" }, "geometry": { "type": "Point", "coordinates": [ 139.635485, 35.3425274 ] } },
{ "type": "Feature", "properties": { "内容": "介護老人保健施設ふるさとユニット館　彩【短期入所療養介護（介護老人保健施設）】神奈川県横浜市金沢区柴町391-10", "url": "https://www.kaigokensaku.mhlw.go.jp/14/index.php?action_kouhyou_detail_004_kani=true&JigyosyoCd=1450880047-00&ServiceCd=220&Type=search", "url2": "http://www.keisuikai.or.jp/furusato/" }, "geometry": { "type": "Point", "coordinates": [ 139.635485, 35.3425274 ] } },
{ "type": "Feature", "properties": { "内容": "介護老人保健施設　能見台パートリア【短期入所療養介護（介護老人保健施設）】神奈川県横浜市金沢区能見台東１０番１号", "url": "https://www.kaigokensaku.mhlw.go.jp/14/index.php?action_kouhyou_detail_004_kani=true&JigyosyoCd=1450880013-00&ServiceCd=220&Type=search", "url2": "https://www.kowakai-patria.com" }, "geometry": { "type": "Point", "coordinates": [ 139.624294299999974, 35.3575584 ] } },
{ "type": "Feature", "properties": { "内容": "介護老人保健施設　あさひな【短期入所療養介護（介護老人保健施設）】神奈川県横浜市金沢区朝比奈町107", "url": "https://www.kaigokensaku.mhlw.go.jp/14/index.php?action_kouhyou_detail_004_kani=true&JigyosyoCd=1450880021-00&ServiceCd=220&Type=search", "url2": "http://www.rouken-asahina.jp" }, "geometry": { "type": "Point", "coordinates": [ 139.591725, 35.3315187 ] } },
{ "type": "Feature", "properties": { "内容": "介護老人保健施設　ベルディーナ【短期入所療養介護（介護老人保健施設）】神奈川県横浜市港北区高田西3丁目１番12号", "url": "https://www.kaigokensaku.mhlw.go.jp/14/index.php?action_kouhyou_detail_004_kani=true&JigyosyoCd=1450980078-00&ServiceCd=220&Type=search", "url2": "https://kanagawa-chiga.jp/verdina/" }, "geometry": { "type": "Point", "coordinates": [ 139.6206895, 35.5538274 ] } },
{ "type": "Feature", "properties": { "内容": "介護老人保健施設ファイン新横浜【短期入所療養介護（介護老人保健施設）】神奈川県横浜市港北区新羽町１０４１－３", "url": "https://www.kaigokensaku.mhlw.go.jp/14/index.php?action_kouhyou_detail_004_kani=true&JigyosyoCd=1450980060-00&ServiceCd=220&Type=search", "url2": "http://takeuchikai.net/fine-shinyoko/" }, "geometry": { "type": "Point", "coordinates": [ 139.607152199999973, 35.5182102 ] } },
{ "type": "Feature", "properties": { "内容": "介護老人保健施設　ウェルケア新吉田【短期入所療養介護（介護老人保健施設）】神奈川県横浜市港北区新吉田町６０２８－１", "url": "https://www.kaigokensaku.mhlw.go.jp/14/index.php?action_kouhyou_detail_004_kani=true&JigyosyoCd=1450980011-00&ServiceCd=220&Type=search", "url2": "http://www.welcare.or.jp/" }, "geometry": { "type": "Point", "coordinates": [ 139.603579699999955, 35.5391995 ] } },
{ "type": "Feature", "properties": { "内容": "新横浜介護老人保健施設　カメリア【短期入所療養介護（介護老人保健施設）】神奈川県横浜市港北区新羽町4076-5", "url": "https://www.kaigokensaku.mhlw.go.jp/14/index.php?action_kouhyou_detail_004_kani=true&JigyosyoCd=1450980029-00&ServiceCd=220&Type=search", "url2": "http://www.camellia-kanei.or.jp/" }, "geometry": { "type": "Point", "coordinates": [ 139.601935799999978, 35.5293201 ] } },
{ "type": "Feature", "properties": { "内容": "医療法人社団哺育会　介護老人保健施設　ナーシングプラザ港北【短期入所療養介護（介護老人保健施設）】神奈川県横浜市港北区新吉田町３１７０番地", "url": "https://www.kaigokensaku.mhlw.go.jp/14/index.php?action_kouhyou_detail_004_kani=true&JigyosyoCd=1450980045-00&ServiceCd=220&Type=search", "url2": "https://www.np-kouhoku.jp" }, "geometry": { "type": "Point", "coordinates": [ 139.606396200000063, 35.5345696 ] } },
{ "type": "Feature", "properties": { "内容": "横浜市総合保健医療センター【短期入所療養介護（介護老人保健施設）】神奈川県横浜市港北区鳥山町1735", "url": "https://www.kaigokensaku.mhlw.go.jp/14/index.php?action_kouhyou_detail_004_kani=true&JigyosyoCd=1470902592-00&ServiceCd=220&Type=search", "url2": "https://yccc.jp/care/shirasagi/" }, "geometry": { "type": "Point", "coordinates": [ 139.609216100000026, 35.5097694 ] } },
{ "type": "Feature", "properties": { "内容": "介護老人保健施設　ソフィア横浜【短期入所療養介護（介護老人保健施設）】神奈川県横浜市戸塚区東俣野町９１１", "url": "https://www.kaigokensaku.mhlw.go.jp/14/index.php?action_kouhyou_detail_004_kani=true&JigyosyoCd=1451080001-00&ServiceCd=220&Type=search", "url2": "http://www.sophia-pma.jp/" }, "geometry": { "type": "Point", "coordinates": [ 139.492585700000063, 35.3643645 ] } },
{ "type": "Feature", "properties": { "内容": "介護老人保健施設　ヒューマンライフケア横浜【短期入所療養介護（介護老人保健施設）】神奈川県横浜市戸塚区戸塚町1800-3", "url": "https://www.kaigokensaku.mhlw.go.jp/14/index.php?action_kouhyou_detail_004_kani=true&JigyosyoCd=1451080019-00&ServiceCd=220&Type=search", "url2": "https://www.hlc-yokohama.com/" }, "geometry": { "type": "Point", "coordinates": [ 139.517219599999976, 35.3819621 ] } },
{ "type": "Feature", "properties": { "内容": "介護老人保健施設　グリーンワーフ東戸塚【短期入所療養介護（介護老人保健施設）】神奈川県横浜市戸塚区川上町１５１", "url": "https://www.kaigokensaku.mhlw.go.jp/14/index.php?action_kouhyou_detail_004_kani=true&JigyosyoCd=1451080027-00&ServiceCd=220&Type=search", "url2": "http://www.greenwharf.com/" }, "geometry": { "type": "Point", "coordinates": [ 139.55243059999998, 35.4282922 ] } },
{ "type": "Feature", "properties": { "内容": "医療法人社団協友会　介護老人保健施設　ハートケア横浜小雀【短期入所療養介護（介護老人保健施設）】神奈川県横浜市戸塚区小雀町２２４８－１", "url": "https://www.kaigokensaku.mhlw.go.jp/14/index.php?action_kouhyou_detail_004_kani=true&JigyosyoCd=1451080035-00&ServiceCd=220&Type=search", "url2": "https://www.hc-kosuzume.jp/" }, "geometry": { "type": "Point", "coordinates": [ 139.505926199999976, 35.3717219 ] } },
{ "type": "Feature", "properties": { "内容": "医療法人積愛会　千の星・よこはま【短期入所療養介護（介護老人保健施設）】神奈川県横浜市戸塚区柏尾町１４３４－３", "url": "https://www.kaigokensaku.mhlw.go.jp/14/index.php?action_kouhyou_detail_004_kani=true&JigyosyoCd=1451080076-00&ServiceCd=220&Type=search", "url2": "https://www.y-maiokahp.or.jp/sennohoshi-y/" }, "geometry": { "type": "Point", "coordinates": [ 139.552556, 35.4112753 ] } },
{ "type": "Feature", "properties": { "内容": "介護老人保健施設　うららの里【短期入所療養介護（介護老人保健施設）】神奈川県横浜市戸塚区深谷町１４１２－１１", "url": "https://www.kaigokensaku.mhlw.go.jp/14/index.php?action_kouhyou_detail_004_kani=true&JigyosyoCd=1451080050-00&ServiceCd=220&Type=search", "url2": "https://www.kenyoukai.or.jp/urara/" }, "geometry": { "type": "Point", "coordinates": [ 139.494713300000058, 35.3895831 ] } },
{ "type": "Feature", "properties": { "内容": "介護老人保健施設　ヒルズ東戸塚【短期入所療養介護（介護老人保健施設）】神奈川県横浜市戸塚区上品濃１６番地７", "url": "https://www.kaigokensaku.mhlw.go.jp/14/index.php?action_kouhyou_detail_004_kani=true&JigyosyoCd=1451080068-00&ServiceCd=220&Type=search", "url2": "http://www.fureai-g.or.jp/hills/" }, "geometry": { "type": "Point", "coordinates": [ 139.547519700000066, 35.4388102 ] } },
{ "type": "Feature", "properties": { "内容": "介護老人保健施設リハパーク舞岡【短期入所療養介護（介護老人保健施設）】神奈川県横浜市戸塚区舞岡町3048-4", "url": "https://www.kaigokensaku.mhlw.go.jp/14/index.php?action_kouhyou_detail_004_kani=true&JigyosyoCd=1451080084-00&ServiceCd=220&Type=search", "url2": "https://www.shinzen-fukushi.jp/rehapark/" }, "geometry": { "type": "Point", "coordinates": [ 139.5545783, 35.404893 ] } },
{ "type": "Feature", "properties": { "内容": "介護老人保健施設　横浜莫愁苑【短期入所療養介護（介護老人保健施設）】神奈川県横浜市戸塚区名瀬町2226-1", "url": "https://www.kaigokensaku.mhlw.go.jp/14/index.php?action_kouhyou_detail_004_kani=true&JigyosyoCd=1451080095-00&ServiceCd=220&Type=search", "url2": "https://lion-heart.co/shops/geriatric_health_yokohama_bakusyuen/" }, "geometry": { "type": "Point", "coordinates": [ 139.5289074, 35.4330021 ] } },
{ "type": "Feature", "properties": { "内容": "介護老人保健施設すこやか【短期入所療養介護（介護老人保健施設）】神奈川県横浜市港南区下永谷5-81-18", "url": "https://www.kaigokensaku.mhlw.go.jp/14/index.php?action_kouhyou_detail_004_kani=true&JigyosyoCd=1453180015-00&ServiceCd=220&Type=search", "url2": "http://www.meikakai-sukoyaka.jp/" }, "geometry": { "type": "Point", "coordinates": [ 139.560658200000034, 35.4103866 ] } },
{ "type": "Feature", "properties": { "内容": "介護老人保健施設　オアシス【短期入所療養介護（介護老人保健施設）】神奈川県横浜市港南区野庭町146番地1", "url": "https://www.kaigokensaku.mhlw.go.jp/14/index.php?action_kouhyou_detail_004_kani=true&JigyosyoCd=1453180023-00&ServiceCd=220&Type=search", "url2": "https://www.koufuukai.or.jp/" }, "geometry": { "type": "Point", "coordinates": [ 139.575498700000026, 35.3976411 ] } },
{ "type": "Feature", "properties": { "内容": "介護老人保健施設　港南あおぞら【短期入所療養介護（介護老人保健施設）】神奈川県横浜市港南区野庭町２１８７－１", "url": "https://www.kaigokensaku.mhlw.go.jp/14/index.php?action_kouhyou_detail_004_kani=true&JigyosyoCd=1453180007-00&ServiceCd=220&Type=search", "url2": "http://www.himawarifukushi.or.jp/k-aozora/" }, "geometry": { "type": "Point", "coordinates": [ 139.5609111, 35.3816875 ] } },
{ "type": "Feature", "properties": { "内容": "介護老人保健施設　グリーンリーブズ赤枝【短期入所療養介護（介護老人保健施設）】神奈川県横浜市旭区上川井町2694-7", "url": "https://www.kaigokensaku.mhlw.go.jp/14/index.php?action_kouhyou_detail_004_kani=true&JigyosyoCd=1453280005-00&ServiceCd=220&Type=search", "url2": "http://www.akaedakai.com/green/index.html" }, "geometry": { "type": "Point", "coordinates": [ 139.500389, 35.5017591 ] } },
{ "type": "Feature", "properties": { "内容": "介護老人保健施設　けいあいの郷　今宿【短期入所療養介護（介護老人保健施設）】神奈川県横浜市旭区今宿東町525-2", "url": "https://www.kaigokensaku.mhlw.go.jp/14/index.php?action_kouhyou_detail_004_kani=true&JigyosyoCd=1453280039-00&ServiceCd=220&Type=search", "url2": "https://keiainosato-imajyuku.jp/" }, "geometry": { "type": "Point", "coordinates": [ 139.53281770000001, 35.4869849 ] } },
{ "type": "Feature", "properties": { "内容": "介護老人保健施設　四季の森【短期入所療養介護（介護老人保健施設）】神奈川県横浜市旭区上白根町778-1", "url": "https://www.kaigokensaku.mhlw.go.jp/14/index.php?action_kouhyou_detail_004_kani=true&JigyosyoCd=1453280054-00&ServiceCd=220&Type=search", "url2": "http://www.shikinomori-keiai.jp" }, "geometry": { "type": "Point", "coordinates": [ 139.53836130000002, 35.4998251 ] } },
{ "type": "Feature", "properties": { "内容": "医療法人社団協友会介護老人保健施設　ハートケア左近山【短期入所療養介護（介護老人保健施設）】神奈川県横浜市旭区市沢町971-1", "url": "https://www.kaigokensaku.mhlw.go.jp/14/index.php?action_kouhyou_detail_004_kani=true&JigyosyoCd=1453280062-00&ServiceCd=220&Type=search", "url2": "https://hcsakonyama.jp/" }, "geometry": { "type": "Point", "coordinates": [ 139.56110190000004, 35.4543613 ] } },
{ "type": "Feature", "properties": { "内容": "介護老人保健施設　ほほえみの郷横浜【短期入所療養介護（介護老人保健施設）】神奈川県横浜市旭区下川井町２２０－１", "url": "https://www.kaigokensaku.mhlw.go.jp/14/index.php?action_kouhyou_detail_004_kani=true&JigyosyoCd=1453280120-00&ServiceCd=220&Type=search", "url2": "https://www.hohoemi-sato.com" }, "geometry": { "type": "Point", "coordinates": [ 139.51689680000004, 35.4848128 ] } },
{ "type": "Feature", "properties": { "内容": "介護老人保健施設　ナーシングピア横浜【短期入所療養介護（介護老人保健施設）】神奈川県横浜市旭区南本宿１１８－１９", "url": "https://www.kaigokensaku.mhlw.go.jp/14/index.php?action_kouhyou_detail_004_kani=true&JigyosyoCd=1453280161-00&ServiceCd=220&Type=search", "url2": "https://ns-pia.jp/" }, "geometry": { "type": "Point", "coordinates": [ 139.54579050000001, 35.45233 ] } },
{ "type": "Feature", "properties": { "内容": "医療法人社団恵生会　介護老人保健施設　リハセンターさわやか【短期入所療養介護（介護老人保健施設）】神奈川県横浜市旭区白根町932-1", "url": "https://www.kaigokensaku.mhlw.go.jp/14/index.php?action_kouhyou_detail_004_kani=true&JigyosyoCd=1453280021-00&ServiceCd=220&Type=search", "url2": "https://www.med-keiseikai.or.jp/riha/" }, "geometry": { "type": "Point", "coordinates": [ 139.548932599999944, 35.4984558 ] } },
{ "type": "Feature", "properties": { "内容": "介護老人保健施設　希望の森【短期入所療養介護（介護老人保健施設）】神奈川県横浜市旭区上川井２９６８－２", "url": "https://www.kaigokensaku.mhlw.go.jp/14/index.php?action_kouhyou_detail_004_kani=true&JigyosyoCd=1453280138-00&ServiceCd=220&Type=search", "url2": "https://kibouno-mori.com/" }, "geometry": { "type": "Point", "coordinates": [ 139.507113600000025, 35.50011 ] } },
{ "type": "Feature", "properties": { "内容": "介護老人保健施設ケアホーム横浜【短期入所療養介護（介護老人保健施設）】神奈川県横浜市旭区上白根町1436-1", "url": "https://www.kaigokensaku.mhlw.go.jp/14/index.php?action_kouhyou_detail_004_kani=true&JigyosyoCd=1453280179-00&ServiceCd=220&Type=search", "url2": "https://yokohama.rouken.jp" }, "geometry": { "type": "Point", "coordinates": [ 139.527075599999989, 35.5006089 ] } },
{ "type": "Feature", "properties": { "内容": "介護老人保健施設シオンよこはま【短期入所療養介護（介護老人保健施設）】神奈川県横浜市旭区川井宿町168-1", "url": "https://www.kaigokensaku.mhlw.go.jp/14/index.php?action_kouhyou_detail_004_kani=true&JigyosyoCd=1453280153-00&ServiceCd=220&Type=search", "url2": "http://rehabili-park.com/sisetu/shion" }, "geometry": { "type": "Point", "coordinates": [ 139.5157513, 35.4976685 ] } },
{ "type": "Feature", "properties": { "内容": "介護老人保健施設みどりの杜【短期入所療養介護（介護老人保健施設）】神奈川県横浜市緑区西八朔町99-1", "url": "https://www.kaigokensaku.mhlw.go.jp/14/index.php?action_kouhyou_detail_004_kani=true&JigyosyoCd=1453380011-00&ServiceCd=220&Type=search", "url2": "http://www.midorinokaze.biz" }, "geometry": { "type": "Point", "coordinates": [ 139.5313701, 35.5267968 ] } },
{ "type": "Feature", "properties": { "内容": "医療法人社団　三喜会　介護老人保健施設　ライフプラザ新緑【短期入所療養介護（介護老人保健施設）】神奈川県横浜市緑区長津田町5708", "url": "https://www.kaigokensaku.mhlw.go.jp/14/index.php?action_kouhyou_detail_004_kani=true&JigyosyoCd=1453380029-00&ServiceCd=220&Type=search", "url2": "https://www.sankikai.or.jp/life-shinmidori/" }, "geometry": { "type": "Point", "coordinates": [ 139.482561799999985, 35.5120419 ] } },
{ "type": "Feature", "properties": { "内容": "介護老人保健施設フォーシーズンズヴィラいろどり【短期入所療養介護（介護老人保健施設）】神奈川県横浜市緑区三保町867", "url": "https://www.kaigokensaku.mhlw.go.jp/14/index.php?action_kouhyou_detail_004_kani=true&JigyosyoCd=1453380045-00&ServiceCd=220&Type=search", "url2": "http://www.4seasons-v.jp/facilities/irodori.html" }, "geometry": { "type": "Point", "coordinates": [ 139.523593, 35.5069464 ] } },
{ "type": "Feature", "properties": { "内容": "介護老人保健施設　葵の園・ヨコハマ【短期入所療養介護（介護老人保健施設）】神奈川県横浜市緑区三保町１１８２", "url": "https://www.kaigokensaku.mhlw.go.jp/14/index.php?action_kouhyou_detail_004_kani=true&JigyosyoCd=1453380052-00&ServiceCd=220&Type=search", "url2": "https://www.aoikai.jp/yokohama/" }, "geometry": { "type": "Point", "coordinates": [ 139.5211266, 35.5111959 ] } },
{ "type": "Feature", "properties": { "内容": "医療法人社団桜栄会　横浜セラトピア【短期入所療養介護（介護老人保健施設）】神奈川県横浜市緑区北八朔町１３２３", "url": "https://www.kaigokensaku.mhlw.go.jp/14/index.php?action_kouhyou_detail_004_kani=true&JigyosyoCd=1453380037-00&ServiceCd=220&Type=search", "url2": "https://www.oueikai.or.jp/" }, "geometry": { "type": "Point", "coordinates": [ 139.5410554, 35.5252331 ] } },
{ "type": "Feature", "properties": { "内容": "介護老人保健施設　葵の園・ヨコハマ瀬谷【短期入所療養介護（介護老人保健施設）】神奈川県横浜市瀬谷区阿久和西3丁目51番6", "url": "https://www.kaigokensaku.mhlw.go.jp/14/index.php?action_kouhyou_detail_004_kani=true&JigyosyoCd=1453480053-00&ServiceCd=220&Type=search", "url2": "https://www.aoikai.jp/yokohamaseya/" }, "geometry": { "type": "Point", "coordinates": [ 139.4944243, 35.4497295 ] } },
{ "type": "Feature", "properties": { "内容": "介護老人保健施設　恵の杜【短期入所療養介護（介護老人保健施設）】神奈川県横浜市瀬谷区阿久和南3-29-1", "url": "https://www.kaigokensaku.mhlw.go.jp/14/index.php?action_kouhyou_detail_004_kani=true&JigyosyoCd=1453480027-00&ServiceCd=220&Type=search", "url2": "http://www.keisei-fukushikai.com" }, "geometry": { "type": "Point", "coordinates": [ 139.504320799999959, 35.4375381 ] } },
{ "type": "Feature", "properties": { "内容": "医療法人社団善仁会　介護老人保健施設　ハートフル瀬谷【短期入所療養介護（介護老人保健施設）】神奈川県横浜市瀬谷区中屋敷2-2-1", "url": "https://www.kaigokensaku.mhlw.go.jp/14/index.php?action_kouhyou_detail_004_kani=true&JigyosyoCd=1453480035-00&ServiceCd=220&Type=search", "url2": "https://www.zenjinkai-group.jp/zenjinkai/care_center/heartful/" }, "geometry": { "type": "Point", "coordinates": [ 139.4790491, 35.4804455 ] } },
{ "type": "Feature", "properties": { "内容": "介護老人保健施設　宮沢の里　はなもも苑【短期入所療養介護（介護老人保健施設）】神奈川県横浜市瀬谷区宮沢４－１３－１", "url": "https://www.kaigokensaku.mhlw.go.jp/14/index.php?action_kouhyou_detail_004_kani=true&JigyosyoCd=1453480001-00&ServiceCd=220&Type=search", "url2": "https://hanamomoen.jp/" }, "geometry": { "type": "Point", "coordinates": [ 139.488932640066054, 35.447840019999298 ] } },
{ "type": "Feature", "properties": { "内容": "医療法人社団協友会　介護老人保健施設　リハビリポート横浜【短期入所療養介護（介護老人保健施設）】神奈川県横浜市栄区公田町1050－2", "url": "https://www.kaigokensaku.mhlw.go.jp/14/index.php?action_kouhyou_detail_004_kani=true&JigyosyoCd=1453580032-00&ServiceCd=220&Type=search", "url2": "http://www.rp-yokohama.jp" }, "geometry": { "type": "Point", "coordinates": [ 139.561780499999941, 35.3499079 ] } },
{ "type": "Feature", "properties": { "内容": "医療法人社団協友会　介護老人保健施設　リハビリポート横浜【短期入所療養介護（介護老人保健施設）】神奈川県横浜市栄区公田町1050-2リハビリポート横浜", "url": "https://www.kaigokensaku.mhlw.go.jp/14/index.php?action_kouhyou_detail_004_kani=true&JigyosyoCd=1453580001-00&ServiceCd=220&Type=search", "url2": "https://rp-yokohama.jp/" }, "geometry": { "type": "Point", "coordinates": [ 139.561780499999941, 35.3499079 ] } },
{ "type": "Feature", "properties": { "内容": "湘南グリーン介護老人保健施設　上郷【短期入所療養介護（介護老人保健施設）】神奈川県横浜市栄区上郷町１０４５－１", "url": "https://www.kaigokensaku.mhlw.go.jp/14/index.php?action_kouhyou_detail_004_kani=true&JigyosyoCd=1453580016-00&ServiceCd=220&Type=search", "url2": "https://soukoukai.jp/pages/34/" }, "geometry": { "type": "Point", "coordinates": [ 139.578587299999981, 35.3566516 ] } },
{ "type": "Feature", "properties": { "内容": "湘南グリーン介護老人保健施設　上郷（ユニット型）【短期入所療養介護（介護老人保健施設）】神奈川県横浜市栄区上郷町１０４５－１", "url": "https://www.kaigokensaku.mhlw.go.jp/14/index.php?action_kouhyou_detail_004_kani=true&JigyosyoCd=1453580040-00&ServiceCd=220&Type=search", "url2": "http://soukoukai.jp/pages/34/" }, "geometry": { "type": "Point", "coordinates": [ 139.578465100000017, 35.3567016 ] } },
{ "type": "Feature", "properties": { "内容": "ケアポート・田谷【短期入所療養介護（介護老人保健施設）】神奈川県横浜市栄区田谷町２０３０－３", "url": "https://www.kaigokensaku.mhlw.go.jp/14/index.php?action_kouhyou_detail_004_kani=true&JigyosyoCd=1453585008-00&ServiceCd=220&Type=search", "url2": "https://careport-taya.synology.me/webtest/" }, "geometry": { "type": "Point", "coordinates": [ 139.517425199999934, 35.3726746 ] } },
{ "type": "Feature", "properties": { "内容": "介護老人保健施設　阿久和鳳荘【短期入所療養介護（介護老人保健施設）】神奈川県横浜市泉区新橋町１７８３", "url": "https://www.kaigokensaku.mhlw.go.jp/14/index.php?action_kouhyou_detail_004_kani=true&JigyosyoCd=1453680006-00&ServiceCd=220&Type=search", "url2": "http://www.hoyukai.org/ootori/" }, "geometry": { "type": "Point", "coordinates": [ 139.511267299999986, 35.4423986 ] } },
{ "type": "Feature", "properties": { "内容": "介護老人保健施設　やよい台仁【短期入所療養介護（介護老人保健施設）】神奈川県横浜市泉区弥生台５５－５５", "url": "https://www.kaigokensaku.mhlw.go.jp/14/index.php?action_kouhyou_detail_004_kani=true&JigyosyoCd=1453680030-00&ServiceCd=220&Type=search", "url2": "http://www.keiseikai-med.jp/group/yayoidai-jin/" }, "geometry": { "type": "Point", "coordinates": [ 139.503479199999987, 35.4260839 ] } },
{ "type": "Feature", "properties": { "内容": "介護老人保健施設ゆめが丘【短期入所療養介護（介護老人保健施設）】神奈川県横浜市泉区和泉町1202", "url": "https://www.kaigokensaku.mhlw.go.jp/14/index.php?action_kouhyou_detail_004_kani=true&JigyosyoCd=1453680071-00&ServiceCd=220&Type=search", "url2": "https://www.rou-yumegaoka.jp/" }, "geometry": { "type": "Point", "coordinates": [ 139.486547800000011, 35.3994631 ] } },
{ "type": "Feature", "properties": { "内容": "横浜いずみ介護老人保健施設【短期入所療養介護（介護老人保健施設）】神奈川県横浜市泉区上飯田町３８７３－１", "url": "https://www.kaigokensaku.mhlw.go.jp/14/index.php?action_kouhyou_detail_004_kani=true&JigyosyoCd=1453680022-00&ServiceCd=220&Type=search", "url2": "https://izumidai.net/izurou" }, "geometry": { "type": "Point", "coordinates": [ 139.483672500000011, 35.4311387 ] } },
{ "type": "Feature", "properties": { "内容": "医療法人社団　純正会　介護老人保健施設　エスポワール和泉【短期入所療養介護（介護老人保健施設）】神奈川県横浜市泉区和泉町2604-1", "url": "https://www.kaigokensaku.mhlw.go.jp/14/index.php?action_kouhyou_detail_004_kani=true&JigyosyoCd=1453680048-00&ServiceCd=220&Type=search", "url2": "https://www.esp-izumi.com/" }, "geometry": { "type": "Point", "coordinates": [ 139.4901109, 35.4074917 ] } },
{ "type": "Feature", "properties": { "内容": "介護老人保健施設　きららの里【短期入所療養介護（介護老人保健施設）】神奈川県横浜市泉区中田町3462-4", "url": "https://www.kaigokensaku.mhlw.go.jp/14/index.php?action_kouhyou_detail_004_kani=true&JigyosyoCd=1453680055-00&ServiceCd=220&Type=search", "url2": "https://www.kenyoukai.or.jp" }, "geometry": { "type": "Point", "coordinates": [ 139.502101499999981, 35.4249979 ] } },
{ "type": "Feature", "properties": { "内容": "介護老人保健施設　青葉の丘【短期入所療養介護（介護老人保健施設）】神奈川県横浜市青葉区元石川町６５６８", "url": "https://www.kaigokensaku.mhlw.go.jp/14/index.php?action_kouhyou_detail_004_kani=true&JigyosyoCd=1453780012-00&ServiceCd=220&Type=search", "url2": "https://www.aobanooka.com/" }, "geometry": { "type": "Point", "coordinates": [ 139.537545200000068, 35.5834421 ] } },
{ "type": "Feature", "properties": { "内容": "介護老人保健施設　横浜シルバープラザ【短期入所療養介護（介護老人保健施設）】神奈川県横浜市青葉区鉄町2075番地5", "url": "https://www.kaigokensaku.mhlw.go.jp/14/index.php?action_kouhyou_detail_004_kani=true&JigyosyoCd=1453780053-00&ServiceCd=220&Type=search", "url2": "https://www.silverplaza.jp/" }, "geometry": { "type": "Point", "coordinates": [ 139.526424300000031, 35.5687271 ] } },
{ "type": "Feature", "properties": { "内容": "医療法人　社団協友会　介護老人保健施設　横浜あおばの里【短期入所療養介護（介護老人保健施設）】神奈川県横浜市青葉区鉄町１３７５", "url": "https://www.kaigokensaku.mhlw.go.jp/14/index.php?action_kouhyou_detail_004_kani=true&JigyosyoCd=1453780020-00&ServiceCd=220&Type=search", "url2": "http://www.aobanosato.com/" }, "geometry": { "type": "Point", "coordinates": [ 139.524758099999985, 35.5635917 ] } },
{ "type": "Feature", "properties": { "内容": "介護老人保健施設　リハリゾート青葉【短期入所療養介護（介護老人保健施設）】神奈川県横浜市青葉区奈良4-6-13", "url": "https://www.kaigokensaku.mhlw.go.jp/14/index.php?action_kouhyou_detail_004_kani=true&JigyosyoCd=1453780046-00&ServiceCd=220&Type=search", "url2": "https://wakatake.net/" }, "geometry": { "type": "Point", "coordinates": [ 139.48268250000001, 35.5504997 ] } },
{ "type": "Feature", "properties": { "内容": "介護老人保健施設　リハリゾート青葉　ユニット館【短期入所療養介護（介護老人保健施設）】神奈川県横浜市青葉区奈良４－６－１３", "url": "https://www.kaigokensaku.mhlw.go.jp/14/index.php?action_kouhyou_detail_004_kani=true&JigyosyoCd=1453780061-00&ServiceCd=220&Type=search", "url2": "http://wakatake.net/" }, "geometry": { "type": "Point", "coordinates": [ 139.48268250000001, 35.5504997 ] } },
{ "type": "Feature", "properties": { "内容": "介護老人保健施設プラチナ・ヴィラ青葉台【短期入所療養介護（介護老人保健施設）】神奈川県横浜市青葉区鴨志田町75-1", "url": "https://www.kaigokensaku.mhlw.go.jp/14/index.php?action_kouhyou_detail_004_kani=true&JigyosyoCd=1453780072-00&ServiceCd=220&Type=search", "url2": "https://www.platinum-villa.jp" }, "geometry": { "type": "Point", "coordinates": [ 139.5116956, 35.5603238 ] } },
{ "type": "Feature", "properties": { "内容": "横浜茅ヶ崎老人保健施設【短期入所療養介護（介護老人保健施設）】神奈川県横浜市都筑区茅ケ崎東５－８－７", "url": "https://www.kaigokensaku.mhlw.go.jp/14/index.php?action_kouhyou_detail_004_kani=true&JigyosyoCd=1453880010-00&ServiceCd=220&Type=search", "url2": "http://www.kyouwakai.or.jp/" }, "geometry": { "type": "Point", "coordinates": [ 139.584159499999942, 35.5474061 ] } },
{ "type": "Feature", "properties": { "内容": "医療法人　健水会　荏田介護老人保健施設　あすなろ【短期入所療養介護（介護老人保健施設）】神奈川県横浜市都筑区荏田南町4247", "url": "https://www.kaigokensaku.mhlw.go.jp/14/index.php?action_kouhyou_detail_004_kani=true&JigyosyoCd=1450980052-00&ServiceCd=220&Type=search", "url2": "http://www.kensuikai-asunaro.or.jp" }, "geometry": { "type": "Point", "coordinates": [ 139.565044299999954, 35.5553102 ] } },
{ "type": "Feature", "properties": { "内容": "介護老人保健施設　都筑シニアセンター【短期入所療養介護（介護老人保健施設）】神奈川県横浜市都筑区東山田町1357", "url": "https://www.kaigokensaku.mhlw.go.jp/14/index.php?action_kouhyou_detail_004_kani=true&JigyosyoCd=1453880002-00&ServiceCd=220&Type=search", "url2": "http://www.tuduki-senior-c.com" }, "geometry": { "type": "Point", "coordinates": [ 139.603840200000036, 35.5600988 ] } },
{ "type": "Feature", "properties": { "内容": "介護老人保健施設　都筑ハートフルステーション【短期入所療養介護（介護老人保健施設）】神奈川県横浜市都筑区大棚町７４－９", "url": "https://www.kaigokensaku.mhlw.go.jp/14/index.php?action_kouhyou_detail_004_kani=true&JigyosyoCd=1453880028-00&ServiceCd=220&Type=search", "url2": "https://www.katsujinkai.org/heartful/" }, "geometry": { "type": "Point", "coordinates": [ 139.597396900000035, 35.5492533 ] } },
{ "type": "Feature", "properties": { "内容": "介護老人保健施設　若葉が丘【短期入所療養介護（介護老人保健施設）】神奈川県横浜市都筑区川和町２６７４－１", "url": "https://www.kaigokensaku.mhlw.go.jp/14/index.php?action_kouhyou_detail_004_kani=true&JigyosyoCd=1453880036-00&ServiceCd=220&Type=search", "url2": "http://www.e-wakaba.jp/" }, "geometry": { "type": "Point", "coordinates": [ 139.548143500000037, 35.5384399 ] } },
{ "type": "Feature", "properties": { "内容": "医療法人　健水会　荏田介護老人保健施設　あすなろユニット館【短期入所療養介護（介護老人保健施設）】神奈川県横浜市都筑区荏田南町4247", "url": "https://www.kaigokensaku.mhlw.go.jp/14/index.php?action_kouhyou_detail_004_kani=true&JigyosyoCd=1453880069-00&ServiceCd=220&Type=search", "url2": "http://www.kensuikai-asunaro.or.jp" }, "geometry": { "type": "Point", "coordinates": [ 139.565044299999954, 35.5553102 ] } },
{ "type": "Feature", "properties": { "内容": "ソフィア都筑【短期入所療養介護（介護老人保健施設）】神奈川県横浜市都筑区中川1丁目1番地1", "url": "https://www.kaigokensaku.mhlw.go.jp/14/index.php?action_kouhyou_detail_004_kani=true&JigyosyoCd=1453880051-00&ServiceCd=220&Type=search", "url2": "https://www.sophia-pma.jp/pages/41/" }, "geometry": { "type": "Point", "coordinates": [ 139.569635299999959, 35.5630037 ] } },
{ "type": "Feature", "properties": { "内容": "医療法人社団　朝菊会　介護老人保健施設　ヒルトップ池辺【短期入所療養介護（介護老人保健施設）】神奈川県横浜市都筑区池辺町２２１８", "url": "https://www.kaigokensaku.mhlw.go.jp/14/index.php?action_kouhyou_detail_004_kani=true&JigyosyoCd=1453880044-00&ServiceCd=220&Type=search", "url2": "https://itofukushikai.com/" }, "geometry": { "type": "Point", "coordinates": [ 139.56906129999993, 35.5267 ] } },
{ "type": "Feature", "properties": { "内容": "介護老人保健施設葵の園・川崎【短期入所療養介護（介護老人保健施設）】神奈川県川崎市川崎区小田栄2-1-6", "url": "https://www.kaigokensaku.mhlw.go.jp/14/index.php?action_kouhyou_detail_004_kani=true&JigyosyoCd=1455080015-00&ServiceCd=220&Type=search", "url2": "https://www.aoikai.jp/kawasaki/" }, "geometry": { "type": "Point", "coordinates": [ 139.709287200000063, 35.5126026 ] } },
{ "type": "Feature", "properties": { "内容": "介護老人保健施設　葵の園・川崎（ユニット）【短期入所療養介護（介護老人保健施設）】神奈川県川崎市川崎区小田栄2-1-6", "url": "https://www.kaigokensaku.mhlw.go.jp/14/index.php?action_kouhyou_detail_004_kani=true&JigyosyoCd=1455080023-00&ServiceCd=220&Type=search", "url2": "https://www.aoikai.jp/kawasaki/" }, "geometry": { "type": "Point", "coordinates": [ 139.709287200000063, 35.5126026 ] } },
{ "type": "Feature", "properties": { "内容": "介護老人保健施設　葵の園・川崎南部【短期入所療養介護（介護老人保健施設）】神奈川県川崎市川崎区田町2-9-2", "url": "https://www.kaigokensaku.mhlw.go.jp/14/index.php?action_kouhyou_detail_004_kani=true&JigyosyoCd=1455080031-00&ServiceCd=220&Type=search", "url2": "http://www.aoikai.jp/kawasakinanbu/" }, "geometry": { "type": "Point", "coordinates": [ 139.746108899999967, 35.5343032 ] } },
{ "type": "Feature", "properties": { "内容": "介護老人保健施設　幸正の苑【短期入所療養介護（介護老人保健施設）】神奈川県川崎市幸区小倉2-30-13", "url": "https://www.kaigokensaku.mhlw.go.jp/14/index.php?action_kouhyou_detail_004_kani=true&JigyosyoCd=1455180005-00&ServiceCd=220&Type=search", "url2": "http://www.kurita-hp.com/" }, "geometry": { "type": "Point", "coordinates": [ 139.669015, 35.5398606 ] } },
{ "type": "Feature", "properties": { "内容": "介護老人保健施設　千の風・川崎【短期入所療養介護（介護老人保健施設）】神奈川県川崎市幸区小向町15-25", "url": "https://www.kaigokensaku.mhlw.go.jp/14/index.php?action_kouhyou_detail_004_kani=true&JigyosyoCd=1455180013-00&ServiceCd=220&Type=search", "url2": "http://www.kenjin.or.jp/sennokaze/kawasaki/index.html" }, "geometry": { "type": "Point", "coordinates": [ 139.6959872, 35.547895 ] } },
{ "type": "Feature", "properties": { "内容": "介護老人保健施設　葵の園・武蔵小杉【短期入所療養介護（介護老人保健施設）】神奈川県川崎市中原区今井西町2-58", "url": "https://www.kaigokensaku.mhlw.go.jp/14/index.php?action_kouhyou_detail_004_kani=true&JigyosyoCd=1455280011-00&ServiceCd=220&Type=search", "url2": "https://www.aoikai.jp/musashikosugi/" }, "geometry": { "type": "Point", "coordinates": [ 139.6482542, 35.5767655 ] } },
{ "type": "Feature", "properties": { "内容": "介護老人保健施設　たかつ【短期入所療養介護（介護老人保健施設）】神奈川県川崎市高津区子母口４９８－２", "url": "https://www.kaigokensaku.mhlw.go.jp/14/index.php?action_kouhyou_detail_004_kani=true&JigyosyoCd=1455380001-00&ServiceCd=220&Type=search", "url2": "https://sounkai.com" }, "geometry": { "type": "Point", "coordinates": [ 139.6324727, 35.5724079 ] } },
{ "type": "Feature", "properties": { "内容": "介護老人保健施設　樹の丘【短期入所療養介護（介護老人保健施設）】神奈川県川崎市高津区久地4-19-1", "url": "https://www.kaigokensaku.mhlw.go.jp/14/index.php?action_kouhyou_detail_004_kani=true&JigyosyoCd=1455380019-00&ServiceCd=220&Type=search", "url2": null }, "geometry": { "type": "Point", "coordinates": [ 139.593566635581965, 35.609135546150284 ] } },
{ "type": "Feature", "properties": { "内容": "介護老人保健施設　ベルサンテ【短期入所療養介護（介護老人保健施設）】神奈川県川崎市高津区久末703-4", "url": "https://www.kaigokensaku.mhlw.go.jp/14/index.php?action_kouhyou_detail_004_kani=true&JigyosyoCd=1455380035-00&ServiceCd=220&Type=search", "url2": "https://belsante.or.jp/" }, "geometry": { "type": "Point", "coordinates": [ 139.618798888052424, 35.569721333025008 ] } },
{ "type": "Feature", "properties": { "内容": "介護老人保健施設　ゆい【短期入所療養介護（介護老人保健施設）】神奈川県川崎市高津区新作3-7-1", "url": "https://www.kaigokensaku.mhlw.go.jp/14/index.php?action_kouhyou_detail_004_kani=true&JigyosyoCd=1455380027-00&ServiceCd=220&Type=search", "url2": "https://www.kaigo-yui.jp/" }, "geometry": { "type": "Point", "coordinates": [ 139.61755960000005, 35.5848783 ] } },
{ "type": "Feature", "properties": { "内容": "よみうりランドケアセンター【短期入所療養介護（介護老人保健施設）】神奈川県川崎市多摩区菅仙谷４－１－３", "url": "https://www.kaigokensaku.mhlw.go.jp/14/index.php?action_kouhyou_detail_004_kani=true&JigyosyoCd=1455480041-00&ServiceCd=220&Type=search", "url2": "http://www.landcare.jp/" }, "geometry": { "type": "Point", "coordinates": [ 139.5206253, 35.6212778 ] } },
{ "type": "Feature", "properties": { "内容": "よみうりランドケアセンター（ユニットケア型）【短期入所療養介護（介護老人保健施設）】神奈川県川崎市多摩区菅仙谷４－１－３", "url": "https://www.kaigokensaku.mhlw.go.jp/14/index.php?action_kouhyou_detail_004_kani=true&JigyosyoCd=1455480058-00&ServiceCd=220&Type=search", "url2": "http://www.landcare.jp/" }, "geometry": { "type": "Point", "coordinates": [ 139.523543543408209, 35.621949337649177 ] } },
{ "type": "Feature", "properties": { "内容": "介護老人保健施設　三田あすみの丘【短期入所療養介護（介護老人保健施設）】神奈川県川崎市多摩区三田1丁目14番2号", "url": "https://www.kaigokensaku.mhlw.go.jp/14/index.php?action_kouhyou_detail_004_kani=true&JigyosyoCd=1455480033-00&ServiceCd=220&Type=search", "url2": "http://www.misasakai.or.jp/shisetsu/mitaasuminooka.php" }, "geometry": { "type": "Point", "coordinates": [ 139.543626600000039, 35.6111686 ] } },
{ "type": "Feature", "properties": { "内容": "介護老人保健施設　ろうけん宮前【短期入所療養介護（介護老人保健施設）】神奈川県川崎市宮前区水沢2-20-1", "url": "https://www.kaigokensaku.mhlw.go.jp/14/index.php?action_kouhyou_detail_004_kani=true&JigyosyoCd=1455580022-00&ServiceCd=220&Type=search", "url2": "http://www.rouken-miyamae.jp/" }, "geometry": { "type": "Point", "coordinates": [ 139.538414200000034, 35.5921215 ] } },
{ "type": "Feature", "properties": { "内容": "老人保健施設　レストア川崎【短期入所療養介護（介護老人保健施設）】神奈川県川崎市宮前区犬蔵１－２５－９", "url": "https://www.kaigokensaku.mhlw.go.jp/14/index.php?action_kouhyou_detail_004_kani=true&JigyosyoCd=1455580041-00&ServiceCd=220&Type=search", "url2": "https://restore-k.jp" }, "geometry": { "type": "Point", "coordinates": [ 139.5574392, 35.5896045 ] } },
{ "type": "Feature", "properties": { "内容": "帝京大学老人保健センター【短期入所療養介護（介護老人保健施設）】神奈川県川崎市宮前区野川本町２－１３－６", "url": "https://www.kaigokensaku.mhlw.go.jp/14/index.php?action_kouhyou_detail_004_kani=true&JigyosyoCd=1455580006-00&ServiceCd=220&Type=search", "url2": "http://teikyo-rouken.blue.coocan.jp/" }, "geometry": { "type": "Point", "coordinates": [ 139.616163740475486, 35.57603999682933 ] } },
{ "type": "Feature", "properties": { "内容": "介護老人保健施設　プラチナ・ヴィラ宮前【短期入所療養介護（介護老人保健施設）】神奈川県川崎市宮前区南野川3丁目23番1号", "url": "https://www.kaigokensaku.mhlw.go.jp/14/index.php?action_kouhyou_detail_004_kani=true&JigyosyoCd=1455580030-00&ServiceCd=220&Type=search", "url2": "http://www.t-group.net" }, "geometry": { "type": "Point", "coordinates": [ 139.612472199999985, 35.569730600000014 ] } },
{ "type": "Feature", "properties": { "内容": "介護老人保健施設　アクアピア新百合【短期入所療養介護（介護老人保健施設）】神奈川県川崎市麻生区黒川３１８", "url": "https://www.kaigokensaku.mhlw.go.jp/14/index.php?action_kouhyou_detail_004_kani=true&JigyosyoCd=1455680020-00&ServiceCd=220&Type=search", "url2": "http://www.aquapia.or.jp" }, "geometry": { "type": "Point", "coordinates": [ 139.469100700000013, 35.6129087 ] } },
{ "type": "Feature", "properties": { "内容": "新百合ケ丘介護老人保健施設　つくしの里【短期入所療養介護（介護老人保健施設）】神奈川県川崎市麻生区上麻生３－１４－２０", "url": "https://www.kaigokensaku.mhlw.go.jp/14/index.php?action_kouhyou_detail_004_kani=true&JigyosyoCd=1455680012-00&ServiceCd=220&Type=search", "url2": "https://www.reimeikai.care" }, "geometry": { "type": "Point", "coordinates": [ 139.50184420000005, 35.5984998 ] } },
{ "type": "Feature", "properties": { "内容": "医療法人財団　明理会　介護老人保健施設　相模原ロイヤルケアセンター【短期入所療養介護（介護老人保健施設）】神奈川県相模原市緑区大島380-1", "url": "https://www.kaigokensaku.mhlw.go.jp/14/index.php?action_kouhyou_detail_004_kani=true&JigyosyoCd=1452680080-00&ServiceCd=220&Type=search", "url2": "http://www.ims.gr.jp/sagamihara_royal/" }, "geometry": { "type": "Point", "coordinates": [ 139.310501499999987, 35.5820734 ] } },
{ "type": "Feature", "properties": { "内容": "老人保健施設　なごみの里【短期入所療養介護（介護老人保健施設）】神奈川県相模原市緑区牧野８１１０－２", "url": "https://www.kaigokensaku.mhlw.go.jp/14/index.php?action_kouhyou_detail_004_kani=true&JigyosyoCd=1451780006-00&ServiceCd=220&Type=search", "url2": "https://www.fujino-hp.or.jp/nagomi/" }, "geometry": { "type": "Point", "coordinates": [ 139.133264100000019, 35.5920842 ] } },
{ "type": "Feature", "properties": { "内容": "介護老人保健施設　ケアガーデンさがみ湖【短期入所療養介護（介護老人保健施設）】神奈川県相模原市緑区寸沢嵐3333-1", "url": "https://www.kaigokensaku.mhlw.go.jp/14/index.php?action_kouhyou_detail_004_kani=true&JigyosyoCd=1451780014-00&ServiceCd=220&Type=search", "url2": "https://caregarden.xsrv.jp/" }, "geometry": { "type": "Point", "coordinates": [ 139.197760799999969, 35.6027515 ] } },
{ "type": "Feature", "properties": { "内容": "介護老人保健施設　グリーンヒルズ相模原【短期入所療養介護（介護老人保健施設）】神奈川県相模原市緑区大島１５８３－１", "url": "https://www.kaigokensaku.mhlw.go.jp/14/index.php?action_kouhyou_detail_004_kani=true&JigyosyoCd=1452680007-00&ServiceCd=220&Type=search", "url2": "https://koyu.or.jp/hills/" }, "geometry": { "type": "Point", "coordinates": [ 139.3242864, 35.5752418 ] } },
{ "type": "Feature", "properties": { "内容": "介護老人保健施設ケアガーデンさがみ湖（ユニット型）【短期入所療養介護（介護老人保健施設）】神奈川県相模原市緑区寸沢嵐3333-1", "url": "https://www.kaigokensaku.mhlw.go.jp/14/index.php?action_kouhyou_detail_004_kani=true&JigyosyoCd=1452680091-00&ServiceCd=220&Type=search", "url2": "https://caregarden.xsrv.jp/" }, "geometry": { "type": "Point", "coordinates": [ 139.197760799999969, 35.6027515 ] } },
{ "type": "Feature", "properties": { "内容": "上溝介護老人保健施設　いずみ【短期入所療養介護（介護老人保健施設）】神奈川県相模原市中央区上溝6-18-40", "url": "https://www.kaigokensaku.mhlw.go.jp/14/index.php?action_kouhyou_detail_004_kani=true&JigyosyoCd=1452680064-00&ServiceCd=220&Type=search", "url2": "https://izumi.meiwa-gr.jp/" }, "geometry": { "type": "Point", "coordinates": [ 139.35704290000001, 35.5544558 ] } },
{ "type": "Feature", "properties": { "内容": "田名老人保健施設　光生【短期入所療養介護（介護老人保健施設）】神奈川県相模原市中央区田名7654-1", "url": "https://www.kaigokensaku.mhlw.go.jp/14/index.php?action_kouhyou_detail_004_kani=true&JigyosyoCd=1452680031-00&ServiceCd=220&Type=search", "url2": "http://www.tokujukai.or.jp/kousei/index.html" }, "geometry": { "type": "Point", "coordinates": [ 139.349485100000038, 35.5449458 ] } },
{ "type": "Feature", "properties": { "内容": "医療法人社団人和会　介護老人保健施設　とき【短期入所療養介護（介護老人保健施設）】神奈川県相模原市中央区相模原4-11-5", "url": "https://www.kaigokensaku.mhlw.go.jp/14/index.php?action_kouhyou_detail_004_kani=true&JigyosyoCd=1452680072-00&ServiceCd=220&Type=search", "url2": "https://jinwakai-toki.com" }, "geometry": { "type": "Point", "coordinates": [ 139.3778426, 35.577072 ] } },
{ "type": "Feature", "properties": { "内容": "相和会介護老人保健施設　青葉の郷【短期入所療養介護（介護老人保健施設）】神奈川県相模原市中央区青葉３－３６－１", "url": "https://www.kaigokensaku.mhlw.go.jp/14/index.php?action_kouhyou_detail_004_kani=true&JigyosyoCd=1452680049-00&ServiceCd=220&Type=search", "url2": "https://www.sowa-kai.jp/aoba/" }, "geometry": { "type": "Point", "coordinates": [ 139.389723, 35.5486652 ] } },
{ "type": "Feature", "properties": { "内容": "医療法人社団小松会　介護老人保健施設　清泉の郷【短期入所療養介護（介護老人保健施設）】神奈川県相模原市中央区上溝１１３２－１", "url": "https://www.kaigokensaku.mhlw.go.jp/14/index.php?action_kouhyou_detail_004_kani=true&JigyosyoCd=1452680056-00&ServiceCd=220&Type=search", "url2": "http://www.seisen.komatsukai.com" }, "geometry": { "type": "Point", "coordinates": [ 139.374693900000011, 35.5444835 ] } },
{ "type": "Feature", "properties": { "内容": "介護老人保健施設　相模大野【短期入所療養介護（介護老人保健施設）】神奈川県相模原市南区豊町17-36", "url": "https://www.kaigokensaku.mhlw.go.jp/14/index.php?action_kouhyou_detail_004_kani=true&JigyosyoCd=1452680015-00&ServiceCd=220&Type=search", "url2": "https://www.sagamioono.or.jp" }, "geometry": { "type": "Point", "coordinates": [ 139.427386800000022, 35.5282729 ] } },
{ "type": "Feature", "properties": { "内容": "介護老人保健施設　のどか【短期入所療養介護（介護老人保健施設）】相模原市南区新磯野５－３６－１", "url": "https://www.kaigokensaku.mhlw.go.jp/14/index.php?action_kouhyou_detail_004_kani=true&JigyosyoCd=1452680023-00&ServiceCd=220&Type=search", "url2": "https://www.smg-net.com/nodoka/" }, "geometry": { "type": "Point", "coordinates": [ 139.401661800000056, 35.5128441 ] } },
{ "type": "Feature", "properties": { "内容": "介護老人保健施設　しんわ走水荘【短期入所療養介護（介護老人保健施設）】神奈川県横須賀市走水2-5-6", "url": "https://www.kaigokensaku.mhlw.go.jp/14/index.php?action_kouhyou_detail_004_kani=true&JigyosyoCd=1451980085-00&ServiceCd=220&Type=search", "url2": "http://hasirimizu.jp" }, "geometry": { "type": "Point", "coordinates": [ 139.729773, 35.2642758 ] } },
{ "type": "Feature", "properties": { "内容": "第三湘南グリーン介護老人保健施設【短期入所療養介護（介護老人保健施設）】神奈川県横須賀市太田和5-85-20", "url": "https://www.kaigokensaku.mhlw.go.jp/14/index.php?action_kouhyou_detail_004_kani=true&JigyosyoCd=1471906089-00&ServiceCd=220&Type=search", "url2": "https://soukoukai.jp/" }, "geometry": { "type": "Point", "coordinates": [ 139.6520889, 35.232498 ] } },
{ "type": "Feature", "properties": { "内容": "介護老人保健施設　衣笠ろうけん【短期入所療養介護（介護老人保健施設）】神奈川県横須賀市小矢部2-23-1", "url": "https://www.kaigokensaku.mhlw.go.jp/14/index.php?action_kouhyou_detail_004_kani=true&JigyosyoCd=1451980002-00&ServiceCd=220&Type=search", "url2": "http://www.kinugasa.or.jp/roken" }, "geometry": { "type": "Point", "coordinates": [ 139.661653800000067, 35.2554021 ] } },
{ "type": "Feature", "properties": { "内容": "湘南グリーン介護老人保健施設【短期入所療養介護（介護老人保健施設）】神奈川県横須賀市大矢部１－９－３２", "url": "https://www.kaigokensaku.mhlw.go.jp/14/index.php?action_kouhyou_detail_004_kani=true&JigyosyoCd=1451980010-00&ServiceCd=220&Type=search", "url2": "http://www.yokosukagreen.com/stop.html" }, "geometry": { "type": "Point", "coordinates": [ 139.670114199999944, 35.2422033 ] } },
{ "type": "Feature", "properties": { "内容": "介護老人保健施設　ハートケア湘南・芦名【短期入所療養介護（介護老人保健施設）】神奈川県横須賀市芦名１－１６－１２", "url": "https://www.kaigokensaku.mhlw.go.jp/14/index.php?action_kouhyou_detail_004_kani=true&JigyosyoCd=1451980036-00&ServiceCd=220&Type=search", "url2": "http://www.hc-ashina.jp" }, "geometry": { "type": "Point", "coordinates": [ 139.603902799999986, 35.2290849 ] } },
{ "type": "Feature", "properties": { "内容": "介護老人保健施設　ソレイユカーマ【短期入所療養介護（介護老人保健施設）】神奈川県横須賀市西浦賀　５－３２－１", "url": "https://www.kaigokensaku.mhlw.go.jp/14/index.php?action_kouhyou_detail_004_kani=true&JigyosyoCd=1451980044-00&ServiceCd=220&Type=search", "url2": "http://www.soleil-kama.jp/" }, "geometry": { "type": "Point", "coordinates": [ 139.720665300000064, 35.2343985 ] } },
{ "type": "Feature", "properties": { "内容": "介護老人保健施設　フィオーレ久里浜【短期入所療養介護（介護老人保健施設）】神奈川県横須賀市神明町１０２８－７", "url": "https://www.kaigokensaku.mhlw.go.jp/14/index.php?action_kouhyou_detail_004_kani=true&JigyosyoCd=1451980051-00&ServiceCd=220&Type=search", "url2": "https://shofukai.or.jp/area-kanagawa/fiore-kurihama" }, "geometry": { "type": "Point", "coordinates": [ 139.69795929999998, 35.2224999 ] } },
{ "type": "Feature", "properties": { "内容": "第二湘南グリーン介護老人保健施設【短期入所療養介護（介護老人保健施設）】神奈川県横須賀市太田和５－８５－１", "url": "https://www.kaigokensaku.mhlw.go.jp/14/index.php?action_kouhyou_detail_004_kani=true&JigyosyoCd=1451980028-00&ServiceCd=220&Type=search", "url2": "https://soukoukai,jp" }, "geometry": { "type": "Point", "coordinates": [ 139.653157400000026, 35.2322627 ] } },
{ "type": "Feature", "properties": { "内容": "介護老人保健施設　野比苑【短期入所療養介護（介護老人保健施設）】神奈川県横須賀市野比1-41-1", "url": "https://www.kaigokensaku.mhlw.go.jp/14/index.php?action_kouhyou_detail_004_kani=true&JigyosyoCd=1451980069-00&ServiceCd=220&Type=search", "url2": "https://nobien.jp/" }, "geometry": { "type": "Point", "coordinates": [ 139.689732400000025, 35.2185893 ] } },
{ "type": "Feature", "properties": { "内容": "第三湘南グリーン介護老人保健施設【短期入所療養介護（介護老人保健施設）】神奈川県横須賀市太田和５－８５－２０", "url": "https://www.kaigokensaku.mhlw.go.jp/14/index.php?action_kouhyou_detail_004_kani=true&JigyosyoCd=1451980077-00&ServiceCd=220&Type=search", "url2": "http://www.soukoukai.jp/" }, "geometry": { "type": "Point", "coordinates": [ 139.6520889, 35.232498 ] } },
{ "type": "Feature", "properties": { "内容": "医療法人　研水会　介護老人保健施設　あさひの郷【短期入所療養介護（介護老人保健施設）】神奈川県平塚市出縄88番地", "url": "https://www.kaigokensaku.mhlw.go.jp/14/index.php?action_kouhyou_detail_004_kani=true&JigyosyoCd=1452080034-00&ServiceCd=220&Type=search", "url2": "http://www.kensuikai.or.jp" }, "geometry": { "type": "Point", "coordinates": [ 139.303719431213381, 35.332448332500022 ] } },
{ "type": "Feature", "properties": { "内容": "しんど老人保健施設【短期入所療養介護（介護老人保健施設）】神奈川県平塚市東真土4-5-27", "url": "https://www.kaigokensaku.mhlw.go.jp/14/index.php?action_kouhyou_detail_004_kani=true&JigyosyoCd=1452080018-00&ServiceCd=220&Type=search", "url2": "http://www.shindo-roken.com" }, "geometry": { "type": "Point", "coordinates": [ 139.352827899999966, 35.3609995 ] } },
{ "type": "Feature", "properties": { "内容": "介護老人保健施設　フィオーレ湘南真田【短期入所療養介護（介護老人保健施設）】神奈川県平塚市真田三丁目１番１号", "url": "https://www.kaigokensaku.mhlw.go.jp/14/index.php?action_kouhyou_detail_004_kani=true&JigyosyoCd=1452080059-00&ServiceCd=220&Type=search", "url2": "https://shofukai.or.jp/area-kanagawa/fiore-shounansanada" }, "geometry": { "type": "Point", "coordinates": [ 139.283401599999934, 35.3728352 ] } },
{ "type": "Feature", "properties": { "内容": "介護老人保健施設湘南シルバーガーデン【短期入所療養介護（介護老人保健施設）】神奈川県平塚市袖ケ浜1-12", "url": "https://www.kaigokensaku.mhlw.go.jp/14/index.php?action_kouhyou_detail_004_kani=true&JigyosyoCd=1452080042-00&ServiceCd=220&Type=search", "url2": "http://www.fureai-g.or.jp/sg/" }, "geometry": { "type": "Point", "coordinates": [ 139.352796300000023, 35.3195538 ] } },
{ "type": "Feature", "properties": { "内容": "介護老人保健施設　社会福祉法人　恩賜財団済生会湘南苑【短期入所療養介護（介護老人保健施設）】神奈川県平塚市立野町37-1", "url": "https://www.kaigokensaku.mhlw.go.jp/14/index.php?action_kouhyou_detail_004_kani=true&JigyosyoCd=1452080000-00&ServiceCd=220&Type=search", "url2": "https://www.hiratsuka.saiseikai.or.jp/shonanen/" }, "geometry": { "type": "Point", "coordinates": [ 139.339624400000048, 35.33283 ] } },
{ "type": "Feature", "properties": { "内容": "介護老人保健施設　なでしこの里リハビリひらつか【短期入所療養介護（介護老人保健施設）】神奈川県平塚市東八幡四丁目19番3号", "url": "https://www.kaigokensaku.mhlw.go.jp/14/index.php?action_kouhyou_detail_004_kani=true&JigyosyoCd=1452080060-00&ServiceCd=220&Type=search", "url2": "https://www.tomei.or.jp/fukushi/nadeshiko/" }, "geometry": { "type": "Point", "coordinates": [ 139.3596905, 35.3512285 ] } },
{ "type": "Feature", "properties": { "内容": "介護老人保健施設　鎌倉幸寿苑【短期入所療養介護（介護老人保健施設）】神奈川県鎌倉市関谷９１８", "url": "https://www.kaigokensaku.mhlw.go.jp/14/index.php?action_kouhyou_detail_004_kani=true&JigyosyoCd=1452180016-00&ServiceCd=220&Type=search", "url2": "http://www.koujukai.com/" }, "geometry": { "type": "Point", "coordinates": [ 139.510586900000021, 35.3616371 ] } },
{ "type": "Feature", "properties": { "内容": "介護老人保健施設　リハビリケア湘南かまくら【短期入所療養介護（介護老人保健施設）】神奈川県鎌倉市山崎1202-1", "url": "https://www.kaigokensaku.mhlw.go.jp/14/index.php?action_kouhyou_detail_004_kani=true&JigyosyoCd=1452180050-00&ServiceCd=220&Type=search", "url2": "https://www.tokushukai.or.jp/introduction/facility/ns-shonan" }, "geometry": { "type": "Point", "coordinates": [ 139.5276426, 35.34189 ] } },
{ "type": "Feature", "properties": { "内容": "医療法人徳洲会　介護老人保健施設かまくらしるばーほーむ【短期入所療養介護（介護老人保健施設）】神奈川県鎌倉市雪ノ下1-10-1", "url": "https://www.kaigokensaku.mhlw.go.jp/14/index.php?action_kouhyou_detail_004_kani=true&JigyosyoCd=1452180068-00&ServiceCd=220&Type=search", "url2": "https://kiyokawa-hp.or.jp/silverhome/" }, "geometry": { "type": "Point", "coordinates": [ 139.554191416567619, 35.321954663484455 ] } },
{ "type": "Feature", "properties": { "内容": "老健ぬかだ【短期入所療養介護（介護老人保健施設）】神奈川県鎌倉市大町4丁目6番6号", "url": "https://www.kaigokensaku.mhlw.go.jp/14/index.php?action_kouhyou_detail_004_kani=true&JigyosyoCd=1452180024-00&ServiceCd=220&Type=search", "url2": "https://nukada.info/rk/rouken.html" }, "geometry": { "type": "Point", "coordinates": [ 139.558228441000324, 35.312053248053488 ] } },
{ "type": "Feature", "properties": { "内容": "介護老人保健施設　かまくら【短期入所療養介護（介護老人保健施設）】神奈川県鎌倉市上町屋宇谷戸７５０", "url": "https://www.kaigokensaku.mhlw.go.jp/14/index.php?action_kouhyou_detail_004_kani=true&JigyosyoCd=1452180032-00&ServiceCd=220&Type=search", "url2": "https://www.s-aishinkai.jp/roken/" }, "geometry": { "type": "Point", "coordinates": [ 139.522194921873478, 35.337073787248244 ] } },
{ "type": "Feature", "properties": { "内容": "介護老人保健施設ケアパ－ク湘南台【短期入所療養介護（介護老人保健施設）】神奈川県藤沢市円行９９１番地", "url": "https://www.kaigokensaku.mhlw.go.jp/14/index.php?action_kouhyou_detail_004_kani=true&JigyosyoCd=1452280048-00&ServiceCd=220&Type=search", "url2": "http://www.muratakai.or.jp" }, "geometry": { "type": "Point", "coordinates": [ 139.460163200000011, 35.3870609 ] } },
{ "type": "Feature", "properties": { "内容": "介護老人保健施設　清流苑【短期入所療養介護（介護老人保健施設）】神奈川県藤沢市高谷１１６－１", "url": "https://www.kaigokensaku.mhlw.go.jp/14/index.php?action_kouhyou_detail_004_kani=true&JigyosyoCd=1452280014-00&ServiceCd=220&Type=search", "url2": "https://www.fhp.or.jp/seiryuen/" }, "geometry": { "type": "Point", "coordinates": [ 139.503212500000018, 35.3332015 ] } },
{ "type": "Feature", "properties": { "内容": "介護老人保健施設ふれあいの桜【短期入所療養介護（介護老人保健施設）】神奈川県藤沢市遠藤446-1", "url": "https://www.kaigokensaku.mhlw.go.jp/14/index.php?action_kouhyou_detail_004_kani=true&JigyosyoCd=1452280055-00&ServiceCd=220&Type=search", "url2": "http://www.fureai-g.or.jp/f-sakura" }, "geometry": { "type": "Point", "coordinates": [ 139.429634299999947, 35.3736859 ] } },
{ "type": "Feature", "properties": { "内容": "湘南わかば苑【短期入所療養介護（介護老人保健施設）】神奈川県藤沢市石川591", "url": "https://www.kaigokensaku.mhlw.go.jp/14/index.php?action_kouhyou_detail_004_kani=true&JigyosyoCd=1452280022-00&ServiceCd=220&Type=search", "url2": "http://www.swg.or.jp/" }, "geometry": { "type": "Point", "coordinates": [ 139.453044699999964, 35.3701183 ] } },
{ "type": "Feature", "properties": { "内容": "老健リハビリセンタークローバーヴィラ【短期入所療養介護（介護老人保健施設）】神奈川県藤沢市鵠沼神明3-1-1", "url": "https://www.kaigokensaku.mhlw.go.jp/14/index.php?action_kouhyou_detail_004_kani=true&JigyosyoCd=1452280063-00&ServiceCd=220&Type=search", "url2": "http://www.clover-villa.jp/" }, "geometry": { "type": "Point", "coordinates": [ 139.468929500000058, 35.3389559 ] } },
{ "type": "Feature", "properties": { "内容": "介護老人保健施設　ガーデニア・ごしょみ【短期入所療養介護（介護老人保健施設）】神奈川県藤沢市獺郷218", "url": "https://www.kaigokensaku.mhlw.go.jp/14/index.php?action_kouhyou_detail_004_kani=true&JigyosyoCd=1452280030-00&ServiceCd=220&Type=search", "url2": "https://gardenia.or.jp/" }, "geometry": { "type": "Point", "coordinates": [ 139.410265500000037, 35.396449 ] } },
{ "type": "Feature", "properties": { "内容": "介護老人保健施設　リバーイースト【短期入所療養介護（介護老人保健施設）】神奈川県小田原市永塚344-1", "url": "https://www.kaigokensaku.mhlw.go.jp/14/index.php?action_kouhyou_detail_004_kani=true&JigyosyoCd=1452380020-00&ServiceCd=220&Type=search", "url2": "http://river-roken.com/" }, "geometry": { "type": "Point", "coordinates": [ 139.181003799999985, 35.3004845 ] } },
{ "type": "Feature", "properties": { "内容": "介護老人保健施設　水之尾【短期入所療養介護（介護老人保健施設）】神奈川県小田原市水之尾３８－１", "url": "https://www.kaigokensaku.mhlw.go.jp/14/index.php?action_kouhyou_detail_004_kani=true&JigyosyoCd=1452380004-00&ServiceCd=220&Type=search", "url2": "http://ro-ken-mizunoo.weblike.jp/" }, "geometry": { "type": "Point", "coordinates": [ 139.132725700000037, 35.2533785 ] } },
{ "type": "Feature", "properties": { "内容": "山近記念総合病院　介護老人保健施設　わかば【短期入所療養介護（介護老人保健施設）】神奈川県小田原市小八幡３－６－２２", "url": "https://www.kaigokensaku.mhlw.go.jp/14/index.php?action_kouhyou_detail_004_kani=true&JigyosyoCd=1452380012-00&ServiceCd=220&Type=search", "url2": "https://www.yamachika-hp.jp/" }, "geometry": { "type": "Point", "coordinates": [ 139.201386100000036, 35.2764106 ] } },
{ "type": "Feature", "properties": { "内容": "介護老人保健施設　葵の園・小田原【短期入所療養介護（介護老人保健施設）】神奈川県小田原市曽比前河原1350番地", "url": "https://www.kaigokensaku.mhlw.go.jp/14/index.php?action_kouhyou_detail_004_kani=true&JigyosyoCd=1472303765-00&ServiceCd=220&Type=search", "url2": "https://www.aoikai.jp/odawara/" }, "geometry": { "type": "Point", "coordinates": [ 139.139838, 35.315722 ] } },
{ "type": "Feature", "properties": { "内容": "介護老人保健施設“悠久”【短期入所療養介護（介護老人保健施設）】神奈川県小田原市延清196-1", "url": "https://www.kaigokensaku.mhlw.go.jp/14/index.php?action_kouhyou_detail_004_kani=true&JigyosyoCd=1452380038-00&ServiceCd=220&Type=search", "url2": "https://yuukyuu-odawara.jp/" }, "geometry": { "type": "Point", "coordinates": [ 139.171841399999948, 35.2943602 ] } },
{ "type": "Feature", "properties": { "内容": "介護老人保健施設ふれあいの百合【短期入所療養介護（介護老人保健施設）】神奈川県茅ヶ崎市南湖1丁目6番14号", "url": "https://www.kaigokensaku.mhlw.go.jp/14/index.php?action_kouhyou_detail_004_kani=true&JigyosyoCd=1452480051-00&ServiceCd=220&Type=search", "url2": "http://www.fureai-g.or.jp/yuri/" }, "geometry": { "type": "Point", "coordinates": [ 139.390575799999965, 35.3282233 ] } },
{ "type": "Feature", "properties": { "内容": "介護老人保健施設ケアパ－ク茅ヶ崎【短期入所療養介護（介護老人保健施設）】神奈川県茅ヶ崎市甘沼151番地", "url": "https://www.kaigokensaku.mhlw.go.jp/14/index.php?action_kouhyou_detail_004_kani=true&JigyosyoCd=1452480044-00&ServiceCd=220&Type=search", "url2": "http://www.muratakai.or.jp/rcpark_chigasaki/index.html" }, "geometry": { "type": "Point", "coordinates": [ 139.420876300000032, 35.3560518 ] } },
{ "type": "Feature", "properties": { "内容": "介護老人保健施設　ふれあいの丘【短期入所療養介護（介護老人保健施設）】神奈川県茅ヶ崎市行谷583-1", "url": "https://www.kaigokensaku.mhlw.go.jp/14/index.php?action_kouhyou_detail_004_kani=true&JigyosyoCd=1452480002-00&ServiceCd=220&Type=search", "url2": "http://www.fureai-g.or.jp/oka/" }, "geometry": { "type": "Point", "coordinates": [ 139.412961717057783, 35.368658390197403 ] } },
{ "type": "Feature", "properties": { "内容": "介護老人保健施設　茅ヶ崎浜之郷【短期入所療養介護（介護老人保健施設）】神奈川県茅ヶ崎市浜之郷西の谷8-1", "url": "https://www.kaigokensaku.mhlw.go.jp/14/index.php?action_kouhyou_detail_004_kani=true&JigyosyoCd=1452480028-00&ServiceCd=220&Type=search", "url2": "http://ro-hama.qwc.jp/" }, "geometry": { "type": "Point", "coordinates": [ 139.3881113, 35.3455403 ] } },
{ "type": "Feature", "properties": { "内容": "介護老人保健施設　ふれあいの渚【短期入所療養介護（介護老人保健施設）】神奈川県茅ケ崎市中島1220番地", "url": "https://www.kaigokensaku.mhlw.go.jp/14/index.php?action_kouhyou_detail_004_kani=true&JigyosyoCd=1452480036-00&ServiceCd=220&Type=search", "url2": "http://www.fureai-g.or.jp/nagisa/" }, "geometry": { "type": "Point", "coordinates": [ 139.3772798, 35.3272424 ] } },
{ "type": "Feature", "properties": { "内容": "医療法人社団　柏信会　介護老人保健施設　グリーンハウス逗子【短期入所療養介護（介護老人保健施設）】神奈川県逗子市桜山６－１３５５", "url": "https://www.kaigokensaku.mhlw.go.jp/14/index.php?action_kouhyou_detail_004_kani=true&JigyosyoCd=1452580009-00&ServiceCd=220&Type=search", "url2": "https://www.aoki-hospital.or.jp/greenhouse/index.html" }, "geometry": { "type": "Point", "coordinates": [ 139.590252599999985, 35.2928923 ] } },
{ "type": "Feature", "properties": { "内容": "介護老人保健施設　なのはな苑【短期入所療養介護（介護老人保健施設）】神奈川県三浦市初声町高円坊１０４０－２", "url": "https://www.kaigokensaku.mhlw.go.jp/14/index.php?action_kouhyou_detail_004_kani=true&JigyosyoCd=1452780005-00&ServiceCd=220&Type=search", "url2": "http://www.bmk.or.jp/nanohana/" }, "geometry": { "type": "Point", "coordinates": [ 139.644863699999974, 35.2032162 ] } },
{ "type": "Feature", "properties": { "内容": "介護老人保健施設　なぎさ【短期入所療養介護（介護老人保健施設）】神奈川県三浦市南下浦町上宮田１３０８", "url": "https://www.kaigokensaku.mhlw.go.jp/14/index.php?action_kouhyou_detail_004_kani=true&JigyosyoCd=1452780013-00&ServiceCd=220&Type=search", "url2": "https://www.shinjinkai.or.jp/nagisa/riyou/short.html" }, "geometry": { "type": "Point", "coordinates": [ 139.651755, 35.1926641 ] } },
{ "type": "Feature", "properties": { "内容": "医療法人社団　栄相会　介護老人保健施設　ミノゲール【短期入所療養介護（介護老人保健施設）】神奈川県秦野市蓑毛164－1", "url": "https://www.kaigokensaku.mhlw.go.jp/14/index.php?action_kouhyou_detail_004_kani=true&JigyosyoCd=1452880037-00&ServiceCd=220&Type=search", "url2": "http://minoge-el.rakurakuhp.net/" }, "geometry": { "type": "Point", "coordinates": [ 139.231225, 35.4066996 ] } },
{ "type": "Feature", "properties": { "内容": "医療法人社団　佑樹会　介護老人保健施設　めぐみの里【短期入所療養介護（介護老人保健施設）】神奈川県秦野市渋沢1296番地1", "url": "https://www.kaigokensaku.mhlw.go.jp/14/index.php?action_kouhyou_detail_004_kani=true&JigyosyoCd=1452880045-00&ServiceCd=220&Type=search", "url2": "http://www.yuuki-kai.com" }, "geometry": { "type": "Point", "coordinates": [ 139.195423399999981, 35.3666555 ] } },
{ "type": "Feature", "properties": { "内容": "医療法人社団　佑樹会　介護老人保健施設　ひまわりの里【短期入所療養介護（介護老人保健施設）】神奈川県秦野市西大竹914番地の1", "url": "https://www.kaigokensaku.mhlw.go.jp/14/index.php?action_kouhyou_detail_004_kani=true&JigyosyoCd=1452880052-00&ServiceCd=220&Type=search", "url2": "http://yuuki-kai.com/plant/#position_himawari" }, "geometry": { "type": "Point", "coordinates": [ 139.233438844712026, 35.354202001282474 ] } },
{ "type": "Feature", "properties": { "内容": "秦野老人保健施設みかん【短期入所療養介護（介護老人保健施設）】神奈川県秦野市平沢2407-2", "url": "https://www.kaigokensaku.mhlw.go.jp/14/index.php?action_kouhyou_detail_004_kani=true&JigyosyoCd=1452880003-00&ServiceCd=220&Type=search", "url2": "http://www.hadano.or.jp/" }, "geometry": { "type": "Point", "coordinates": [ 139.193040200000041, 35.3587703 ] } },
{ "type": "Feature", "properties": { "内容": "医療法人社団　三喜会　介護老人保健施設　ライフプラザ鶴巻【短期入所療養介護（介護老人保健施設）】神奈川県秦野市鶴巻北3-1-3", "url": "https://www.kaigokensaku.mhlw.go.jp/14/index.php?action_kouhyou_detail_004_kani=true&JigyosyoCd=1452880029-00&ServiceCd=220&Type=search", "url2": "https://www.sankikai.or.jp/life-tsurumaki/" }, "geometry": { "type": "Point", "coordinates": [ 139.276205, 35.3821172 ] } },
{ "type": "Feature", "properties": { "内容": "医療法人聖和会　介護老人保健施設さくらサテライト【短期入所療養介護（介護老人保健施設）】神奈川県厚木市上古沢１７０２番地", "url": "https://www.kaigokensaku.mhlw.go.jp/14/index.php?action_kouhyou_detail_004_kani=true&JigyosyoCd=1452980050-00&ServiceCd=220&Type=search", "url2": "http://goto-seikei.net/" }, "geometry": { "type": "Point", "coordinates": [ 139.309288786508233, 35.463742899962874 ] } },
{ "type": "Feature", "properties": { "内容": "介護老人保健施設さつきの里あつぎ【短期入所療養介護（介護老人保健施設）】神奈川県厚木市船子322-1", "url": "https://www.kaigokensaku.mhlw.go.jp/14/index.php?action_kouhyou_detail_004_kani=true&JigyosyoCd=1452980001-00&ServiceCd=220&Type=search", "url2": "https://www.tomei.or.jp/fukushi/roken/" }, "geometry": { "type": "Point", "coordinates": [ 139.35562234123779, 35.427980258165455 ] } },
{ "type": "Feature", "properties": { "内容": "介護老人保健施設　コミュニティケア北部【短期入所療養介護（介護老人保健施設）】神奈川県厚木市下荻野９４１－１", "url": "https://www.kaigokensaku.mhlw.go.jp/14/index.php?action_kouhyou_detail_004_kani=true&JigyosyoCd=1452980019-00&ServiceCd=220&Type=search", "url2": "https://care-hokubu.jp/" }, "geometry": { "type": "Point", "coordinates": [ 139.338177, 35.4907869 ] } },
{ "type": "Feature", "properties": { "内容": "介護老人保健施設　ぬるみず【短期入所療養介護（介護老人保健施設）】神奈川県厚木市温水1845-1", "url": "https://www.kaigokensaku.mhlw.go.jp/14/index.php?action_kouhyou_detail_004_kani=true&JigyosyoCd=1452980027-00&ServiceCd=220&Type=search", "url2": "http://nurumizu.com/" }, "geometry": { "type": "Point", "coordinates": [ 139.333688100000018, 35.447911 ] } },
{ "type": "Feature", "properties": { "内容": "介護老人保健施設　さくら【短期入所療養介護（介護老人保健施設）】神奈川県厚木市上古沢１９１５番地", "url": "https://www.kaigokensaku.mhlw.go.jp/14/index.php?action_kouhyou_detail_004_kani=true&JigyosyoCd=1452980035-00&ServiceCd=220&Type=search", "url2": "https://goto-seikei.net/" }, "geometry": { "type": "Point", "coordinates": [ 139.313995100000056, 35.4632697 ] } },
{ "type": "Feature", "properties": { "内容": "介護老人保健施設こまち【短期入所療養介護（介護老人保健施設）】神奈川県厚木市小野763-1", "url": "https://www.kaigokensaku.mhlw.go.jp/14/index.php?action_kouhyou_detail_004_kani=true&JigyosyoCd=1452980043-00&ServiceCd=220&Type=search", "url2": "http://www.touwakai.com/komachi" }, "geometry": { "type": "Point", "coordinates": [ 139.312110685813906, 35.433454942311414 ] } },
{ "type": "Feature", "properties": { "内容": "介護老人保健施設　リハビリケア湘南厚木【短期入所療養介護（介護老人保健施設）】神奈川県厚木市戸田2446-15", "url": "https://www.kaigokensaku.mhlw.go.jp/14/index.php?action_kouhyou_detail_004_kani=true&JigyosyoCd=1452980079-00&ServiceCd=220&Type=search", "url2": "https://reha-atsugi.jp/" }, "geometry": { "type": "Point", "coordinates": [ 139.369519, 35.399864 ] } },
{ "type": "Feature", "properties": { "内容": "介護老人保健施設　ケアセンター上依知【短期入所療養介護（介護老人保健施設）】神奈川県厚木市上依知418-1", "url": "https://www.kaigokensaku.mhlw.go.jp/14/index.php?action_kouhyou_detail_004_kani=true&JigyosyoCd=1452980087-00&ServiceCd=220&Type=search", "url2": "http://seijukai-gp.jp" }, "geometry": { "type": "Point", "coordinates": [ 139.360421875393683, 35.515743821821935 ] } },
{ "type": "Feature", "properties": { "内容": "南大和老人保健施設【短期入所療養介護（介護老人保健施設）】神奈川県大和市下和田1150", "url": "https://www.kaigokensaku.mhlw.go.jp/14/index.php?action_kouhyou_detail_004_kani=true&JigyosyoCd=1453080009-00&ServiceCd=220&Type=search", "url2": "http://www.minamiyamato-hosp.or.jp/introduction/group/sakura/index.html" }, "geometry": { "type": "Point", "coordinates": [ 139.468095700000049, 35.4317883 ] } },
{ "type": "Feature", "properties": { "内容": "介護老人保健施設　成和ナーシングプラザ【短期入所療養介護（介護老人保健施設）】神奈川県大和市南林間9-8-9", "url": "https://www.kaigokensaku.mhlw.go.jp/14/index.php?action_kouhyou_detail_004_kani=true&JigyosyoCd=1453080017-00&ServiceCd=220&Type=search", "url2": "https://www.fureai-g.or.jp/seiwa-np/" }, "geometry": { "type": "Point", "coordinates": [ 139.434603899999956, 35.4950719 ] } },
{ "type": "Feature", "properties": { "内容": "介護老人保健施設　葵の園・大和【短期入所療養介護（介護老人保健施設）】神奈川県大和市深見台1丁目7番33号", "url": "https://www.kaigokensaku.mhlw.go.jp/14/index.php?action_kouhyou_detail_004_kani=true&JigyosyoCd=1453080041-00&ServiceCd=220&Type=search", "url2": "https://www.aoikai.jp/yamato/" }, "geometry": { "type": "Point", "coordinates": [ 139.46703930000001, 35.4655147 ] } },
{ "type": "Feature", "properties": { "内容": "介護老人保健施設　しょうじゅの里大和【短期入所療養介護（介護老人保健施設）】神奈川県大和市上和田２６３３", "url": "https://www.kaigokensaku.mhlw.go.jp/14/index.php?action_kouhyou_detail_004_kani=true&JigyosyoCd=1453080025-00&ServiceCd=220&Type=search", "url2": "http://www.akaedakai.com/yamato/index.html" }, "geometry": { "type": "Point", "coordinates": [ 139.470909200000051, 35.4416454 ] } },
{ "type": "Feature", "properties": { "内容": "介護老人保健施設　大地【短期入所療養介護（介護老人保健施設）】神奈川県大和市中央林間9丁目3番20号", "url": "https://www.kaigokensaku.mhlw.go.jp/14/index.php?action_kouhyou_detail_004_kani=true&JigyosyoCd=1453080033-00&ServiceCd=220&Type=search", "url2": "http://www.sensinkai-daichi.com" }, "geometry": { "type": "Point", "coordinates": [ 139.460265899999968, 35.495344 ] } },
{ "type": "Feature", "properties": { "内容": "介護老人保健施設ほほえみの丘【短期入所療養介護（介護老人保健施設）】神奈川県伊勢原市下平間700", "url": "https://www.kaigokensaku.mhlw.go.jp/14/index.php?action_kouhyou_detail_004_kani=true&JigyosyoCd=1454080008-00&ServiceCd=220&Type=search", "url2": "http://www.kouseiren.net/hohoemi/" }, "geometry": { "type": "Point", "coordinates": [ 139.32021450000002, 35.3835766 ] } },
{ "type": "Feature", "properties": { "内容": "医療法人社団　佑樹会　介護老人保健施設　あゆみの里【短期入所療養介護（介護老人保健施設）】神奈川県伊勢原市石田1710番地", "url": "https://www.kaigokensaku.mhlw.go.jp/14/index.php?action_kouhyou_detail_004_kani=true&JigyosyoCd=1454080027-00&ServiceCd=220&Type=search", "url2": "http://yuuki-kai.com/ayumi_top/" }, "geometry": { "type": "Point", "coordinates": [ 139.347181658028347, 35.408247449245565 ] } },
{ "type": "Feature", "properties": { "内容": "医療法人社団　松和会　介護老人保健施設ききょう苑【短期入所療養介護（介護老人保健施設）】神奈川県伊勢原市沼目６－１２３７", "url": "https://www.kaigokensaku.mhlw.go.jp/14/index.php?action_kouhyou_detail_004_kani=true&JigyosyoCd=1454080016-00&ServiceCd=220&Type=search", "url2": "http://www.mtnet.jp/kikyo-en/" }, "geometry": { "type": "Point", "coordinates": [ 139.331438, 35.388304 ] } },
{ "type": "Feature", "properties": { "内容": "老人保健施設　えびな【短期入所療養介護（介護老人保健施設）】神奈川県海老名市柏ケ谷７２６－７", "url": "https://www.kaigokensaku.mhlw.go.jp/14/index.php?action_kouhyou_detail_004_kani=true&JigyosyoCd=1454280004-00&ServiceCd=220&Type=search", "url2": "http://www.hanashi-seikeigeka.com" }, "geometry": { "type": "Point", "coordinates": [ 139.410559599999942, 35.4649659 ] } },
{ "type": "Feature", "properties": { "内容": "社会医療法人ジャパンメディカルアライアンス介護老人保健施設　アゼリア【短期入所療養介護（介護老人保健施設）】神奈川県海老名市中央四丁目16番3号", "url": "https://www.kaigokensaku.mhlw.go.jp/14/index.php?action_kouhyou_detail_004_kani=true&JigyosyoCd=1454280012-00&ServiceCd=220&Type=search", "url2": "https://azalea.jinai.jp" }, "geometry": { "type": "Point", "coordinates": [ 139.385909, 35.4482733 ] } },
{ "type": "Feature", "properties": { "内容": "介護老人保健施設　神奈川セントラルケアセンター【短期入所療養介護（介護老人保健施設）】神奈川県座間市栗原９１２－２", "url": "https://www.kaigokensaku.mhlw.go.jp/14/index.php?action_kouhyou_detail_004_kani=true&JigyosyoCd=1454180014-00&ServiceCd=220&Type=search", "url2": null }, "geometry": { "type": "Point", "coordinates": [ 139.419160899999952, 35.4904119 ] } },
{ "type": "Feature", "properties": { "内容": "介護老人保健施設　老健さがみ【短期入所療養介護（介護老人保健施設）】神奈川県座間市相模が丘６－２１－２７", "url": "https://www.kaigokensaku.mhlw.go.jp/14/index.php?action_kouhyou_detail_004_kani=true&JigyosyoCd=1454180006-00&ServiceCd=220&Type=search", "url2": "https://i-koseikai.com/hp/" }, "geometry": { "type": "Point", "coordinates": [ 139.426609800000051, 35.5063114 ] } },
{ "type": "Feature", "properties": { "内容": "介護老人保健施設　にじの丘足柄【短期入所療養介護（介護老人保健施設）】神奈川県南足柄市岩原６９９", "url": "https://www.kaigokensaku.mhlw.go.jp/14/index.php?action_kouhyou_detail_004_kani=true&JigyosyoCd=1454380002-00&ServiceCd=220&Type=search", "url2": "http://www.kiyoukai.jp/" }, "geometry": { "type": "Point", "coordinates": [ 139.124082030688442, 35.294119615210739 ] } },
{ "type": "Feature", "properties": { "内容": "介護老人保健施設　メイプル【短期入所療養介護（介護老人保健施設）】神奈川県綾瀬市吉岡2361-7", "url": "https://www.kaigokensaku.mhlw.go.jp/14/index.php?action_kouhyou_detail_004_kani=true&JigyosyoCd=1454480000-00&ServiceCd=220&Type=search", "url2": "https://www.jikoukai.com/care/index.html" }, "geometry": { "type": "Point", "coordinates": [ 139.4103407, 35.4273206 ] } },
{ "type": "Feature", "properties": { "内容": "湘南グリーン介護老人保健施設　葉山【短期入所療養介護（介護老人保健施設）】三浦郡葉山町一色２４４８－１", "url": "https://www.kaigokensaku.mhlw.go.jp/14/index.php?action_kouhyou_detail_004_kani=true&JigyosyoCd=1451180009-00&ServiceCd=220&Type=search", "url2": "http://www.yokosukagreen.com/soukoukai/facility/faci_008.html" }, "geometry": { "type": "Point", "coordinates": [ 139.570600399999989, 35.2680084 ] } },
{ "type": "Feature", "properties": { "内容": "湘南グリーン介護老人保健施設　葉山（ユニット型）【短期入所療養介護（介護老人保健施設）】神奈川県三浦郡葉山町2448-1", "url": "https://www.kaigokensaku.mhlw.go.jp/14/index.php?action_kouhyou_detail_004_kani=true&JigyosyoCd=1451180017-00&ServiceCd=220&Type=search", "url2": "https://soukoukai.pages/35/" }, "geometry": { "type": "Point", "coordinates": [ 139.345957, 35.3326612 ] } },
{ "type": "Feature", "properties": { "内容": "宗教法人寒川神社　介護老人保健施設　神恵苑【短期入所療養介護（介護老人保健施設）】神奈川県高座郡寒川町宮山１８０－１", "url": "https://www.kaigokensaku.mhlw.go.jp/14/index.php?action_kouhyou_detail_004_kani=true&JigyosyoCd=1451280007-00&ServiceCd=220&Type=search", "url2": "http://shinkeien.jp" }, "geometry": { "type": "Point", "coordinates": [ 139.382286099999988, 35.3734976 ] } },
{ "type": "Feature", "properties": { "内容": "介護老人保健施設　大磯幸寿苑【短期入所療養介護（介護老人保健施設）】神奈川県中郡大磯町西小磯2466", "url": "https://www.kaigokensaku.mhlw.go.jp/14/index.php?action_kouhyou_detail_004_kani=true&JigyosyoCd=1451380005-00&ServiceCd=220&Type=search", "url2": "http://www.koujukai.com/oiso/" }, "geometry": { "type": "Point", "coordinates": [ 139.298067299999957, 35.3215841 ] } },
{ "type": "Feature", "properties": { "内容": "介護老人保健施設　グレースヒル・湘南【短期入所療養介護（介護老人保健施設）】神奈川県足柄上郡中井町松本１１３５－１", "url": "https://www.kaigokensaku.mhlw.go.jp/14/index.php?action_kouhyou_detail_004_kani=true&JigyosyoCd=1451480011-00&ServiceCd=220&Type=search", "url2": "http://www.ittokai.or.jp/grace/" }, "geometry": { "type": "Point", "coordinates": [ 139.1953456, 35.3462609 ] } },
{ "type": "Feature", "properties": { "内容": "介護老人保健施設あじさいの郷【短期入所療養介護（介護老人保健施設）】神奈川県足柄上郡開成町金井島1966", "url": "https://www.kaigokensaku.mhlw.go.jp/14/index.php?action_kouhyou_detail_004_kani=true&JigyosyoCd=1451480022-00&ServiceCd=220&Type=search", "url2": "https://katsumata-mc-hp.jp/ajisainosato/" }, "geometry": { "type": "Point", "coordinates": [ 139.111834, 35.3499975 ] } },
{ "type": "Feature", "properties": { "内容": "介護老人保健施設　デンマークイン箱根【短期入所療養介護（介護老人保健施設）】神奈川県足柄下郡箱根町仙石原１２８５", "url": "https://www.kaigokensaku.mhlw.go.jp/14/index.php?action_kouhyou_detail_004_kani=true&JigyosyoCd=1451580000-00&ServiceCd=220&Type=search", "url2": "http://www.kensei-hakone.com/" }, "geometry": { "type": "Point", "coordinates": [ 139.019407300000012, 35.2608121 ] } },
{ "type": "Feature", "properties": { "内容": "ニューライフ湯河原【短期入所療養介護（介護老人保健施設）】神奈川県足柄下郡湯河原町吉浜字白沼田１９０６", "url": "https://www.kaigokensaku.mhlw.go.jp/14/index.php?action_kouhyou_detail_004_kani=true&JigyosyoCd=1451580018-00&ServiceCd=220&Type=search", "url2": "http://www.newlife-web.ne.jp/" }, "geometry": { "type": "Point", "coordinates": [ 139.114610397904585, 35.159833633154925 ] } },
{ "type": "Feature", "properties": { "内容": "医療法人社団　愛清　介護老人保健施設　せせらぎ【短期入所療養介護（介護老人保健施設）】神奈川県愛甲郡愛川町角田4369-18", "url": "https://www.kaigokensaku.mhlw.go.jp/14/index.php?action_kouhyou_detail_004_kani=true&JigyosyoCd=1451680008-00&ServiceCd=220&Type=search", "url2": "http://www.aisei-dc.jp" }, "geometry": { "type": "Point", "coordinates": [ 139.298777, 35.5273345 ] } }
]
}
