{
"type": "FeatureCollection",
"name": "geo_14_介護医療院",
"crs": { "type": "name", "properties": { "name": "urn:ogc:def:crs:OGC:1.3:CRS84" } },
"features": [
{ "type": "Feature", "properties": { "内容": "横浜市総合保健医療センター　介護医療院【介護医療院】神奈川県横浜市港北区鳥山町1735", "url": "https://www.kaigokensaku.mhlw.go.jp/14/index.php?action_kouhyou_detail_004_kani=true&JigyosyoCd=14B0900019-00&ServiceCd=550&Type=search", "url2": "https://yccc.jp/care/clinic/" }, "geometry": { "type": "Point", "coordinates": [ 139.6090021, 35.5096357 ] } },
{ "type": "Feature", "properties": { "内容": "十慈堂病院介護医療院【介護医療院】神奈川県横浜市戸塚区南舞岡1-23-9", "url": "https://www.kaigokensaku.mhlw.go.jp/14/index.php?action_kouhyou_detail_004_kani=true&JigyosyoCd=14B1000017-00&ServiceCd=550&Type=search", "url2": "https://www.jujidou.or.jp/" }, "geometry": { "type": "Point", "coordinates": [ 139.557319799999988, 35.3960721 ] } },
{ "type": "Feature", "properties": { "内容": "横浜鶴ヶ峰病院介護医療院【介護医療院】神奈川県横浜市旭区川島町1764番地", "url": "https://www.kaigokensaku.mhlw.go.jp/14/index.php?action_kouhyou_detail_004_kani=true&JigyosyoCd=14B3200011-00&ServiceCd=550&Type=search", "url2": "http://www.tsurugaminehospital.com/" }, "geometry": { "type": "Point", "coordinates": [ 139.554023699999988, 35.470569500000011 ] } },
{ "type": "Feature", "properties": { "内容": "医療法人社団元気会横浜病院　介護医療院【介護医療院】神奈川県横浜市緑区寺山町７２９", "url": "https://www.kaigokensaku.mhlw.go.jp/14/index.php?action_kouhyou_detail_004_kani=true&JigyosyoCd=14B3300019-00&ServiceCd=550&Type=search", "url2": "http://genkikaiyokohama.jp/" }, "geometry": { "type": "Point", "coordinates": [ 139.5419511, 35.5017957 ] } },
{ "type": "Feature", "properties": { "内容": "三ツ境病院介護医療院【介護医療院】神奈川県横浜市瀬谷区三ツ境２３番地8", "url": "https://www.kaigokensaku.mhlw.go.jp/14/index.php?action_kouhyou_detail_004_kani=true&JigyosyoCd=14B3400017-00&ServiceCd=550&Type=search", "url2": "http://www.mitu.or.jp/" }, "geometry": { "type": "Point", "coordinates": [ 139.5023085, 35.4650507 ] } },
{ "type": "Feature", "properties": { "内容": "田名病院介護医療院【介護医療院】神奈川県相模原市中央区田名塩田３丁目１４番３６号", "url": "https://www.kaigokensaku.mhlw.go.jp/14/index.php?action_kouhyou_detail_004_kani=true&JigyosyoCd=14B2600039-00&ServiceCd=550&Type=search", "url2": "https://www.tanabyouin.com" }, "geometry": { "type": "Point", "coordinates": [ 139.3545273, 35.5308634 ] } },
{ "type": "Feature", "properties": { "内容": "相模原南病院　介護医療院【介護医療院】神奈川県相模原市南区大野台7-10-7", "url": "https://www.kaigokensaku.mhlw.go.jp/14/index.php?action_kouhyou_detail_004_kani=true&JigyosyoCd=14B2600021-00&ServiceCd=550&Type=search", "url2": "http://minami-h.or.jp/" }, "geometry": { "type": "Point", "coordinates": [ 139.41459660000001, 35.5495476 ] } },
{ "type": "Feature", "properties": { "内容": "医療法人相愛会相愛病院介護医療院【介護医療院】神奈川県相模原市南区当麻1632", "url": "https://www.kaigokensaku.mhlw.go.jp/14/index.php?action_kouhyou_detail_004_kani=true&JigyosyoCd=14B2600047-00&ServiceCd=550&Type=search", "url2": "http://souai-hp.or.jp" }, "geometry": { "type": "Point", "coordinates": [ 139.3749377, 35.5248828 ] } },
{ "type": "Feature", "properties": { "内容": "相模原友愛温泉病院　介護医療院【介護医療院】神奈川県相模原市南区麻溝台697番地", "url": "https://www.kaigokensaku.mhlw.go.jp/14/index.php?action_kouhyou_detail_004_kani=true&JigyosyoCd=14B2600013-00&ServiceCd=550&Type=search", "url2": "https://www.yuuai-byouinkai.or.jp/facilities/sagamihara/" }, "geometry": { "type": "Point", "coordinates": [ 139.390449652147481, 35.537350175239723 ] } },
{ "type": "Feature", "properties": { "内容": "湘南長寿園病院　介護医療院【介護医療院】神奈川県藤沢市白旗１丁目１１番１号", "url": "https://www.kaigokensaku.mhlw.go.jp/14/index.php?action_kouhyou_detail_004_kani=true&JigyosyoCd=14B2200012-00&ServiceCd=550&Type=search", "url2": "http://www.chojuen.com" }, "geometry": { "type": "Point", "coordinates": [ 139.4796351, 35.3526428 ] } },
{ "type": "Feature", "properties": { "内容": "公益財団法人積善会　介護医療院こもれび【介護医療院】神奈川県小田原市曽我岸148", "url": "https://www.kaigokensaku.mhlw.go.jp/14/index.php?action_kouhyou_detail_004_kani=true&JigyosyoCd=14B2300010-00&ServiceCd=550&Type=search", "url2": "https://soga-hp.com/komorebi/" }, "geometry": { "type": "Point", "coordinates": [ 139.1812768, 35.3028712 ] } },
{ "type": "Feature", "properties": { "内容": "介護医療院　湘南の丘【介護医療院】神奈川県茅ケ崎市赤羽根3685", "url": "https://www.kaigokensaku.mhlw.go.jp/14/index.php?action_kouhyou_detail_004_kani=true&JigyosyoCd=14B2400018-00&ServiceCd=550&Type=search", "url2": "https://www.nagaoka-hp.com/" }, "geometry": { "type": "Point", "coordinates": [ 139.434060292065453, 35.352874846654075 ] } },
{ "type": "Feature", "properties": { "内容": "医療法人社団　三喜会　鶴巻温泉病院介護医療院【介護医療院】神奈川県秦野市鶴巻北1-16-1", "url": "https://www.kaigokensaku.mhlw.go.jp/14/index.php?action_kouhyou_detail_004_kani=true&JigyosyoCd=14B2800019-00&ServiceCd=550&Type=search", "url2": "http://www.sankikai.or.jp/tsurumaki/" }, "geometry": { "type": "Point", "coordinates": [ 139.279665600000044, 35.382941100000011 ] } },
{ "type": "Feature", "properties": { "内容": "相武台リハビリテーション病院介護医療院【介護医療院】神奈川県座間市相武台1-9-7", "url": "https://www.kaigokensaku.mhlw.go.jp/14/index.php?action_kouhyou_detail_004_kani=true&JigyosyoCd=14B4100012-00&ServiceCd=550&Type=search", "url2": "https://www.smg-net.com" }, "geometry": { "type": "Point", "coordinates": [ 139.4117555, 35.5059524 ] } },
{ "type": "Feature", "properties": { "内容": "特定医療法人社団研精会　介護医療院はこね仙石原【介護医療院】神奈川県足柄下郡箱根町仙石原1285", "url": "https://www.kaigokensaku.mhlw.go.jp/14/index.php?action_kouhyou_detail_004_kani=true&JigyosyoCd=14B1500016-00&ServiceCd=550&Type=search", "url2": "https://www.kensei-hakone.com/" }, "geometry": { "type": "Point", "coordinates": [ 139.021353853271137, 35.263786254461962 ] } },
{ "type": "Feature", "properties": { "内容": "湯河原中央温泉病院介護医療院【介護医療院】神奈川県足柄下郡湯河原町中央四丁目11番地2", "url": "https://www.kaigokensaku.mhlw.go.jp/14/index.php?action_kouhyou_detail_004_kani=true&JigyosyoCd=14B1500024-00&ServiceCd=550&Type=search", "url2": "https://www.yugawara-hp.com" }, "geometry": { "type": "Point", "coordinates": [ 139.112070899999907, 35.1511355 ] } }
]
}
