{
"type": "FeatureCollection",
"name": "geo_14_特別支援学校",
"crs": { "type": "name", "properties": { "name": "urn:ogc:def:crs:EPSG::6668" } },
"features": [
{ "type": "Feature", "properties": { "P29_001": "14201", "P29_002": "E114110000018", "P29_003": "16012", "P29_004": "筑波大学附属久里浜特別支援学校", "P29_005": "神奈川県横須賀市野比5-1-2", "P29_006": "1", "P29_007": "0", "P29_008": "00", "P29_009": null }, "geometry": { "type": "Point", "coordinates": [ 139.698725453645409, 35.211207244536638 ] } },
{ "type": "Feature", "properties": { "P29_001": "14105", "P29_002": "E114110000027", "P29_003": "16012", "P29_004": "横浜国立大学教育学部附属特別支援学校", "P29_005": "神奈川県横浜市南区大岡2-31-3", "P29_006": "1", "P29_007": "0", "P29_008": "00", "P29_009": null }, "geometry": { "type": "Point", "coordinates": [ 139.604626639203445, 35.421883954260373 ] } },
{ "type": "Feature", "properties": { "P29_001": "14101", "P29_002": "E114210010014", "P29_003": "16012", "P29_004": "神奈川県立鶴見支援学校", "P29_005": "神奈川県横浜市鶴見区駒岡4-40-1", "P29_006": "2", "P29_007": "0", "P29_008": "01", "P29_009": null }, "geometry": { "type": "Point", "coordinates": [ 139.655176997704871, 35.535808034454206 ] } },
{ "type": "Feature", "properties": { "P29_001": "14106", "P29_002": "E114210010032", "P29_003": "16012", "P29_004": "神奈川県立保土ケ谷支援学校", "P29_005": "神奈川県横浜市保土ケ谷区権太坂1-8-1", "P29_006": "2", "P29_007": "0", "P29_008": "01", "P29_009": null }, "geometry": { "type": "Point", "coordinates": [ 139.57242928749281, 35.442490166310641 ] } },
{ "type": "Feature", "properties": { "P29_001": "14108", "P29_002": "E114210010041", "P29_003": "16012", "P29_004": "神奈川県立金沢支援学校", "P29_005": "神奈川県横浜市金沢区富岡東2-6-1", "P29_006": "2", "P29_007": "0", "P29_008": "00", "P29_009": null }, "geometry": { "type": "Point", "coordinates": [ 139.637252703824089, 35.377402524217061 ] } },
{ "type": "Feature", "properties": { "P29_001": "14113", "P29_002": "E114210010050", "P29_003": "16012", "P29_004": "神奈川県立みどり支援学校", "P29_005": "神奈川県横浜市緑区東本郷5-18-1", "P29_006": "2", "P29_007": "0", "P29_008": "01", "P29_009": null }, "geometry": { "type": "Point", "coordinates": [ 139.582661434348097, 35.507102103670242 ] } },
{ "type": "Feature", "properties": { "P29_001": "14114", "P29_002": "E114210010069", "P29_003": "16012", "P29_004": "神奈川県立瀬谷支援学校", "P29_005": "神奈川県横浜市瀬谷区竹村町28-1", "P29_006": "2", "P29_007": "0", "P29_008": "01", "P29_009": null }, "geometry": { "type": "Point", "coordinates": [ 139.471290416176913, 35.485553304853404 ] } },
{ "type": "Feature", "properties": { "P29_001": "14114", "P29_002": "E114210010078", "P29_003": "16012", "P29_004": "神奈川県立三ツ境支援学校", "P29_005": "神奈川県横浜市瀬谷区二ツ橋町468", "P29_006": "2", "P29_007": "0", "P29_008": "00", "P29_009": null }, "geometry": { "type": "Point", "coordinates": [ 139.495015215898206, 35.472841901379631 ] } },
{ "type": "Feature", "properties": { "P29_001": "14117", "P29_002": "E114210010087", "P29_003": "16012", "P29_004": "神奈川県立あおば支援学校", "P29_005": "神奈川県横浜市青葉区上谷本町109", "P29_006": "2", "P29_007": "0", "P29_008": "00", "P29_009": null }, "geometry": { "type": "Point", "coordinates": [ 139.522792026617395, 35.558359808095133 ] } },
{ "type": "Feature", "properties": { "P29_001": "14114", "P29_002": "E114210010096", "P29_003": "16012", "P29_004": "神奈川県立横浜ひなたやま支援学校", "P29_005": "神奈川県横浜市瀬谷区南瀬谷2-20", "P29_006": "2", "P29_007": "0", "P29_008": "00", "P29_009": null }, "geometry": { "type": "Point", "coordinates": [ 139.485587866050537, 35.445679640368283 ] } },
{ "type": "Feature", "properties": { "P29_001": "14102", "P29_002": "E114210020012", "P29_003": "16012", "P29_004": "横浜市立盲特別支援学校", "P29_005": "神奈川県横浜市神奈川区松見町1-26", "P29_006": "3", "P29_007": "0", "P29_008": "00", "P29_009": null }, "geometry": { "type": "Point", "coordinates": [ 139.641888925458261, 35.494726699773011 ] } },
{ "type": "Feature", "properties": { "P29_001": "14105", "P29_002": "E114210020021", "P29_003": "16012", "P29_004": "横浜市立浦舟特別支援学校", "P29_005": "神奈川県横浜市南区浦舟町3-46", "P29_006": "3", "P29_007": "0", "P29_008": "00", "P29_009": null }, "geometry": { "type": "Point", "coordinates": [ 139.625880774674613, 35.434066196845073 ] } },
{ "type": "Feature", "properties": { "P29_001": "14105", "P29_002": "E114210020030", "P29_003": "16012", "P29_004": "横浜市立中村特別支援学校", "P29_005": "神奈川県横浜市南区中村町4-269-1", "P29_006": "3", "P29_007": "0", "P29_008": "00", "P29_009": null }, "geometry": { "type": "Point", "coordinates": [ 139.626384588988685, 35.433088248644893 ] } },
{ "type": "Feature", "properties": { "P29_001": "14111", "P29_002": "E114210020049", "P29_003": "16012", "P29_004": "横浜市立港南台ひの特別支援学校", "P29_005": "神奈川県横浜市港南区港南台5-3-2", "P29_006": "3", "P29_007": "0", "P29_008": "00", "P29_009": null }, "geometry": { "type": "Point", "coordinates": [ 139.581869809199532, 35.37249167601221 ] } },
{ "type": "Feature", "properties": { "P29_001": "14111", "P29_002": "E114210020058", "P29_003": "16012", "P29_004": "横浜市立日野中央高等特別支援学校", "P29_005": "神奈川県横浜市港南区日野中央2-25-3", "P29_006": "3", "P29_007": "0", "P29_008": "00", "P29_009": null }, "geometry": { "type": "Point", "coordinates": [ 139.58727335066888, 35.386475849522242 ] } },
{ "type": "Feature", "properties": { "P29_001": "14106", "P29_002": "E114210020076", "P29_003": "16012", "P29_004": "横浜市立ろう特別支援学校", "P29_005": "神奈川県横浜市保土ケ谷区常盤台81-1", "P29_006": "3", "P29_007": "0", "P29_008": "00", "P29_009": null }, "geometry": { "type": "Point", "coordinates": [ 139.595793500811254, 35.472819790331037 ] } },
{ "type": "Feature", "properties": { "P29_001": "14112", "P29_002": "E114210020094", "P29_003": "16012", "P29_004": "横浜市立若葉台特別支援学校", "P29_005": "神奈川県横浜市旭区若葉台2-1-1", "P29_006": "3", "P29_007": "0", "P29_008": "00", "P29_009": null }, "geometry": { "type": "Point", "coordinates": [ 139.50207827197076, 35.502841108471635 ] } },
{ "type": "Feature", "properties": { "P29_001": "14110", "P29_002": "E114210020101", "P29_003": "16012", "P29_004": "横浜市立東俣野特別支援学校", "P29_005": "神奈川県横浜市戸塚区東俣野町1103-1", "P29_006": "3", "P29_007": "0", "P29_008": "00", "P29_009": null }, "geometry": { "type": "Point", "coordinates": [ 139.496594457370463, 35.36786469042908 ] } },
{ "type": "Feature", "properties": { "P29_001": "14115", "P29_002": "E114210020110", "P29_003": "16012", "P29_004": "横浜市立本郷特別支援学校", "P29_005": "神奈川県横浜市栄区小菅ケ谷3-37-12", "P29_006": "3", "P29_007": "0", "P29_008": "00", "P29_009": null }, "geometry": { "type": "Point", "coordinates": [ 139.557398410751688, 35.370413474209968 ] } },
{ "type": "Feature", "properties": { "P29_001": "14114", "P29_002": "E114210020129", "P29_003": "16012", "P29_004": "横浜市立二つ橋高等特別支援学校", "P29_005": "神奈川県横浜市瀬谷区二ツ橋町470", "P29_006": "3", "P29_007": "0", "P29_008": "00", "P29_009": null }, "geometry": { "type": "Point", "coordinates": [ 139.495945131670851, 35.47175741355931 ] } },
{ "type": "Feature", "properties": { "P29_001": "14112", "P29_002": "E114210020138", "P29_003": "16012", "P29_004": "横浜市立左近山特別支援学校", "P29_005": "神奈川県横浜市旭区左近山1011", "P29_006": "3", "P29_007": "0", "P29_008": "00", "P29_009": null }, "geometry": { "type": "Point", "coordinates": [ 139.556233621580787, 35.457136733295684 ] } },
{ "type": "Feature", "properties": { "P29_001": "14134", "P29_002": "E114213010027", "P29_003": "16012", "P29_004": "神奈川県立高津支援学校", "P29_005": "神奈川県川崎市高津区向ケ丘16", "P29_006": "2", "P29_007": "0", "P29_008": "00", "P29_009": null }, "geometry": { "type": "Point", "coordinates": [ 139.597247456757344, 35.593221524498745 ] } },
{ "type": "Feature", "properties": { "P29_001": "14137", "P29_002": "E114213010036", "P29_003": "16012", "P29_004": "神奈川県立麻生支援学校", "P29_005": "神奈川県川崎市麻生区王禅寺303-1", "P29_006": "2", "P29_007": "0", "P29_008": "00", "P29_009": null }, "geometry": { "type": "Point", "coordinates": [ 139.518105105836241, 35.580287978999003 ] } },
{ "type": "Feature", "properties": { "P29_001": "14133", "P29_002": "E114213020016", "P29_003": "16012", "P29_004": "川崎市立聾学校", "P29_005": "神奈川県川崎市中原区上小田中3-10-5", "P29_006": "3", "P29_007": "0", "P29_008": "00", "P29_009": null }, "geometry": { "type": "Point", "coordinates": [ 139.637458031482197, 35.58509305319113 ] } },
{ "type": "Feature", "properties": { "P29_001": "14134", "P29_002": "E114213020025", "P29_003": "16012", "P29_004": "川崎市立中央支援学校", "P29_005": "神奈川県川崎市高津区久本3-7-1", "P29_006": "3", "P29_007": "0", "P29_008": "00", "P29_009": null }, "geometry": { "type": "Point", "coordinates": [ 139.61835962575671, 35.598165921555022 ] } },
{ "type": "Feature", "properties": { "P29_001": "14131", "P29_002": "E114213020034", "P29_003": "16012", "P29_004": "川崎市立田島支援学校", "P29_005": "神奈川県川崎市川崎区田島町20-5", "P29_006": "3", "P29_007": "0", "P29_008": "00", "P29_009": null }, "geometry": { "type": "Point", "coordinates": [ 139.712061614056836, 35.515447576573415 ] } },
{ "type": "Feature", "properties": { "P29_001": "14131", "P29_002": "E114213020043", "P29_003": "16012", "P29_004": "川崎市立田島支援学校桜校", "P29_005": "神奈川県川崎市川崎区池上新町1-1-3", "P29_006": "3", "P29_007": "0", "P29_008": "00", "P29_009": null }, "geometry": { "type": "Point", "coordinates": [ 139.72594049468043, 35.523549056910177 ] } },
{ "type": "Feature", "properties": { "P29_001": "14153", "P29_002": "E114215010022", "P29_003": "16012", "P29_004": "神奈川県立相模原支援学校", "P29_005": "神奈川県相模原市南区当麻814", "P29_006": "2", "P29_007": "0", "P29_008": "01", "P29_009": null }, "geometry": { "type": "Point", "coordinates": [ 139.371546161109876, 35.530820628921987 ] } },
{ "type": "Feature", "properties": { "P29_001": "14201", "P29_002": "E114220110021", "P29_003": "16012", "P29_004": "神奈川県立武山支援学校", "P29_005": "神奈川県横須賀市武3-35-1", "P29_006": "2", "P29_007": "0", "P29_008": "00", "P29_009": null }, "geometry": { "type": "Point", "coordinates": [ 139.647540963636715, 35.219479630399782 ] } },
{ "type": "Feature", "properties": { "P29_001": "14201", "P29_002": "E114220120010", "P29_003": "16012", "P29_004": "横須賀市立ろう学校", "P29_005": "神奈川県横須賀市森崎5-13-1", "P29_006": "3", "P29_007": "0", "P29_008": "00", "P29_009": null }, "geometry": { "type": "Point", "coordinates": [ 139.666219408338293, 35.244163293924231 ] } },
{ "type": "Feature", "properties": { "P29_001": "14203", "P29_002": "E114220310010", "P29_003": "16012", "P29_004": "神奈川県立平塚盲学校", "P29_005": "神奈川県平塚市追分10-1", "P29_006": "2", "P29_007": "0", "P29_008": "00", "P29_009": null }, "geometry": { "type": "Point", "coordinates": [ 139.339144468739505, 35.339239767285825 ] } },
{ "type": "Feature", "properties": { "P29_001": "14203", "P29_002": "E114220310029", "P29_003": "16012", "P29_004": "神奈川県立平塚ろう学校", "P29_005": "神奈川県平塚市大原2-1", "P29_006": "2", "P29_007": "0", "P29_008": "00", "P29_009": null }, "geometry": { "type": "Point", "coordinates": [ 139.337748578340808, 35.34012193978581 ] } },
{ "type": "Feature", "properties": { "P29_001": "14203", "P29_002": "E114220310038", "P29_003": "16012", "P29_004": "神奈川県立平塚支援学校", "P29_005": "神奈川県平塚市寺田縄590", "P29_006": "2", "P29_007": "0", "P29_008": "00", "P29_009": null }, "geometry": { "type": "Point", "coordinates": [ 139.30946675958478, 35.359497379802967 ] } },
{ "type": "Feature", "properties": { "P29_001": "14203", "P29_002": "E114220310047", "P29_003": "16012", "P29_004": "神奈川県立湘南支援学校", "P29_005": "神奈川県平塚市御殿4-14-1", "P29_006": "2", "P29_007": "0", "P29_008": "00", "P29_009": null }, "geometry": { "type": "Point", "coordinates": [ 139.324833920398703, 35.348016865831561 ] } },
{ "type": "Feature", "properties": { "P29_001": "14204", "P29_002": "E114220410019", "P29_003": "16012", "P29_004": "神奈川県立鎌倉支援学校", "P29_005": "神奈川県鎌倉市関谷566", "P29_006": "2", "P29_007": "0", "P29_008": "01", "P29_009": null }, "geometry": { "type": "Point", "coordinates": [ 139.515132155260488, 35.361360688047718 ] } },
{ "type": "Feature", "properties": { "P29_001": "14205", "P29_002": "E114220520016", "P29_003": "16012", "P29_004": "藤沢市立白浜養護学校", "P29_005": "神奈川県藤沢市辻堂西海岸1-2-2", "P29_006": "3", "P29_007": "0", "P29_008": "00", "P29_009": null }, "geometry": { "type": "Point", "coordinates": [ 139.449638066545333, 35.325747299213198 ] } },
{ "type": "Feature", "properties": { "P29_001": "14207", "P29_002": "E114220710016", "P29_003": "16012", "P29_004": "神奈川県立茅ケ崎支援学校", "P29_005": "神奈川県茅ヶ崎市西久保29-1", "P29_006": "2", "P29_007": "0", "P29_008": "00", "P29_009": null }, "geometry": { "type": "Point", "coordinates": [ 139.388559075200362, 35.347388497514558 ] } },
{ "type": "Feature", "properties": { "P29_001": "14214", "P29_002": "E114221410017", "P29_003": "16012", "P29_004": "神奈川県立伊勢原支援学校", "P29_005": "神奈川県伊勢原市石田1390", "P29_006": "2", "P29_007": "0", "P29_008": "00", "P29_009": null }, "geometry": { "type": "Point", "coordinates": [ 139.344965528748702, 35.412355883622496 ] } },
{ "type": "Feature", "properties": { "P29_001": "14215", "P29_002": "E114221510016", "P29_003": "16012", "P29_004": "神奈川県立えびな支援学校", "P29_005": "神奈川県海老名市中新田4-5-1", "P29_006": "2", "P29_007": "0", "P29_008": "00", "P29_009": null }, "geometry": { "type": "Point", "coordinates": [ 139.384025765340539, 35.433328026605054 ] } },
{ "type": "Feature", "properties": { "P29_001": "14216", "P29_002": "E114221610015", "P29_003": "16012", "P29_004": "神奈川県立座間支援学校", "P29_005": "神奈川県座間市入谷西5-10-1", "P29_006": "2", "P29_007": "0", "P29_008": "00", "P29_009": null }, "geometry": { "type": "Point", "coordinates": [ 139.396535895011084, 35.479014774006366 ] } },
{ "type": "Feature", "properties": { "P29_001": "14104", "P29_002": "E114310000014", "P29_003": "16012", "P29_004": "横浜訓盲学院", "P29_005": "神奈川県横浜市中区竹之丸181", "P29_006": "4", "P29_007": "0", "P29_008": "00", "P29_009": null }, "geometry": { "type": "Point", "coordinates": [ 139.642477822026336, 35.429982714191709 ] } },
{ "type": "Feature", "properties": { "P29_001": "14105", "P29_002": "E114210010023", "P29_003": "16012", "P29_004": "神奈川県立横浜南支援学校", "P29_005": "神奈川県横浜市南区六ツ川2-138-4", "P29_006": "2", "P29_007": "0", "P29_008": "00", "P29_009": null }, "geometry": { "type": "Point", "coordinates": [ 139.579516138449804, 35.422843231424032 ] } },
{ "type": "Feature", "properties": { "P29_001": "14106", "P29_002": "E114210020067", "P29_003": "16012", "P29_004": "横浜市立上菅田特別支援学校", "P29_005": "神奈川県横浜市保土ケ谷区上菅田町462", "P29_006": "3", "P29_007": "0", "P29_008": "00", "P29_009": null }, "geometry": { "type": "Point", "coordinates": [ 139.574894591847539, 35.486018141401331 ] } },
{ "type": "Feature", "properties": { "P29_001": "14109", "P29_002": "E114210020085", "P29_003": "16012", "P29_004": "横浜市立北綱島特別支援学校", "P29_005": "神奈川県横浜市港北区綱島西5-14-54", "P29_006": "3", "P29_007": "0", "P29_008": "00", "P29_009": null }, "geometry": { "type": "Point", "coordinates": [ 139.630799409682254, 35.543417315417038 ] } },
{ "type": "Feature", "properties": { "P29_001": "14133", "P29_002": "E114213010018", "P29_003": "16012", "P29_004": "神奈川県立中原支援学校", "P29_005": "神奈川県川崎市中原区井田3-13-1", "P29_006": "2", "P29_007": "0", "P29_008": "00", "P29_009": null }, "geometry": { "type": "Point", "coordinates": [ 139.635466336458052, 35.564551532633864 ] } },
{ "type": "Feature", "properties": { "P29_001": "14151", "P29_002": "E114215010013", "P29_003": "16012", "P29_004": "神奈川県立津久井支援学校", "P29_005": "神奈川県相模原市緑区若柳44", "P29_006": "2", "P29_007": "0", "P29_008": "00", "P29_009": null }, "geometry": { "type": "Point", "coordinates": [ 139.20191841661881, 35.617548923138742 ] } },
{ "type": "Feature", "properties": { "P29_001": "14152", "P29_002": "E114215010031", "P29_003": "16012", "P29_004": "神奈川県立相模原中央支援学校", "P29_005": "神奈川県相模原市中央区高根1-5-36", "P29_006": "2", "P29_007": "0", "P29_008": "00", "P29_009": null }, "geometry": { "type": "Point", "coordinates": [ 139.394296646305321, 35.562618099505556 ] } },
{ "type": "Feature", "properties": { "P29_001": "14201", "P29_002": "E114220110012", "P29_003": "16012", "P29_004": "神奈川県立岩戸支援学校", "P29_005": "神奈川県横須賀市岩戸5-6-5", "P29_006": "2", "P29_007": "0", "P29_008": "00", "P29_009": null }, "geometry": { "type": "Point", "coordinates": [ 139.668190523661849, 35.226777294730645 ] } },
{ "type": "Feature", "properties": { "P29_001": "14201", "P29_002": "E114220120029", "P29_003": "16012", "P29_004": "横須賀市立養護学校", "P29_005": "神奈川県横須賀市岩戸5-6-4", "P29_006": "3", "P29_007": "0", "P29_008": "00", "P29_009": null }, "geometry": { "type": "Point", "coordinates": [ 139.670024112350859, 35.227448916335284 ] } },
{ "type": "Feature", "properties": { "P29_001": "14205", "P29_002": "E114220510018", "P29_003": "16012", "P29_004": "神奈川県立藤沢支援学校", "P29_005": "神奈川県藤沢市亀井野2547-19", "P29_006": "2", "P29_007": "0", "P29_008": "00", "P29_009": null }, "geometry": { "type": "Point", "coordinates": [ 139.47541200436163, 35.374537454875203 ] } },
{ "type": "Feature", "properties": { "P29_001": "14206", "P29_002": "E114220610017", "P29_003": "16012", "P29_004": "神奈川県立小田原支援学校", "P29_005": "神奈川県小田原市蓮正寺1021", "P29_006": "2", "P29_007": "0", "P29_008": "00", "P29_009": null }, "geometry": { "type": "Point", "coordinates": [ 139.147103569195451, 35.284471019022057 ] } },
{ "type": "Feature", "properties": { "P29_001": "14211", "P29_002": "E114221110010", "P29_003": "16012", "P29_004": "神奈川県立秦野支援学校", "P29_005": "神奈川県秦野市落合500", "P29_006": "2", "P29_007": "0", "P29_008": "00", "P29_009": null }, "geometry": { "type": "Point", "coordinates": [ 139.229722202672122, 35.387272579709482 ] } },
{ "type": "Feature", "properties": { "P29_001": "14104", "P29_002": "E114310000023", "P29_003": "16012", "P29_004": "聖坂支援学校", "P29_005": "神奈川県横浜市中区山手町140", "P29_006": "4", "P29_007": "0", "P29_008": "00", "P29_009": null }, "geometry": { "type": "Point", "coordinates": [ 139.657913794715967, 35.435821480190924 ] } },
{ "type": "Feature", "properties": { "P29_001": "14109", "P29_002": "E114210010014", "P29_003": "16012", "P29_004": "神奈川県立鶴見支援学校", "P29_005": "神奈川県横浜市港北区岸根町370（岸根高校内）", "P29_006": "2", "P29_007": "0", "P29_008": "02", "P29_009": "岸根分教室" }, "geometry": { "type": "Point", "coordinates": [ 139.613485152060292, 35.500894495082612 ] } },
{ "type": "Feature", "properties": { "P29_001": "14110", "P29_002": "E114210010032", "P29_003": "16012", "P29_004": "神奈川県立保土ケ谷支援学校", "P29_005": "神奈川県横浜市戸塚区南舞岡3-36-1（舞岡高校内）", "P29_006": "2", "P29_007": "0", "P29_008": "02", "P29_009": "舞岡分教室" }, "geometry": { "type": "Point", "coordinates": [ 139.554586087740375, 35.396034083931774 ] } },
{ "type": "Feature", "properties": { "P29_001": "14103", "P29_002": "E114210010032", "P29_003": "16012", "P29_004": "神奈川県立保土ケ谷支援学校", "P29_005": "神奈川県横浜市西区岡野1丁目5-8", "P29_006": "2", "P29_007": "0", "P29_008": "03", "P29_009": "横浜平沼分教室" }, "geometry": { "type": "Point", "coordinates": [ 139.615211014093148, 35.461484295293232 ] } },
{ "type": "Feature", "properties": { "P29_001": "14118", "P29_002": "E114210010050", "P29_003": "16012", "P29_004": "神奈川県立みどり支援学校", "P29_005": "神奈川県横浜市都筑区新栄町1-1（新栄高校内）", "P29_006": "2", "P29_007": "0", "P29_008": "02", "P29_009": "新栄分教室" }, "geometry": { "type": "Point", "coordinates": [ 139.595551820494507, 35.536749557196998 ] } },
{ "type": "Feature", "properties": { "P29_001": "14213", "P29_002": "E114210010069", "P29_003": "16012", "P29_004": "神奈川県立瀬谷支援学校", "P29_005": "神奈川県大和市深見1760（大和東高校内）", "P29_006": "2", "P29_007": "0", "P29_008": "02", "P29_009": "大和東分教室" }, "geometry": { "type": "Point", "coordinates": [ 139.469612239059614, 35.479007120248447 ] } },
{ "type": "Feature", "properties": { "P29_001": "14213", "P29_002": "E114210010069", "P29_003": "16012", "P29_004": "神奈川県立瀬谷支援学校", "P29_005": "神奈川県大和市上和田2557(神奈川県立大和南高等学校内)", "P29_006": "2", "P29_007": "0", "P29_008": "03", "P29_009": "大和南分教室" }, "geometry": { "type": "Point", "coordinates": [ 139.475148791988772, 35.443029638201537 ] } },
{ "type": "Feature", "properties": { "P29_001": "14151", "P29_002": "E114215010022", "P29_003": "16012", "P29_004": "神奈川県立相模原支援学校", "P29_005": "神奈川県横浜市都筑区橋本8-8-1（橋本高校内）", "P29_006": "2", "P29_007": "0", "P29_008": "02", "P29_009": "橋本分教室" }, "geometry": { "type": "Point", "coordinates": [ 139.334375073647266, 35.599438645382762 ] } },
{ "type": "Feature", "properties": { "P29_001": "14115", "P29_002": "E114220410019", "P29_003": "16012", "P29_004": "神奈川県立鎌倉支援学校", "P29_005": "神奈川県横浜市栄区金井町100", "P29_006": "2", "P29_007": "0", "P29_008": "02", "P29_009": "金井分教室" }, "geometry": { "type": "Point", "coordinates": [ 139.523513946170084, 35.373919976855845 ] } }
]
}
